Street Address,City,State,ZIP,address
Kathryn Salerno,Alexandria,VA,22306,Kathryn Salerno Alexandria VA 22306
2709 Popkins Ln,Alexandria,VA,22306,2709 Popkins Ln Alexandria VA 22306
6525 Montrose St,Alexandria,VA,22312,6525 Montrose St Alexandria VA 22312
3330 King St,Alexandria,VA,22302,3330 King St Alexandria VA 22302
6701 Fort Hunt Rd,Alexandria,VA,22307,6701 Fort Hunt Rd Alexandria VA 22307
6344 Beryl Rd,Alexandria,VA,22312,6344 Beryl Rd Alexandria VA 22312
2709 Popkins Ln,Alexandria,VA,22306,2709 Popkins Ln Alexandria VA 22306
6925 University Dr,Alexandria,VA,22307,6925 University Dr Alexandria VA 22307
5927 Westchester St,Alexandria,VA,22310,5927 Westchester St Alexandria VA 22310
3434 Campbell Dr,Alexandria,VA,22303,3434 Campbell Dr Alexandria VA 22303
1115 Martha Custis Dr,Alexandria,VA,22302,1115 Martha Custis Dr Alexandria VA 22302
5720 Clermont Dr,Alexandria,VA,22310,5720 Clermont Dr Alexandria VA 22310
3600 Commonwealth Ave,Alexandria,VA,22305,3600 Commonwealth Ave Alexandria VA 22305
1101 Janneys Ln,Alexandria,VA,22302,1101 Janneys Ln Alexandria VA 22302
5651 Rayburn Avenue,Alexandria,VA,22311,5651 Rayburn Avenue Alexandria VA 22311
5801 Franconia Rd,Alexandria,VA,22310,5801 Franconia Rd Alexandria VA 22310
5801 Franconia Rd,Alexandria,VA,22310,5801 Franconia Rd Alexandria VA 22310
1701 N Beauregard Street,Alexandria,VA,22311,1701 N Beauregard Street Alexandria VA 22311
8832 Linton Ln,Alexandria,VA,22308,8832 Linton Ln Alexandria VA 22308
4646 Seminary Road,Alexandria,VA,22304,4646 Seminary Road Alexandria VA 22304
6301 Beulah St,Alexandria,VA,22310,6301 Beulah St Alexandria VA 22310
2601 Cameron Mills Rd,Alexandria,VA,22302,2601 Cameron Mills Rd Alexandria VA 22302
1005 Mount Vernon Avenue,Alexandria,VA,22301,1005 Mount Vernon Avenue Alexandria VA 22301
4101 Fairfax Pkwy,Alexandria,VA,22312,4101 Fairfax Pkwy Alexandria VA 22312
3330 King Street,Alexandria,VA,22302,3330 King Street Alexandria VA 22302
6900 Harrison Ln,Alexandria,VA,22306,6900 Harrison Ln Alexandria VA 22306
7633 Telegraph Rd,Alexandria,VA,22315,7633 Telegraph Rd Alexandria VA 22315
2310 Nordok Place,Alexandria,VA,22306,2310 Nordok Place Alexandria VA 22306
6525 Montrose St,Alexandria,VA,22312,6525 Montrose St Alexandria VA 22312
3415 Lockheed Blvd,Alexandria,VA,22306,3415 Lockheed Blvd Alexandria VA 22306
7855 Morning View Ln,Alexandria,VA,22315,7855 Morning View Ln Alexandria VA 22315
5000 Polk Ave,Alexandria,VA,22304,5000 Polk Ave Alexandria VA 22304
1501 Cameron St,Alexandria,VA,22314,1501 Cameron St Alexandria VA 22314
5651 Rayburn Ave,Alexandria,VA,22311,5651 Rayburn Ave Alexandria VA 22311
7137 Beulah St,Alexandria,VA,22315,7137 Beulah St Alexandria VA 22315
530 S St Asaph St,Alexandria,VA,22314,530 S St Asaph St Alexandria VA 22314
6116 N Kings Hwy,Alexandria,VA,22303,6116 N Kings Hwy Alexandria VA 22303
2601 Commonwealth Ave,Alexandria,VA,22305,2601 Commonwealth Ave Alexandria VA 22305
8515 Old Mount Vernon Rd,Alexandria,VA,22309,8515 Old Mount Vernon Rd Alexandria VA 22309
4015 Fielding St,Alexandria,VA,22309,4015 Fielding St Alexandria VA 22309
600 Russell Rd,Alexandria,VA,22301,600 Russell Rd Alexandria VA 22301
200 S. Whiting St.,Alexandria,VA,22304,200 S. Whiting St. Alexandria VA 22304
4116 Braddock Rd,Alexandria,VA,22312,4116 Braddock Rd Alexandria VA 22312
4643 Taney Ave,Alexandria,VA,22304,4643 Taney Ave Alexandria VA 22304
6500 Quander Rd,Alexandria,VA,22307,6500 Quander Rd Alexandria VA 22307
6400 Quander Rd,Alexandria,VA,22307,6400 Quander Rd Alexandria VA 22307
8410 Old Mount Vernon Rd,Alexandria,VA,22309,8410 Old Mount Vernon Rd Alexandria VA 22309
6301 Rose Hill Dr,Alexandria,VA,22310,6301 Rose Hill Dr Alexandria VA 22310
435 Ferdinand Day Dr,Alexandria,VA,22304,435 Ferdinand Day Dr Alexandria VA 22304
8428 Fort Hunt Rd,Alexandria,VA,22308,8428 Fort Hunt Rd Alexandria VA 22308
8484 Riverside Rd,Alexandria,VA,22308,8484 Riverside Rd Alexandria VA 22308
6560 Braddock Rd,Alexandria,VA,22312,6560 Braddock Rd Alexandria VA 22312
4700 Franconia Rd,Alexandria,VA,22310,4700 Franconia Rd Alexandria VA 22310
6520 Diana Ln,Alexandria,VA,22310,6520 Diana Ln Alexandria VA 22310
9100 Cherrytree Dr,Alexandria,VA,22309,9100 Cherrytree Dr Alexandria VA 22309
1205 Waynewood Blvd,Alexandria,VA,22308,1205 Waynewood Blvd Alexandria VA 22308
6500 Quander Rd,Alexandria,VA,22307,6500 Quander Rd Alexandria VA 22307
6500 Quander Rd,Alexandria,VA,22307,6500 Quander Rd Alexandria VA 22307
6520 Braddock Rd,Alexandria,VA,22312,6520 Braddock Rd Alexandria VA 22312
2500 Parkers Ln,Alexandria,VA,22306,2500 Parkers Ln Alexandria VA 22306
5700 Sanger Ave,Alexandria,VA,22311,5700 Sanger Ave Alexandria VA 22311
8505 Highland Ln,Alexandria,VA,22309,8505 Highland Ln Alexandria VA 22309
8718 Old Mt Vernon Rd,Alexandria,VA,22309,8718 Old Mt Vernon Rd Alexandria VA 22309
2000 W Ball Rd,Anaheim,CA,92804,2000 W Ball Rd Anaheim CA 92804
811 W. Lincoln Ave.,Anaheim,CA,92805,811 W. Lincoln Ave. Anaheim CA 92805
6450 E. Serrano,Anaheim,CA,92807,6450 E. Serrano Anaheim CA 92807
1500 W. Ball Rd.,Anaheim,CA,92802,1500 W. Ball Rd. Anaheim CA 92802
1926 Clearbrook Ln.,Anaheim,CA,92804,1926 Clearbrook Ln. Anaheim CA 92804
601 N. Brookhurst Ave.,Anaheim,CA,92801,601 N. Brookhurst Ave. Anaheim CA 92801
830 S. Dale St.,Anaheim,CA,92801,830 S. Dale St. Anaheim CA 92801
220 S. Imperial Hwy.,Anaheim,CA,92807,220 S. Imperial Hwy. Anaheim CA 92807
260 S. Imperial Hwy.,Anaheim,CA,92807,260 S. Imperial Hwy. Anaheim CA 92807
1090 The Highlands Dr.,Anaheim,CA,92808,1090 The Highlands Dr. Anaheim CA 92808
195 N. W.ern Ave.,Anaheim,CA,92801,195 N. W.ern Ave. Anaheim CA 92801
3731 Cerritos,Anaheim,CA,92804,3731 Cerritos Anaheim CA 92804
5001 Gerda Dr.,Anaheim,CA,92807,5001 Gerda Dr. Anaheim CA 92807
900 S. Dale St.,Anaheim,CA,92804,900 S. Dale St. Anaheim CA 92804
320 Danbrook St.,Anaheim,CA,92804,320 Danbrook St. Anaheim CA 92804
229 S. Dale Ave.,Anaheim,CA,92804,229 S. Dale Ave. Anaheim CA 92804
1411 S. Gilbert St.,Anaheim,CA,92804,1411 S. Gilbert St. Anaheim CA 92804
2627 Crescent Ave.,Anaheim,CA,92801,2627 Crescent Ave. Anaheim CA 92801
1526 E. Romneya Dr.,Anaheim,CA,92805,1526 E. Romneya Dr. Anaheim CA 92805
181 S. Del Giorgio Rd.,Anaheim,CA,92808,181 S. Del Giorgio Rd. Anaheim CA 92808
100 S. Anaheim Blvd. Ste. 150,Anaheim,CA,92805,100 S. Anaheim Blvd. Ste. 150 Anaheim CA 92805
10802 Rustic Ln.,Anaheim,CA,92804,10802 Rustic Ln. Anaheim CA 92804
521 W. Water St.,Anaheim,CA,92805,521 W. Water St. Anaheim CA 92805
810 N. Gilbert St.,Anaheim,CA,92801,810 N. Gilbert St. Anaheim CA 92801
1800 Ball Rd.,Anaheim,CA,92804,1800 Ball Rd. Anaheim CA 92804
1051 S. Sunkist St.,Anaheim,CA,92806,1051 S. Sunkist St. Anaheim CA 92806
1300 S. Knott,Anaheim,CA,92804,1300 S. Knott Anaheim CA 92804
1123 W. Romneya Dr.,Anaheim,CA,92801,1123 W. Romneya Dr. Anaheim CA 92801
400 S. Imperial Hwy.,Anaheim,CA,92807,400 S. Imperial Hwy. Anaheim CA 92807
504 E. S. St.,Anaheim,CA,92805,504 E. S. St. Anaheim CA 92805
841 S. Sunkist St.,Anaheim,CA,92806,841 S. Sunkist St. Anaheim CA 92806
215 N. Ventura,Anaheim,CA,92801,215 N. Ventura Anaheim CA 92801
2200 E. Wagner Ave.,Anaheim,CA,92806,2200 E. Wagner Ave. Anaheim CA 92806
1413 E. BRd.way,Anaheim,CA,92805,1413 E. BRd.way Anaheim CA 92805
1601 W. BRd.way,Anaheim,CA,92802,1601 W. BRd.way Anaheim CA 92802
1765 W. Cerritos Ave.,Anaheim,CA,92804,1765 W. Cerritos Ave. Anaheim CA 92804
2911 Stonybrook Dr.,Anaheim,CA,92804,2911 Stonybrook Dr. Anaheim CA 92804
1510 S. Nutwood St.,Anaheim,CA,92804,1510 S. Nutwood St. Anaheim CA 92804
2450 W. Ball Rd.,Anaheim,CA,92804,2450 W. Ball Rd. Anaheim CA 92804
600 W. La Palma Ave.,Anaheim,CA,92801,600 W. La Palma Ave. Anaheim CA 92801
2066 Falmouth Ave.,Anaheim,CA,92801,2066 Falmouth Ave. Anaheim CA 92801
2613 W. Orange Ave.,Anaheim,CA,92804,2613 W. Orange Ave. Anaheim CA 92804
4100 E. Nohl Ranch Rd.,Anaheim,CA,92807,4100 E. Nohl Ranch Rd. Anaheim CA 92807
385 N. Muller St.,Anaheim,CA,92801,385 N. Muller St. Anaheim CA 92801
890 S. Olive St.,Anaheim,CA,92805,890 S. Olive St. Anaheim CA 92805
505 N. Euclid St.,Anaheim,CA,92801,505 N. Euclid St. Anaheim CA 92801
1000 S. Harbor Blvd.,Anaheim,CA,92805,1000 S. Harbor Blvd. Anaheim CA 92805
5125 E. Gerda Dr.,Anaheim,CA,92807,5125 E. Gerda Dr. Anaheim CA 92807
3715 W. Orange Ave.,Anaheim,CA,92804,3715 W. Orange Ave. Anaheim CA 92804
1646 W. Palm Ln.,Anaheim,CA,92805,1646 W. Palm Ln. Anaheim CA 92805
1800 W. Ball Rd.,Anaheim,CA,92804,1800 W. Ball Rd. Anaheim CA 92804
2135 S. Mountain View Ave.,Anaheim,CA,92802,2135 S. Mountain View Ave. Anaheim CA 92802
1516 W. N. St.,Anaheim,CA,92801,1516 W. N. St. Anaheim CA 92801
140 W. Guinida Ln.,Anaheim,CA,92805,140 W. Guinida Ln. Anaheim CA 92805
1600 E. Vermont Ave.,Anaheim,CA,92805,1600 E. Vermont Ave. Anaheim CA 92805
535 S. Walnut St.,Anaheim,CA,92802,535 S. Walnut St. Anaheim CA 92802
8670 E. Running Springs Dr.,Anaheim,CA,92808,8670 E. Running Springs Dr. Anaheim CA 92808
301 N. Gilbert St.,Anaheim,CA,92801,301 N. Gilbert St. Anaheim CA 92801
2320 E. S. St.,Anaheim,CA,92806,2320 E. S. St. Anaheim CA 92806
1841 S. Ninth St.,Anaheim,CA,92802,1841 S. Ninth St. Anaheim CA 92802
500 Sunkist St.,Anaheim,CA,92806,500 Sunkist St. Anaheim CA 92806
1801 E. Sycamore St.,Anaheim,CA,92805,1801 E. Sycamore St. Anaheim CA 92805
720 S. W.ern,Anaheim,CA,92804,720 S. W.ern Anaheim CA 92804
412 W. Carl Karcher Way,Anaheim,CA,92801,412 W. Carl Karcher Way Anaheim CA 92801
2323 W. Orange Ave.,Anaheim,CA,92804,2323 W. Orange Ave. Anaheim CA 92804
501 S. W.ern Ave.,Anaheim,CA,92804,501 S. W.ern Ave. Anaheim CA 92804
1525 W. W.mont Dr.,Anaheim,CA,92801,1525 W. W.mont Dr. Anaheim CA 92801
2220 SHERRY ST,ARLINGTON,TX,76010,2220 SHERRY ST ARLINGTON TX 76010
3100 DANIEL DR,ARLINGTON,TX,76014,3100 DANIEL DR ARLINGTON TX 76014
1101 TIMBERLAKE DR,ARLINGTON,TX,76010,1101 TIMBERLAKE DR ARLINGTON TX 76010
5206 S BOWEN,ARLINGTON,TX,76017,5206 S BOWEN ARLINGTON TX 76017
5206 S BOWEN RD,ARLINGTON,TX,76017,5206 S BOWEN RD ARLINGTON TX 76017
2800B W ARKANSAS LN,ARLINGTON,TX,76016,2800B W ARKANSAS LN ARLINGTON TX 76016
4900 W ARKANSAS LN,ARLINGTON,TX,76016,4900 W ARKANSAS LN ARLINGTON TX 76016
2224 SOUTHEAST PKWY,ARLINGTON,TX,76018,2224 SOUTHEAST PKWY ARLINGTON TX 76018
818 W PARK ROW,ARLINGTON,TX,76013,818 W PARK ROW ARLINGTON TX 76013
6700 SILO RD,ARLINGTON,TX,76002,6700 SILO RD ARLINGTON TX 76002
2101 OVERBROOK DR,ARLINGTON,TX,76014,2101 OVERBROOK DR ARLINGTON TX 76014
2411 WINEWOOD,ARLINGTON,TX,76013,2411 WINEWOOD ARLINGTON TX 76013
2101 SUBLETT RD,ARLINGTON,TX,76018,2101 SUBLETT RD ARLINGTON TX 76018
5900 INKS LK DR,ARLINGTON,TX,76018,5900 INKS LK DR ARLINGTON TX 76018
1700 SOUTHEAST PKWY,ARLINGTON,TX,76002,1700 SOUTHEAST PKWY ARLINGTON TX 76002
1800 JOYCE ST,ARLINGTON,TX,76010,1800 JOYCE ST ARLINGTON TX 76010
1900 S COLLINS ST,ARLINGTON,TX,76010,1900 S COLLINS ST ARLINGTON TX 76010
3900 SW GREEN OAKS BLVD,ARLINGTON,TX,76017,3900 SW GREEN OAKS BLVD ARLINGTON TX 76017
2101 HIGHBANK DR,ARLINGTON,TX,76018,2101 HIGHBANK DR ARLINGTON TX 76018
2201 HAVENWOOD DR,ARLINGTON,TX,76018,2201 HAVENWOOD DR ARLINGTON TX 76018
401 E MAYFIELD RD,ARLINGTON,TX,76014,401 E MAYFIELD RD ARLINGTON TX 76014
2121 MARGARET DR,ARLINGTON,TX,76012,2121 MARGARET DR ARLINGTON TX 76012
7321 LEDBETTER RD,ARLINGTON,TX,76001,7321 LEDBETTER RD ARLINGTON TX 76001
701 THARP ST,ARLINGTON,TX,76010,701 THARP ST ARLINGTON TX 76010
2122 W NATHAN LOWE RD,ARLINGTON,TX,76017,2122 W NATHAN LOWE RD ARLINGTON TX 76017
423 N CENTER ST,ARLINGTON,TX,76012,423 N CENTER ST ARLINGTON TX 76012
5200 KELLY ELLIOTT RD,ARLINGTON,TX,76017,5200 KELLY ELLIOTT RD ARLINGTON TX 76017
2934 RUSSELL RD,ARLINGTON,TX,76001,2934 RUSSELL RD ARLINGTON TX 76001
1201 COKE DR,ARLINGTON,TX,76010,1201 COKE DR ARLINGTON TX 76010
7900 TIN CUP DR,ARLINGTON,TX,76001,7900 TIN CUP DR ARLINGTON TX 76001
8100 WEBB FERRELL RD,ARLINGTON,TX,76002,8100 WEBB FERRELL RD ARLINGTON TX 76002
3001 QUAIL LN,ARLINGTON,TX,76016,3001 QUAIL LN ARLINGTON TX 76016
3100 LYNNWOOD DR,ARLINGTON,TX,76013,3100 LYNNWOOD DR ARLINGTON TX 76013
2201 WOODSIDE DR,ARLINGTON,TX,76013,2201 WOODSIDE DR ARLINGTON TX 76013
2601 SHADOW RDG DR,ARLINGTON,TX,76006,2601 SHADOW RDG DR ARLINGTON TX 76006
600 SE GREEN OAKS BLVD,ARLINGTON,TX,76018,600 SE GREEN OAKS BLVD ARLINGTON TX 76018
5201 CREEK VALLEY DR,ARLINGTON,TX,76018,5201 CREEK VALLEY DR ARLINGTON TX 76018
1025 HIGH POINT RD,ARLINGTON,TX,76015,1025 HIGH POINT RD ARLINGTON TX 76015
5700 PETRA DR,ARLINGTON,TX,76017,5700 PETRA DR ARLINGTON TX 76017
1400 REBECCA LN,ARLINGTON,TX,76014,1400 REBECCA LN ARLINGTON TX 76014
3000 S FIELDER RD,ARLINGTON,TX,76015,3000 S FIELDER RD ARLINGTON TX 76015
2400 E MAYFIELD RD,ARLINGTON,TX,76014,2400 E MAYFIELD RD ARLINGTON TX 76014
2020 W TUCKER BLVD,ARLINGTON,TX,76013,2020 W TUCKER BLVD ARLINGTON TX 76013
4950 S BOWEN RD,ARLINGTON,TX,76017,4950 S BOWEN RD ARLINGTON TX 76017
4950 S BOWEN RD,ARLINGTON,TX,76017,4950 S BOWEN RD ARLINGTON TX 76017
1201 MANSFIELD WEBB RD,ARLINGTON,TX,76002,1201 MANSFIELD WEBB RD ARLINGTON TX 76002
1200 BALLWEG RD,ARLINGTON,TX,76002,1200 BALLWEG RD ARLINGTON TX 76002
810 DOVE MEADOWS DR,ARLINGTON,TX,76002,810 DOVE MEADOWS DR ARLINGTON TX 76002
823 N CENTER ST,ARLINGTON,TX,76011,823 N CENTER ST ARLINGTON TX 76011
1900 SHERRY ST,ARLINGTON,TX,76010,1900 SHERRY ST ARLINGTON TX 76010
2001 VAN BUREN DR,ARLINGTON,TX,76011,2001 VAN BUREN DR ARLINGTON TX 76011
900 EDEN RD,ARLINGTON,TX,76001,900 EDEN RD ARLINGTON TX 76001
3621 ROOSEVELT DR,ARLINGTON,TX,76016,3621 ROOSEVELT DR ARLINGTON TX 76016
423 N CENTER ST,ARLINGTON,TX,76012,423 N CENTER ST ARLINGTON TX 76012
1400 W LAMAR BLVD,ARLINGTON,TX,76012,1400 W LAMAR BLVD ARLINGTON TX 76012
3721 LITTLE RD,ARLINGTON,TX,76016,3721 LITTLE RD ARLINGTON TX 76016
1071 TURNER WARNELL RD,ARLINGTON,TX,76001,1071 TURNER WARNELL RD ARLINGTON TX 76001
7700 S WATSON RD,ARLINGTON,TX,76002,7700 S WATSON RD ARLINGTON TX 76002
500 COUNTRY CLUB DR,ARLINGTON,TX,76002,500 COUNTRY CLUB DR ARLINGTON TX 76002
4501 W PLEASANT RIDGE RD,ARLINGTON,TX,76016,4501 W PLEASANT RIDGE RD ARLINGTON TX 76016
3609 S CENTER ST,ARLINGTON,TX,76014,3609 S CENTER ST ARLINGTON TX 76014
6401 W PLEASANT RDG RD,ARLINGTON,TX,76016,6401 W PLEASANT RDG RD ARLINGTON TX 76016
5500 PARK SPRINGS BLVD,ARLINGTON,TX,76017,5500 PARK SPRINGS BLVD ARLINGTON TX 76017
2900 BARRINGTON PL,ARLINGTON,TX,76014,2900 BARRINGTON PL ARLINGTON TX 76014
600 SE GREEN OAKS BLVD,ARLINGTON,TX,76018,600 SE GREEN OAKS BLVD ARLINGTON TX 76018
P O BOX 170057,ARLINGTON,TX,76003,P O BOX 170057 ARLINGTON TX 76003
P O BOX 170057,ARLINGTON,TX,76003,P O BOX 170057 ARLINGTON TX 76003
P O BOX 170057,ARLINGTON,TX,76003,P O BOX 170057 ARLINGTON TX 76003
P O BOX 170057,ARLINGTON,TX,76003,P O BOX 170057 ARLINGTON TX 76003
P O BOX 170057,ARLINGTON,TX,76003,P O BOX 170057 ARLINGTON TX 76003
P O BOX 170057,ARLINGTON,TX,76003,P O BOX 170057 ARLINGTON TX 76003
P O BOX 170057,ARLINGTON,TX,76003,P O BOX 170057 ARLINGTON TX 76003
2201 ASCENSION BLVD,ARLINGTON,TX,76006,2201 ASCENSION BLVD ARLINGTON TX 76006
950 S E PKWY,ARLINGTON,TX,76018,950 S E PKWY ARLINGTON TX 76018
2020 BAIRD FARM RD,ARLINGTON,TX,76006,2020 BAIRD FARM RD ARLINGTON TX 76006
601 E HARRIS RD,ARLINGTON,TX,76002,601 E HARRIS RD ARLINGTON TX 76002
901 CHESTNUT DR,ARLINGTON,TX,76012,901 CHESTNUT DR ARLINGTON TX 76012
6621 KELLY ELLIOTT RD,ARLINGTON,TX,76001,6621 KELLY ELLIOTT RD ARLINGTON TX 76001
1900 OLEANDER DR,ARLINGTON,TX,76010,1900 OLEANDER DR ARLINGTON TX 76010
2000 SAM HOUSTON DR,ARLINGTON,TX,76014,2000 SAM HOUSTON DR ARLINGTON TX 76014
7001 SILO RD,ARLINGTON,TX,76002,7001 SILO RD ARLINGTON TX 76002
2000 N FIELDER RD,ARLINGTON,TX,76012,2000 N FIELDER RD ARLINGTON TX 76012
2626 LINCOLN DR,ARLINGTON,TX,76006,2626 LINCOLN DR ARLINGTON TX 76006
2000 CALIFORNIA LN,ARLINGTON,TX,76015,2000 CALIFORNIA LN ARLINGTON TX 76015
2001 S DAVIS DR,ARLINGTON,TX,76013,2001 S DAVIS DR ARLINGTON TX 76013
811 FULLER ST,ARLINGTON,TX,76012,811 FULLER ST ARLINGTON TX 76012
1101 S FIELDER RD,ARLINGTON,TX,76013,1101 S FIELDER RD ARLINGTON TX 76013
7501 CALENDAR RD,ARLINGTON,TX,76001,7501 CALENDAR RD ARLINGTON TX 76001
1203 W PIONEER PKWY,ARLINGTON,TX,76013,1203 W PIONEER PKWY ARLINGTON TX 76013
7700 S WATSON RD,ARLINGTON,TX,76002,7700 S WATSON RD ARLINGTON TX 76002
7650 S WATSON RD,ARLINGTON,TX,76002,7650 S WATSON RD ARLINGTON TX 76002
2301 E PARK ROW,ARLINGTON,TX,76010,2301 E PARK ROW ARLINGTON TX 76010
2209 N DAVIS DR,ARLINGTON,TX,76012,2209 N DAVIS DR ARLINGTON TX 76012
600 SE GREEN OAKS BLVD,ARLINGTON,TX,76018,600 SE GREEN OAKS BLVD ARLINGTON TX 76018
4001 CASCADE SKY DR,ARLINGTON,TX,76005,4001 CASCADE SKY DR ARLINGTON TX 76005
1200 N COOPER ST,ARLINGTON,TX,76011,1200 N COOPER ST ARLINGTON TX 76011
4915 RED BIRCH DR,ARLINGTON,TX,76018,4915 RED BIRCH DR ARLINGTON TX 76018
1601 WRIGHT ST,ARLINGTON,TX,76012,1601 WRIGHT ST ARLINGTON TX 76012
3300 PIMLICO DR,ARLINGTON,TX,76017,3300 PIMLICO DR ARLINGTON TX 76017
701 E ARBROOK BLVD,ARLINGTON,TX,76014,701 E ARBROOK BLVD ARLINGTON TX 76014
3200 WOODSIDE,ARLINGTON,TX,76016,3200 WOODSIDE ARLINGTON TX 76016
3035 S Abingdon St,Arlington,VA,22206,3035 S Abingdon St Arlington VA 22206
115 S Old Glebe Road,Arlington,VA,22204,115 S Old Glebe Road Arlington VA 22204
800 S. Walter Reed Dr,Arlington,VA,22204,800 S. Walter Reed Dr Arlington VA 22204
1501 Lincoln Street,Arlington,VA,22201,1501 Lincoln Street Arlington VA 22201
1030 N. MCKINLEY ROAD,Arlington,VA,22205,1030 N. MCKINLEY ROAD Arlington VA 22205
5950 N. 8th Road,Arlington,VA,22205,5950 N. 8th Road Arlington VA 22205
625 S Wakefield St,Arlington,VA,22204,625 S Wakefield St Arlington VA 22204
4401 N Henderson Rd,Arlington,VA,22203,4401 N Henderson Rd Arlington VA 22203
737 S. Carlin Springs Rd.,Arlington,VA,22204,737 S. Carlin Springs Rd. Arlington VA 22204
1644 N. McKinley Road,Arlington,VA,22205,1644 N. McKinley Road Arlington VA 22205
5995 South 5th Road,Arlington,VA,22204,5995 South 5th Road Arlington VA 22204
4700 S. Chesterfield Rd.,Arlington,VA,22206,4700 S. Chesterfield Rd. Arlington VA 22206
5241 36th Street North,Arlington,VA,22207,5241 36th Street North Arlington VA 22207
4100 N Vacation Lane,Arlington,VA,22207,4100 N Vacation Lane Arlington VA 22207
3500 South 23rd Street,Arlington,VA,22206,3500 South 23rd Street Arlington VA 22206
The Heights Building,Arlington,VA,22209,The Heights Building Arlington VA 22209
1770 N. Glebe Road,Arlington,VA,22207,1770 N. Glebe Road Arlington VA 22207
816 South Walter Reed Drive,Arlington,VA,22204,816 South Walter Reed Drive Arlington VA 22204
2700 S Lang St,Arlington,VA,22206,2700 S Lang St Arlington VA 22206
4100 Vacation Lane,Arlington,VA,22207,4100 Vacation Lane Arlington VA 22207
1415 S Queen St,Arlington,VA,22204,1415 S Queen St Arlington VA 22204
1501 N. Lincoln Street,Arlington,VA,22201,1501 N. Lincoln Street Arlington VA 22201
4420 Fairfax Drive,Arlington,VA,22203,4420 Fairfax Drive Arlington VA 22203
3700 N Delaware St,Arlington,VA,22207,3700 N Delaware St Arlington VA 22207
125 S Old Glebe Rd,Arlington,VA,22204,125 S Old Glebe Rd Arlington VA 22204
200 S Carlin Springs Rd,Arlington,VA,22204,200 S Carlin Springs Rd Arlington VA 22204
855 N. Edison Street,Arlington,VA,22205,855 N. Edison Street Arlington VA 22205
2121 N Culpeper St,Arlington,VA,22207,2121 N Culpeper St Arlington VA 22207
33 N Fillmore St,Arlington,VA,22201,33 N Fillmore St Arlington VA 22201
701 S Highland Street,Arlington,VA,22204,701 S Highland Street Arlington VA 22204
2121 N. CULPEPER,Arlington,VA,22207,2121 N. CULPEPER Arlington VA 22207
5900 Little Falls Road,Arlington,VA,22207,5900 Little Falls Road Arlington VA 22207
1414 24th St S,Arlington,VA,22202,1414 24th St S Arlington VA 22202
1306 S Quincy St,Arlington,VA,22204,1306 S Quincy St Arlington VA 22204
5800 N Washington Blvd,Arlington,VA,22205,5800 N Washington Blvd Arlington VA 22205
2600 N Stuart St,Arlington,VA,22207,2600 N Stuart St Arlington VA 22207
816 S Walter Reed Dr,Arlington,VA,22204,816 S Walter Reed Dr Arlington VA 22204
6550 26th St N,Arlington,VA,22213,6550 26th St N Arlington VA 22213
1325 S. Dinwiddie Street,Arlington,VA,22206,1325 S. Dinwiddie Street Arlington VA 22206
1301 N Stafford St,Arlington,VA,22201,1301 N Stafford St Arlington VA 22201
3600 N Harrison St,Arlington,VA,22207,3600 N Harrison St Arlington VA 22207
5200 Yorktown Blvd,Arlington,VA,22207,5200 Yorktown Blvd Arlington VA 22207
1829 Kennedy Dr,Chicago,IL,60064,1829 Kennedy Dr Chicago IL 60064
4647 W 47th St,Chicago,IL,60632,4647 W 47th St Chicago IL 60632
410 Ashland Ave,Chicago,IL,60411,410 Ashland Ave Chicago IL 60411
6820 S Washtenaw Ave,Chicago,IL,60629,6820 S Washtenaw Ave Chicago IL 60629
5050 S Homan Ave,Chicago,IL,60632,5050 S Homan Ave Chicago IL 60632
4248 W 47th St,Chicago,IL,60632,4248 W 47th St Chicago IL 60632
1641 W 16th St,Chicago,IL,60608,1641 W 16th St Chicago IL 60608
4420 S Fairfield Ave,Chicago,IL,60632,4420 S Fairfield Ave Chicago IL 60632
2845 W Barry Ave,Chicago,IL,60618,2845 W Barry Ave Chicago IL 60618
2510 W Cortez St,Chicago,IL,60622,2510 W Cortez St Chicago IL 60622
2651 W 23rd St,Chicago,IL,60608,2651 W 23rd St Chicago IL 60608
2916 W 47th St,Chicago,IL,60632,2916 W 47th St Chicago IL 60632
4248 W 47th St,Chicago,IL,60632,4248 W 47th St Chicago IL 60632
5135 S California Ave,Chicago,IL,60632,5135 S California Ave Chicago IL 60632
4248 W 47th St,Chicago,IL,60632,4248 W 47th St Chicago IL 60632
5025 S St Louis Ave,Chicago,IL,60632,5025 S St Louis Ave Chicago IL 60632
2744 W Pershing Rd,Chicago,IL,60632,2744 W Pershing Rd Chicago IL 60632
7416 N Ridge Blvd,Chicago,IL,60645,7416 N Ridge Blvd Chicago IL 60645
2050 N Natchez Ave,Chicago,IL,60707,2050 N Natchez Ave Chicago IL 60707
10810 S Avenue H,Chicago,IL,60617,10810 S Avenue H Chicago IL 60617
3630 S Wells St,Chicago,IL,60609,3630 S Wells St Chicago IL 60609
4929 N Sawyer Ave,Chicago,IL,60625,4929 N Sawyer Ave Chicago IL 60625
2957 N Hoyne Ave,Chicago,IL,60618,2957 N Hoyne Ave Chicago IL 60618
2625 N Orchard St,Chicago,IL,60614,2625 N Orchard St Chicago IL 60614
630 E 131st St,Chicago,IL,60827,630 E 131st St Chicago IL 60827
5110 N Damen Ave,Chicago,IL,60625,5110 N Damen Ave Chicago IL 60625
1119 E 46th St,Chicago,IL,60653,1119 E 46th St Chicago IL 60653
950 W 33rd Pl,Chicago,IL,60608,950 W 33rd Pl Chicago IL 60608
2110 W Greenleaf Ave,Chicago,IL,60645,2110 W Greenleaf Ave Chicago IL 60645
7415 S East End Ave,Chicago,IL,60649,7415 S East End Ave Chicago IL 60649
8300 S Saint Louis Ave,Chicago,IL,60652,8300 S Saint Louis Ave Chicago IL 60652
8505 S Ingleside Ave,Chicago,IL,60619,8505 S Ingleside Ave Chicago IL 60619
1643 W Bryn Mawr Ave,Chicago,IL,60660,1643 W Bryn Mawr Ave Chicago IL 60660
2989 N Milwaukee Ave,Chicago,IL,60618,2989 N Milwaukee Ave Chicago IL 60618
3986 W Barry Ave,Chicago,IL,60618,3986 W Barry Ave Chicago IL 60618
3729 W Leland Ave,Chicago,IL,60625,3729 W Leland Ave Chicago IL 60625
3500 N Hoyne Ave,Chicago,IL,60618,3500 N Hoyne Ave Chicago IL 60618
231 N Pine Ave,Chicago,IL,60644,231 N Pine Ave Chicago IL 60644
8045 S Kenwood Ave,Chicago,IL,60619,8045 S Kenwood Ave Chicago IL 60619
3212 W George St,Chicago,IL,60618,3212 W George St Chicago IL 60618
4707 W Marquette Rd,Chicago,IL,60629,4707 W Marquette Rd Chicago IL 60629
2111 W 47th St,Chicago,IL,60609,2111 W 47th St Chicago IL 60609
401 Concord Dr,Chicago ,IL,60411,401 Concord Dr Chicago  IL 60411
6547 S Stewart Ave,Chicago,IL,60621,6547 S Stewart Ave Chicago IL 60621
10354 S Charles St,Chicago,IL,60643,10354 S Charles St Chicago IL 60643
2828 N Kilbourn Ave,Chicago,IL,60641,2828 N Kilbourn Ave Chicago IL 60641
7650 S Wolcott Ave,Chicago,IL,60620,7650 S Wolcott Ave Chicago IL 60620
1140 W 66th St,Chicago,IL,60621,1140 W 66th St Chicago IL 60621
4220 N Richmond St,Chicago,IL,60618,4220 N Richmond St Chicago IL 60618
6445 W Strong St,Chicago,IL,60656,6445 W Strong St Chicago IL 60656
5255 S State St,Chicago,IL,60609,5255 S State St Chicago IL 60609
5025 N Laramie Ave,Chicago,IL,60630,5025 N Laramie Ave Chicago IL 60630
25 W 47th St,Chicago,IL,60609,25 W 47th St Chicago IL 60609
3151 W Walnut St,Chicago,IL,60612,3151 W Walnut St Chicago IL 60612
4257 N Tripp Ave,Chicago,IL,60641,4257 N Tripp Ave Chicago IL 60641
3730 N Oakley Ave,Chicago,IL,60618,3730 N Oakley Ave Chicago IL 60618
5252 W Palmer St,Chicago,IL,60639,5252 W Palmer St Chicago IL 60639
28W300 Saint Charles Rd,Chicago,IL,60185,28W300 Saint Charles Rd Chicago IL 60185
10115 S Prairie Ave,Chicago,IL,60628,10115 S Prairie Ave Chicago IL 60628
7823 S Ellis Ave,Chicago,IL,60619,7823 S Ellis Ave Chicago IL 60619
9101 S Euclid Ave,Chicago,IL,60617,9101 S Euclid Ave Chicago IL 60617
1420 W Grace St,Chicago,IL,60613,1420 W Grace St Chicago IL 60613
6751 W 63rd Pl,Chicago,IL,60638,6751 W 63rd Pl Chicago IL 60638
101 W 10th St,Chicago,IL,60411,101 W 10th St Chicago IL 60411
22331 Cottage Grove Ave,Chicago,IL,60411,22331 Cottage Grove Ave Chicago IL 60411
3939 W 79th St,Chicago,IL,60652,3939 W 79th St Chicago IL 60652
7050 S May St,Chicago,IL,60621,7050 S May St Chicago IL 60621
6710 N Washtenaw Ave,Chicago,IL,60645,6710 N Washtenaw Ave Chicago IL 60645
7355 S Jeffery Blvd,Chicago,IL,60649,7355 S Jeffery Blvd Chicago IL 60649
2710 E 89th St,Chicago,IL,60617,2710 E 89th St Chicago IL 60617
7736 S Burnham Ave,Chicago,IL,60649,7736 S Burnham Ave Chicago IL 60649
4251 N Clarendon Ave,Chicago,IL,60613,4251 N Clarendon Ave Chicago IL 60613
2723 N Fairfield Ave,Chicago,IL,60647,2723 N Fairfield Ave Chicago IL 60647
1556 E 56th St,Chicago,IL,60637,1556 E 56th St Chicago IL 60637
3800 N New England Ave,Chicago,IL,60634,3800 N New England Ave Chicago IL 60634
10740 S Calhoun Ave,Chicago,IL,60617,10740 S Calhoun Ave Chicago IL 60617
3825 S Washtenaw Ave,Chicago,IL,60632,3825 S Washtenaw Ave Chicago IL 60632
4930 S Cottage Grove Ave,Chicago,IL,60615,4930 S Cottage Grove Ave Chicago IL 60615
8 W Root St,Chicago,IL,60609,8 W Root St Chicago IL 60609
4934 S Wabash Ave,Chicago,IL,60615,4934 S Wabash Ave Chicago IL 60615
250 E 111th St,Chicago,IL,60628,250 E 111th St Chicago IL 60628
54 N Hermitage Ave,Chicago,IL,60612,54 N Hermitage Ave Chicago IL 60612
12607 S Union Ave,Chicago,IL,60628,12607 S Union Ave Chicago IL 60628
6741 S Michigan Ave,Chicago,IL,60637,6741 S Michigan Ave Chicago IL 60637
932 N Central Ave,Chicago,IL,60651,932 N Central Ave Chicago IL 60651
2701 W Foster Ave,Chicago,IL,60625,2701 W Foster Ave Chicago IL 60625
2035 N Mobile Ave,Chicago,IL,60639,2035 N Mobile Ave Chicago IL 60639
5356 S King Dr,Chicago,IL,60615,5356 S King Dr Chicago IL 60615
1630 W Barry Ave,Chicago,IL,60657,1630 W Barry Ave Chicago IL 60657
9928 S Crandon Ave,Chicago,IL,60617,9928 S Crandon Ave Chicago IL 60617
650 E 91st Pl,Chicago,IL,60619,650 E 91st Pl Chicago IL 60619
1621 W Wabansia Ave,Chicago,IL,60622,1621 W Wabansia Ave Chicago IL 60622
3542 S Washtenaw Ave,Chicago,IL,60632,3542 S Washtenaw Ave Chicago IL 60632
5329 S Oak Park Ave,Chicago,IL,60638,5329 S Oak Park Ave Chicago IL 60638
8546 S Cregier Ave,Chicago,IL,60617,8546 S Cregier Ave Chicago IL 60617
3456 W 38th St,Chicago,IL,60632,3456 W 38th St Chicago IL 60632
7877 S Coles Ave,Chicago,IL,60649,7877 S Coles Ave Chicago IL 60649
1234 N Monticello Ave,Chicago,IL,60651,1234 N Monticello Ave Chicago IL 60651
3000 N Mango Ave,Chicago,IL,60634,3000 N Mango Ave Chicago IL 60634
3740 N Panama Ave,Chicago,IL,60634,3740 N Panama Ave Chicago IL 60634
2345 S Millard Ave,Chicago,IL,60623,2345 S Millard Ave Chicago IL 60623
1414 E 61st Pl,Chicago,IL,60637,1414 E 61st Pl Chicago IL 60637
2929 W 83rd St,Chicago,IL,60652,2929 W 83rd St Chicago IL 60652
5516 S Maplewood Ave,Chicago,IL,60629,5516 S Maplewood Ave Chicago IL 60629
5740 S Michigan Ave,Chicago,IL,60637,5740 S Michigan Ave Chicago IL 60637
13100 S Doty Ave,Chicago,IL,60827,13100 S Doty Ave Chicago IL 60827
901 E 133rd Pl,Chicago,IL,60827,901 E 133rd Pl Chicago IL 60827
3501 W Potomac Ave,Chicago,IL,60651,3501 W Potomac Ave Chicago IL 60651
11314 S Spaulding Ave,Chicago,IL,60655,11314 S Spaulding Ave Chicago IL 60655
6727 S California Ave,Chicago,IL,60629,6727 S California Ave Chicago IL 60629
5608 W Washington Blvd,Chicago,IL,60644,5608 W Washington Blvd Chicago IL 60644
2908 W Washington Blvd,Chicago,IL,60612,2908 W Washington Blvd Chicago IL 60612
2745 W Roosevelt Rd,Chicago,IL,60608,2745 W Roosevelt Rd Chicago IL 60608
2135 W Foster Ave,Chicago,IL,60625,2135 W Foster Ave Chicago IL 60625
5001 S Long Ave,Chicago,IL,60638,5001 S Long Ave Chicago IL 60638
2021 N Point St,Chicago,IL,60647,2021 N Point St Chicago IL 60647
4747 S Marshfield Ave,Chicago,IL,60609,4747 S Marshfield Ave Chicago IL 60609
3400 N Austin Ave,Chicago,IL,60634,3400 N Austin Ave Chicago IL 60634
3400 N Austin Ave,Chicago,IL,60634,3400 N Austin Ave Chicago IL 60634
11816 S Indiana Ave,Chicago,IL,60628,11816 S Indiana Ave Chicago IL 60628
1257 W 111th St,Chicago,IL,60643,1257 W 111th St Chicago IL 60643
1020 Dixie Hwy,Chicago,IL,60411,1020 Dixie Hwy Chicago IL 60411
3857 W 111th St,Chicago,IL,60655,3857 W 111th St Chicago IL 60655
2714 W Augusta Blvd,Chicago,IL,60622,2714 W Augusta Blvd Chicago IL 60622
7212 N Clark St,Chicago,IL,60626,7212 N Clark St Chicago IL 60626
3519 S Giles Ave,Chicago,IL,60653,3519 S Giles Ave Chicago IL 60653
1301 W 14th St,Chicago,IL,60608,1301 W 14th St Chicago IL 60608
2100 E 87th St,Chicago,IL,60617,2100 E 87th St Chicago IL 60617
1340 W Harrison St,Chicago,IL,60607,1340 W Harrison St Chicago IL 60607
2450 W Rice St,Chicago,IL,60622,2450 W Rice St Chicago IL 60622
5042 S Artesian Ave,Chicago,IL,60632,5042 S Artesian Ave Chicago IL 60632
5235 W Belden St,Chicago,IL,60639,5235 W Belden St Chicago IL 60639
1501 E 83rd Pl,Chicago,IL,60619,1501 E 83rd Pl Chicago IL 60619
1816 W Garfield Blvd,Chicago,IL,60609,1816 W Garfield Blvd Chicago IL 60609
13300 S Langley Ave,Chicago,IL,60827,13300 S Langley Ave Chicago IL 60827
2235 N Hamilton Ave,Chicago,IL,60647,2235 N Hamilton Ave Chicago IL 60647
3820 N Spaulding Ave,Chicago,IL,60618,3820 N Spaulding Ave Chicago IL 60618
1309 W 95th St,Chicago,IL,60643,1309 W 95th St Chicago IL 60643
9535 S Loomis St,Chicago,IL,60643,9535 S Loomis St Chicago IL 60643
3900 W Peterson Ave,Chicago,IL,60659,3900 W Peterson Ave Chicago IL 60659
11530 S Prairie Ave,Chicago,IL,60628,11530 S Prairie Ave Chicago IL 60628
1817 W 80th St,Chicago,IL,60620,1817 W 80th St Chicago IL 60620
110 E 61st St,Chicago,IL,60637,110 E 61st St Chicago IL 60637
2245 N McVicker Ave,Chicago,IL,60639,2245 N McVicker Ave Chicago IL 60639
8130 S California Ave,Chicago,IL,60652,8130 S California Ave Chicago IL 60652
2300 W 64th St,Chicago,IL,60636,2300 W 64th St Chicago IL 60636
1045 S Monitor Ave,Chicago,IL,60644,1045 S Monitor Ave Chicago IL 60644
5101 W Harrison St,Chicago,IL,60644,5101 W Harrison St Chicago IL 60644
13231 S Burley Ave,Chicago,IL,60633,13231 S Burley Ave Chicago IL 60633
1147 N Western Ave,Chicago,IL,60622,1147 N Western Ave Chicago IL 60622
3121 W Byron St,Chicago,IL,60618,3121 W Byron St Chicago IL 60618
6110 N Fairfield Ave,Chicago,IL,60659,6110 N Fairfield Ave Chicago IL 60659
2350 W 110th Pl,Chicago,IL,60643,2350 W 110th Pl Chicago IL 60643
1441 W 119th St,Chicago,IL,60643,1441 W 119th St Chicago IL 60643
8441 S Yates Blvd,Chicago,IL,60617,8441 S Yates Blvd Chicago IL 60617
1313 S Sacramento Dr,Chicago,IL,60623,1313 S Sacramento Dr Chicago IL 60623
4520 S Kedzie Ave,Chicago,IL,60632,4520 S Kedzie Ave Chicago IL 60632
1003 N Leavitt St,Chicago,IL,60622,1003 N Leavitt St Chicago IL 60622
326 Joliet St,Chicago,IL,60185,326 Joliet St Chicago IL 60185
1100 S Hamilton Ave,Chicago,IL,60612,1100 S Hamilton Ave Chicago IL 60612
2700 S California Ave,Chicago,IL,60608,2700 S California Ave Chicago IL 60608
8150 S Bishop St,Chicago,IL,60620,8150 S Bishop St Chicago IL 60620
4046 N Leavitt St,Chicago,IL,60618,4046 N Leavitt St Chicago IL 60618
1624 W 19th St,Chicago,IL,60608,1624 W 19th St Chicago IL 60608
2510 S Kildare Ave,Chicago,IL,60623,2510 S Kildare Ave Chicago IL 60623
821 E 103rd St,Chicago,IL,60628,821 E 103rd St Chicago IL 60628
4420 N Beacon St,Chicago,IL,60640,4420 N Beacon St Chicago IL 60640
2245 W Jackson Blvd,Chicago,IL,60612,2245 W Jackson Blvd Chicago IL 60612
2128 S Saint Louis Ave,Chicago,IL,60623,2128 S Saint Louis Ave Chicago IL 60623
8324 S Racine Ave,Chicago,IL,60620,8324 S Racine Ave Chicago IL 60620
10650 S Eberhart Ave,Chicago,IL,60628,10650 S Eberhart Ave Chicago IL 60628
4959 S Archer Ave,Chicago,IL,60632,4959 S Archer Ave Chicago IL 60632
800 Garys Mill Rd,Chicago,IL,60185,800 Garys Mill Rd Chicago IL 60185
32 E 115th St,Chicago,IL,60628,32 E 115th St Chicago IL 60628
5024 S Wolcott Ave,Chicago,IL,60609,5024 S Wolcott Ave Chicago IL 60609
3116 W Belden Ave,Chicago,IL,60647,3116 W Belden Ave Chicago IL 60647
6740 S Paulina St,Chicago,IL,60636,6740 S Paulina St Chicago IL 60636
3014 W 39th Pl,Chicago,IL,60632,3014 W 39th Pl Chicago IL 60632
3810 W 81st Pl,Chicago,IL,60652,3810 W 81st Pl Chicago IL 60652
1313 N Claremont Ave,Chicago,IL,60622,1313 N Claremont Ave Chicago IL 60622
7030 N Sacramento Ave,Chicago,IL,60645,7030 N Sacramento Ave Chicago IL 60645
7240 S Wabash Ave,Chicago,IL,60619,7240 S Wabash Ave Chicago IL 60619
139 S Parkside Ave,Chicago,IL,60644,139 S Parkside Ave Chicago IL 60644
2131 W Monroe St,Chicago,IL,60612,2131 W Monroe St Chicago IL 60612
3436 N Osceola Ave,Chicago,IL,60634,3436 N Osceola Ave Chicago IL 60634
1900 W LAWRENCE AVE,Chicago,IL,60640,1900 W LAWRENCE AVE Chicago IL 60640
5415 S Union Ave,Chicago,IL,60609,5415 S Union Ave Chicago IL 60609
8601 W Foster Ave,Chicago,IL,60656,8601 W Foster Ave Chicago IL 60656
4140 N Marine Dr,Chicago,IL,60613,4140 N Marine Dr Chicago IL 60613
3815 N Kedvale Ave,Chicago,IL,60641,3815 N Kedvale Ave Chicago IL 60641
3900 N Lawndale Ave,Chicago,IL,60618,3900 N Lawndale Ave Chicago IL 60618
100 W 10th St,Chicago ,IL,60411,100 W 10th St Chicago  IL 60411
8306 S Saint Lawrence Ave,Chicago,IL,60619,8306 S Saint Lawrence Ave Chicago IL 60619
7134 W 65Th St,Chicago,IL,60638,7134 W 65Th St Chicago IL 60638
543 N Waller Ave,Chicago,IL,60644,543 N Waller Ave Chicago IL 60644
2710 S Dearborn St,Chicago,IL,60616,2710 S Dearborn St Chicago IL 60616
1845 W Cortland St,Chicago,IL,60622,1845 W Cortland St Chicago IL 60622
330 E 133rd St,Chicago,IL,60827,330 E 133rd St Chicago IL 60827
6311 S Calumet Ave,Chicago,IL,60637,6311 S Calumet Ave Chicago IL 60637
3000 S King Dr,Chicago,IL,60616,3000 S King Dr Chicago IL 60616
10845 S Union Ave,Chicago,IL,60628,10845 S Union Ave Chicago IL 60628
8445 S Kolin Ave,Chicago,IL,60652,8445 S Kolin Ave Chicago IL 60652
3615 W 16th St,Chicago,IL,60623,3615 W 16th St Chicago IL 60623
1710 E 93rd St,Chicago,IL,60617,1710 E 93rd St Chicago IL 60617
2040 W 62nd St,Chicago,IL,60636,2040 W 62nd St Chicago IL 60636
300 E Forest Ave,Chicago,IL,60185,300 E Forest Ave Chicago IL 60185
3400 W 65th Pl,Chicago,IL,60629,3400 W 65th Pl Chicago IL 60629
7350 W Pratt Ave,Chicago,IL,60631,7350 W Pratt Ave Chicago IL 60631
6525 N Hiawatha Ave,Chicago,IL,60646,6525 N Hiawatha Ave Chicago IL 60646
4929 N Sawyer Ave,Chicago,IL,60625,4929 N Sawyer Ave Chicago IL 60625
6220 N Olcott Ave,Chicago,IL,60631,6220 N Olcott Ave Chicago IL 60631
851 Pearl Rd,Chicago,IL,60185,851 Pearl Rd Chicago IL 60185
4815 S Karlov Ave,Chicago,IL,60632,4815 S Karlov Ave Chicago IL 60632
10835 Lombard Ave,Chicago,IL,60415,10835 Lombard Ave Chicago IL 60415
243 N Parkside Ave,Chicago,IL,60644,243 N Parkside Ave Chicago IL 60644
6835 S Normal Blvd,Chicago,IL,60621,6835 S Normal Blvd Chicago IL 60621
8255 S Houston Ave,Chicago,IL,60617,8255 S Houston Ave Chicago IL 60617
3600 W 5th Ave,Chicago,IL,60624,3600 W 5th Ave Chicago IL 60624
1405 N Washtenaw Ave,Chicago,IL,60622,1405 N Washtenaw Ave Chicago IL 60622
1865 W Montvale Ave,Chicago,IL,60643,1865 W Montvale Ave Chicago IL 60643
1210 Adams St,Chicago,IL,60064,1210 Adams St Chicago IL 60064
3419 S Bell Ave,Chicago,IL,60608,3419 S Bell Ave Chicago IL 60608
3537 S Paulina St,Chicago,IL,60609,3537 S Paulina St Chicago IL 60609
9811 S Lowe Ave,Chicago,IL,60628,9811 S Lowe Ave Chicago IL 60628
7141 S Morgan St,Chicago,IL,60621,7141 S Morgan St Chicago IL 60621
7050 S Washtenaw Ave,Chicago,IL,60629,7050 S Washtenaw Ave Chicago IL 60629
7530 S South Shore Dr,Chicago,IL,60649,7530 S South Shore Dr Chicago IL 60649
6201 S Fairfield Ave,Chicago,IL,60629,6201 S Fairfield Ave Chicago IL 60629
3020 N Lamon Ave,Chicago,IL,60641,3020 N Lamon Ave Chicago IL 60641
3250 W Monroe St,Chicago,IL,60624,3250 W Monroe St Chicago IL 60624
5414 N Linder Ave,Chicago,IL,60630,5414 N Linder Ave Chicago IL 60630
2345 S Christiana Ave,Chicago,IL,60623,2345 S Christiana Ave Chicago IL 60623
11220 S Wallace St,Chicago,IL,60628,11220 S Wallace St Chicago IL 60628
10041 S Union Ave,Chicago,IL,60628,10041 S Union Ave Chicago IL 60628
7019 N Ashland Blvd,Chicago,IL,60626,7019 N Ashland Blvd Chicago IL 60626
2332 S Western Ave,Chicago,IL,60608,2332 S Western Ave Chicago IL 60608
6020 S Langley Ave,Chicago,IL,60637,6020 S Langley Ave Chicago IL 60637
3235 N Leclaire Ave,Chicago,IL,60641,3235 N Leclaire Ave Chicago IL 60641
9025 S Throop St,Chicago,IL,60620,9025 S Throop St Chicago IL 60620
8530 S Wood St,Chicago,IL,60620,8530 S Wood St Chicago IL 60620
225 W Evergreen Ave,Chicago,IL,60610,225 W Evergreen Ave Chicago IL 60610
4027 W Grenshaw St,Chicago,IL,60624,4027 W Grenshaw St Chicago IL 60624
4214 S Saint Lawrence Ave,Chicago,IL,60653,4214 S Saint Lawrence Ave Chicago IL 60653
5300 S Hermitage Ave,Chicago,IL,60609,5300 S Hermitage Ave Chicago IL 60609
2010 N Central Park Ave,Chicago,IL,60647,2010 N Central Park Ave Chicago IL 60647
5630 S Rockwell St,Chicago,IL,60629,5630 S Rockwell St Chicago IL 60629
1631 W Jonquil Ter,Chicago,IL,60626,1631 W Jonquil Ter Chicago IL 60626
820 S Carpenter St,Chicago,IL,60607,820 S Carpenter St Chicago IL 60607
10347 S Ewing Ave,Chicago,IL,60617,10347 S Ewing Ave Chicago IL 60617
3231 N Springfield Ave,Chicago,IL,60618,3231 N Springfield Ave Chicago IL 60618
140 E 23rd St,Chicago,IL,60411,140 E 23rd St Chicago IL 60411
10309 S Morgan St,Chicago,IL,60643,10309 S Morgan St Chicago IL 60643
5225 N Oak Park Ave,Chicago,IL,60656,5225 N Oak Park Ave Chicago IL 60656
3740 W 31st St,Chicago,IL,60623,3740 W 31st St Chicago IL 60623
130 E Forest Ave,Chicago,IL,60185,130 E Forest Ave Chicago IL 60185
9301 S State St,Chicago,IL,60619,9301 S State St Chicago IL 60619
2236 N Rockwell St,Chicago,IL,60647,2236 N Rockwell St Chicago IL 60647
7651 S Homan Ave,Chicago,IL,60652,7651 S Homan Ave Chicago IL 60652
5120 N Winthrop Ave,Chicago,IL,60640,5120 N Winthrop Ave Chicago IL 60640
4436 S Union Ave,Chicago,IL,60609,4436 S Union Ave Chicago IL 60609
2347 S Wabash Ave,Chicago,IL,60616,2347 S Wabash Ave Chicago IL 60616
3730 N Laramie Ave,Chicago,IL,60641,3730 N Laramie Ave Chicago IL 60641
8401 S Saginaw Ave,Chicago,IL,60617,8401 S Saginaw Ave Chicago IL 60617
832 W Sheridan Rd,Chicago,IL,60613,832 W Sheridan Rd Chicago IL 60613
1150 W 96th St,Chicago,IL,60643,1150 W 96th St Chicago IL 60643
2100 Green Bay Rd,Chicago,IL,60064,2100 Green Bay Rd Chicago IL 60064
101 W Greenbriar Ave,Chicago,IL,60411,101 W Greenbriar Ave Chicago IL 60411
3525 S Honore St,Chicago,IL,60609,3525 S Honore St Chicago IL 60609
3715 W Polk St,Chicago,IL,60624,3715 W Polk St Chicago IL 60624
8524 S Green St,Chicago,IL,60620,8524 S Green St Chicago IL 60620
5450 W 64th Pl,Chicago,IL,60638,5450 W 64th Pl Chicago IL 60638
12810 S Escanaba Ave,Chicago,IL,60633,12810 S Escanaba Ave Chicago IL 60633
4420 S Sacramento Ave,Chicago,IL,60632,4420 S Sacramento Ave Chicago IL 60632
247 W 23rd Pl,Chicago,IL,60616,247 W 23rd Pl Chicago IL 60616
6140 S Melvina Ave,Chicago,IL,60638,6140 S Melvina Ave Chicago IL 60638
11411 S Eggleston Ave,Chicago,IL,60628,11411 S Eggleston Ave Chicago IL 60628
1650 W Cornelia Ave,Chicago,IL,60657,1650 W Cornelia Ave Chicago IL 60657
4747 S Bishop St,Chicago,IL,60609,4747 S Bishop St Chicago IL 60609
2819 W 21st Pl,Chicago,IL,60623,2819 W 21st Pl Chicago IL 60623
3434 W 77th St,Chicago,IL,60652,3434 W 77th St Chicago IL 60652
4034 W 56th St,Chicago,IL,60629,4034 W 56th St Chicago IL 60629
5411 W Fullerton Ave,Chicago,IL,60639,5411 W Fullerton Ave Chicago IL 60639
9652 S Michigan Ave,Chicago,IL,60628,9652 S Michigan Ave Chicago IL 60628
2851 N Seminary Ave,Chicago,IL,60657,2851 N Seminary Ave Chicago IL 60657
7525 S Harvard Ave,Chicago,IL,60620,7525 S Harvard Ave Chicago IL 60620
4540 N Hamlin Ave,Chicago,IL,60625,4540 N Hamlin Ave Chicago IL 60625
3319 N Clifton Ave,Chicago,IL,60657,3319 N Clifton Ave Chicago IL 60657
1018 N Laramie Ave,Chicago,IL,60651,1018 N Laramie Ave Chicago IL 60651
1518 W Granville Ave,Chicago,IL,60660,1518 W Granville Ave Chicago IL 60660
3010 S Parnell Ave,Chicago,IL,60616,3010 S Parnell Ave Chicago IL 60616
4640 S Lamon Ave,Chicago,IL,60638,4640 S Lamon Ave Chicago IL 60638
4747 S Winchester Ave,Chicago,IL,60609,4747 S Winchester Ave Chicago IL 60609
4409 W Wilcox St,Chicago,IL,60624,4409 W Wilcox St Chicago IL 60624
5650 S Wolcott Ave,Chicago,IL,60636,5650 S Wolcott Ave Chicago IL 60636
4316 S Princeton Ave,Chicago,IL,60609,4316 S Princeton Ave Chicago IL 60609
4250 N Saint Louis Ave,Chicago,IL,60618,4250 N Saint Louis Ave Chicago IL 60618
3510 W 55th St,Chicago,IL,60632,3510 W 55th St Chicago IL 60632
3711 W Douglas Blvd,Chicago,IL,60623,3711 W Douglas Blvd Chicago IL 60623
3244 W Ainslie St,Chicago,IL,60625,3244 W Ainslie St Chicago IL 60625
11710 S Morgan St,Chicago,IL,60643,11710 S Morgan St Chicago IL 60643
828 Willow Dr,Chicago ,IL,60411,828 Willow Dr Chicago  IL 60411
7740 S Ingleside Ave,Chicago,IL,60619,7740 S Ingleside Ave Chicago IL 60619
5625 N McVicker Ave,Chicago,IL,60646,5625 N McVicker Ave Chicago IL 60646
1104 W 31st St,Chicago,IL,60608,1104 W 31st St Chicago IL 60608
955 W Garfield Blvd,Chicago,IL,60621,955 W Garfield Blvd Chicago IL 60621
1628 W Washington Blvd,Chicago,IL,60612,1628 W Washington Blvd Chicago IL 60612
5401 S Western Ave,Chicago,IL,60609,5401 S Western Ave Chicago IL 60609
2456 N Mango Ave,Chicago,IL,60639,2456 N Mango Ave Chicago IL 60639
2245 W Pershing Rd,Chicago,IL,60609,2245 W Pershing Rd Chicago IL 60609
720 N Lorel Ave,Chicago,IL,60644,720 N Lorel Ave Chicago IL 60644
8905 S Crandon Ave,Chicago,IL,60617,8905 S Crandon Ave Chicago IL 60617
6200 S Hamlin Ave,Chicago,IL,60629,6200 S Hamlin Ave Chicago IL 60629
4247 W 15th St,Chicago,IL,60623,4247 W 15th St Chicago IL 60623
240 W 104th St,Chicago,IL,60628,240 W 104th St Chicago IL 60628
3849 W 69th Pl,Chicago,IL,60629,3849 W 69th Pl Chicago IL 60629
6220 S Stony Island Ave,Chicago,IL,60637,6220 S Stony Island Ave Chicago IL 60637
2520 S Western Ave,Chicago,IL,60608,2520 S Western Ave Chicago IL 60608
2570 S Blue Island,Chicago,IL,60608,2570 S Blue Island Chicago IL 60608
1950 W Roosevelt Rd,Chicago,IL,60608,1950 W Roosevelt Rd Chicago IL 60608
N645 Indian Knoll Rd,Chicago,IL,60185,N645 Indian Knoll Rd Chicago IL 60185
3120 S Kostner Ave,Chicago,IL,60623,3120 S Kostner Ave Chicago IL 60623
851 W Waveland Ave,Chicago,IL,60613,851 W Waveland Ave Chicago IL 60613
79 W Monroe St Ste 400,Chicago,IL,60603,79 W Monroe St Ste 400 Chicago IL 60603
4540 W Belmont Ave,Chicago,IL,60641,4540 W Belmont Ave Chicago IL 60641
749 S Oakley Blvd,Chicago,IL,60612,749 S Oakley Blvd Chicago IL 60612
136 N Western Ave,Chicago,IL,60612,136 N Western Ave Chicago IL 60612
917 W 88th St,Chicago,IL,60620,917 W 88th St Chicago IL 60620
3149 N Wolcott Ave,Chicago,IL,60657,3149 N Wolcott Ave Chicago IL 60657
535 E 35th St,Chicago,IL,60616,535 E 35th St Chicago IL 60616
5650 N Mozart St,Chicago,IL,60659,5650 N Mozart St Chicago IL 60659
176 E 11th St,Chicago,IL,60411,176 E 11th St Chicago IL 60411
3030 W Harrison St,Chicago,IL,60612,3030 W Harrison St Chicago IL 60612
1420 S Albany Ave,Chicago,IL,60623,1420 S Albany Ave Chicago IL 60623
700 S State St,Chicago,IL,60605,700 S State St Chicago IL 60605
7931 S Honore St,Chicago,IL,60620,7931 S Honore St Chicago IL 60620
7414 N Wolcott Ave,Chicago,IL,60626,7414 N Wolcott Ave Chicago IL 60626
1450 W Cermak Rd,Chicago,IL,60608,1450 W Cermak Rd Chicago IL 60608
10330 S Elizabeth St,Chicago,IL,60643,10330 S Elizabeth St Chicago IL 60643
1746 S Miller St,Chicago,IL,60608,1746 S Miller St Chicago IL 60608
2233 S Kedzie Ave,Chicago,IL,60623,2233 S Kedzie Ave Chicago IL 60623
3020 W 108th St,Chicago,IL,60655,3020 W 108th St Chicago IL 60655
3030 W Arthington St,Chicago,IL,60612,3030 W Arthington St Chicago IL 60612
9241 S Leavitt St,Chicago,IL,60643,9241 S Leavitt St Chicago IL 60643
4343 W Wrightwood Ave,Chicago,IL,60639,4343 W Wrightwood Ave Chicago IL 60639
1013 Division St,Chicago,IL,60411,1013 Division St Chicago IL 60411
6325 W 56th St,Chicago,IL,60638,6325 W 56th St Chicago IL 60638
5015 S Blackstone Ave,Chicago,IL,60615,5015 S Blackstone Ave Chicago IL 60615
6450 S Lowe Ave,Chicago,IL,60621,6450 S Lowe Ave Chicago IL 60621
6700 N Greenview Ave,Chicago,IL,60626,6700 N Greenview Ave Chicago IL 60626
644 W 71st St,Chicago,IL,60621,644 W 71st St Chicago IL 60621
4445 S Drexel Blvd,Chicago,IL,60653,4445 S Drexel Blvd Chicago IL 60653
5625 S Mobile Ave,Chicago,IL,60638,5625 S Mobile Ave Chicago IL 60638
9351 S Lowe Ave,Chicago,IL,60620,9351 S Lowe Ave Chicago IL 60620
4818 W Ohio St,Chicago,IL,60644,4818 W Ohio St Chicago IL 60644
730 N Pulaski Rd,Chicago,IL,60624,730 N Pulaski Rd Chicago IL 60624
1616 S Avers Ave,Chicago,IL,60623,1616 S Avers Ave Chicago IL 60623
5515 S Lowe Ave,Chicago,IL,60621,5515 S Lowe Ave Chicago IL 60621
936 E 54th St,Chicago,IL,60615,936 E 54th St Chicago IL 60615
4015 N Ashland Ave,Chicago,IL,60613,4015 N Ashland Ave Chicago IL 60613
2501 W Addison St,Chicago,IL,60618,2501 W Addison St Chicago IL 60618
6010 S Throop St,Chicago,IL,60636,6010 S Throop St Chicago IL 60636
4619 S Wolcott Ave,Chicago,IL,60609,4619 S Wolcott Ave Chicago IL 60609
1734 N Orleans St,Chicago,IL,60614,1734 N Orleans St Chicago IL 60614
1148 N Honore St,Chicago,IL,60622,1148 N Honore St Chicago IL 60622
138 W 109th St,Chicago,IL,60628,138 W 109th St Chicago IL 60628
3500 W Douglas Blvd,Chicago,IL,60623,3500 W Douglas Blvd Chicago IL 60623
1811 Morrow Ave,Chicago,IL,60064,1811 Morrow Ave Chicago IL 60064
3021 W Carroll Ave,Chicago,IL,60612,3021 W Carroll Ave Chicago IL 60612
1700 W 83rd St,Chicago,IL,60620,1700 W 83rd St Chicago IL 60620
3021 W Carroll Ave,Chicago,IL,60612,3021 W Carroll Ave Chicago IL 60612
1132 S Homan Ave,Chicago,IL,60624,1132 S Homan Ave Chicago IL 60624
3021 W Carroll Ave,Chicago,IL,60612,3021 W Carroll Ave Chicago IL 60612
8914 S Buffalo Ave,Chicago,IL,60617,8914 S Buffalo Ave Chicago IL 60617
212 S Francisco Ave,Chicago,IL,60612,212 S Francisco Ave Chicago IL 60612
6448 S Tripp Ave,Chicago,IL,60629,6448 S Tripp Ave Chicago IL 60629
3318 W Ogden Ave,Chicago,IL,60623,3318 W Ogden Ave Chicago IL 60623
4319 W Washington Blvd,Chicago,IL,60624,4319 W Washington Blvd Chicago IL 60624
512 S Lavergne Ave,Chicago,IL,60644,512 S Lavergne Ave Chicago IL 60644
238 E Hazel St,Chicago,IL,60185,238 E Hazel St Chicago IL 60185
8101 S La Salle St,Chicago,IL,60620,8101 S La Salle St Chicago IL 60620
1431 N Leamington Ave,Chicago,IL,60651,1431 N Leamington Ave Chicago IL 60651
5300 S Loomis Blvd,Chicago,IL,60609,5300 S Loomis Blvd Chicago IL 60609
615 W Kemper Pl,Chicago,IL,60614,615 W Kemper Pl Chicago IL 60614
1520 Center Ave,Chicago,IL,60411,1520 Center Ave Chicago IL 60411
2001 N Orchard St,Chicago,IL,60614,2001 N Orchard St Chicago IL 60614
6130 S Wolcott Ave,Chicago,IL,60636,6130 S Wolcott Ave Chicago IL 60636
3221 N Sacramento Ave,Chicago,IL,60618,3221 N Sacramento Ave Chicago IL 60618
1060 E 47th St,Chicago,IL,60653,1060 E 47th St Chicago IL 60653
2620 S Lawndale Ave,Chicago,IL,60623,2620 S Lawndale Ave Chicago IL 60623
2103 N Lamon Ave,Chicago,IL,60639,2103 N Lamon Ave Chicago IL 60639
2828 N Oak Park Ave,Chicago,IL,60634,2828 N Oak Park Ave Chicago IL 60634
3141 W Jackson Blvd,Chicago,IL,60612,3141 W Jackson Blvd Chicago IL 60612
6333 W Bloomingdale Ave,Chicago,IL,60639,6333 W Bloomingdale Ave Chicago IL 60639
3320 W Hirsch St,Chicago,IL,60651,3320 W Hirsch St Chicago IL 60651
1501 N Greenview Ave,Chicago,IL,60642,1501 N Greenview Ave Chicago IL 60642
2941 N McVicker Ave,Chicago,IL,60634,2941 N McVicker Ave Chicago IL 60634
3202 W 28th St,Chicago,IL,60623,3202 W 28th St Chicago IL 60623
7433 S Dorchester Ave,Chicago,IL,60619,7433 S Dorchester Ave Chicago IL 60619
1420 N Hudson Ave,Chicago,IL,60610,1420 N Hudson Ave Chicago IL 60610
2935 W Polk St,Chicago,IL,60612,2935 W Polk St Chicago IL 60612
8050 S Chappel Ave,Chicago,IL,60617,8050 S Chappel Ave Chicago IL 60617
1920 N Hamlin Ave,Chicago,IL,60647,1920 N Hamlin Ave Chicago IL 60647
6550 S Richmond St,Chicago,IL,60629,6550 S Richmond St Chicago IL 60629
9822 S Exchange Ave,Chicago,IL,60617,9822 S Exchange Ave Chicago IL 60617
3250 W Adams St,Chicago,IL,60624,3250 W Adams St Chicago IL 60624
4217 W 18th St,Chicago,IL,60623,4217 W 18th St Chicago IL 60623
5835 N Lincoln Ave,Chicago,IL,60659,5835 N Lincoln Ave Chicago IL 60659
2250 N Clifton Ave,Chicago,IL,60614,2250 N Clifton Ave Chicago IL 60614
6656 S Normal Blvd,Chicago,IL,60621,6656 S Normal Blvd Chicago IL 60621
1841 N Springfield Ave,Chicago,IL,60647,1841 N Springfield Ave Chicago IL 60647
3527 S Wallace St,Chicago,IL,60609,3527 S Wallace St Chicago IL 60609
2712 S Sawyer Ave,Chicago,IL,60623,2712 S Sawyer Ave Chicago IL 60623
4865 N Sheridan Rd,Chicago,IL,60640,4865 N Sheridan Rd Chicago IL 60640
8801 S Indiana Ave,Chicago,IL,60619,8801 S Indiana Ave Chicago IL 60619
1419 E 89th St,Chicago,IL,60619,1419 E 89th St Chicago IL 60619
6901 S Fairfield Ave,Chicago,IL,60629,6901 S Fairfield Ave Chicago IL 60629
4820 W Walton St,Chicago,IL,60651,4820 W Walton St Chicago IL 60651
4728 N Wolcott Ave,Chicago,IL,60640,4728 N Wolcott Ave Chicago IL 60640
3937 W Wilcox St,Chicago,IL,60624,3937 W Wilcox St Chicago IL 60624
12339 S Normal Ave,Chicago,IL,60628,12339 S Normal Ave Chicago IL 60628
9000 S Exchange Ave,Chicago,IL,60617,9000 S Exchange Ave Chicago IL 60617
2233 W Ohio St,Chicago,IL,60612,2233 W Ohio St Chicago IL 60612
4415 S Dr Martin L King Jr Dr,Chicago,IL,60653,4415 S Dr Martin L King Jr Dr Chicago IL 60653
3651 W Schubert Ave,Chicago,IL,60647,3651 W Schubert Ave Chicago IL 60647
6936 S Hermitage Ave,Chicago,IL,60636,6936 S Hermitage Ave Chicago IL 60636
1711 N California Ave,Chicago,IL,60647,1711 N California Ave Chicago IL 60647
1744 W Pryor Ave,Chicago,IL,60643,1744 W Pryor Ave Chicago IL 60643
6011 S Rockwell St,Chicago,IL,60629,6011 S Rockwell St Chicago IL 60629
431 N Troy St,Chicago,IL,60612,431 N Troy St Chicago IL 60612
10841 S Homan Ave,Chicago,IL,60655,10841 S Homan Ave Chicago IL 60655
10540 S Morgan St,Chicago,IL,60643,10540 S Morgan St Chicago IL 60643
416 N Laramie Ave,Chicago,IL,60644,416 N Laramie Ave Chicago IL 60644
2200 N Hamlin Ave,Chicago,IL,60647,2200 N Hamlin Ave Chicago IL 60647
3120 S Kostner Ave,Chicago,IL,60623,3120 S Kostner Ave Chicago IL 60623
3539 W Grace St,Chicago,IL,60618,3539 W Grace St Chicago IL 60618
5335 S Kenwood Ave,Chicago,IL,60615,5335 S Kenwood Ave Chicago IL 60615
3737 S Paulina St,Chicago,IL,60609,3737 S Paulina St Chicago IL 60609
4837 W Erie St,Chicago,IL,60644,4837 W Erie St Chicago IL 60644
55 W Cermak Rd,Chicago,IL,60616,55 W Cermak Rd Chicago IL 60616
1905 Argonne Dr,Chicago,IL,60064,1905 Argonne Dr Chicago IL 60064
8555 S Michigan Ave,Chicago,IL,60619,8555 S Michigan Ave Chicago IL 60619
3252 N Broadway St,Chicago,IL,60657,3252 N Broadway St Chicago IL 60657
1707 W Morse Ave,Chicago,IL,60626,1707 W Morse Ave Chicago IL 60626
700 W Willow St,Chicago,IL,60614,700 W Willow St Chicago IL 60614
6006 S Peoria St,Chicago,IL,60621,6006 S Peoria St Chicago IL 60621
5250 S Rockwell St,Chicago,IL,60632,5250 S Rockwell St Chicago IL 60632
8344 S Commercial Ave,Chicago,IL,60617,8344 S Commercial Ave Chicago IL 60617
2121 N Keeler Ave,Chicago,IL,60639,2121 N Keeler Ave Chicago IL 60639
4127 W Hirsch St,Chicago,IL,60651,4127 W Hirsch St Chicago IL 60651
2911 W 47Th St,Chicago,IL,60632,2911 W 47Th St Chicago IL 60632
1337 W Ohio St,Chicago,IL,60642,1337 W Ohio St Chicago IL 60642
2710 E 89th St,Chicago,IL,60617,2710 E 89th St Chicago IL 60617
821 E 103rd St,Chicago,IL,60628,821 E 103rd St Chicago IL 60628
2040 W Adams St,Chicago,IL,60612,2040 W Adams St Chicago IL 60612
7131 S South Chicago Ave,Chicago,IL,60619,7131 S South Chicago Ave Chicago IL 60619
931 S Homan Ave,Chicago,IL,60624,931 S Homan Ave Chicago IL 60624
1454 W Superior St,Chicago,IL,60642,1454 W Superior St Chicago IL 60642
8748 S Aberdeen St,Chicago,IL,60620,8748 S Aberdeen St Chicago IL 60620
5321 W Grand Ave,Chicago,IL,60639,5321 W Grand Ave Chicago IL 60639
6350 S Stewart Ave,Chicago,IL,60621,6350 S Stewart Ave Chicago IL 60621
1 N State St,Chicago,IL,60602,1 N State St Chicago IL 60602
1010 N Noble St,Chicago,IL,60642,1010 N Noble St Chicago IL 60642
4131 W Cortland St,Chicago,IL,60639,4131 W Cortland St Chicago IL 60639
3645 W Chicago Ave,Chicago,IL,60651,3645 W Chicago Ave Chicago IL 60651
1443 N Ogden Ave,Chicago,IL,60610,1443 N Ogden Ave Chicago IL 60610
1231 S Damen Ave,Chicago,IL,60608,1231 S Damen Ave Chicago IL 60608
1717 17th St,Chicago,IL,60064,1717 17th St Chicago IL 60064
1615 S Christiana Ave,Chicago,IL,60623,1615 S Christiana Ave Chicago IL 60623
1313 S Sacramento Dr,Chicago,IL,60623,1313 S Sacramento Dr Chicago IL 60623
4416 N Troy St,Chicago,IL,60625,4416 N Troy St Chicago IL 60625
4338 W Wabansia Ave,Chicago,IL,60639,4338 W Wabansia Ave Chicago IL 60639
5501 N Kedzie Ave,Chicago,IL,60625,5501 N Kedzie Ave Chicago IL 60625
3730 W Bryn Mawr Ave,Chicago,IL,60659,3730 W Bryn Mawr Ave Chicago IL 60659
5252 W Palmer St,Chicago,IL,60639,5252 W Palmer St Chicago IL 60639
2033 Smith Rd,Chicago,IL,60185,2033 Smith Rd Chicago IL 60185
5900 N Nina Ave,Chicago,IL,60631,5900 N Nina Ave Chicago IL 60631
24 W Walton St,Chicago,IL,60610,24 W Walton St Chicago IL 60610
1250 W Erie St,Chicago,IL,60642,1250 W Erie St Chicago IL 60642
7646 S Green St,Chicago,IL,60620,7646 S Green St Chicago IL 60620
6940 S Merrill Ave,Chicago,IL,60649,6940 S Merrill Ave Chicago IL 60649
10928 S Halsted St,Chicago,IL,60628,10928 S Halsted St Chicago IL 60628
7500 N Harlem Ave,Chicago,IL,60631,7500 N Harlem Ave Chicago IL 60631
6057 S Western Ave,Chicago,IL,60636,6057 S Western Ave Chicago IL 60636
2401 W Congress Pkwy,Chicago,IL,60612,2401 W Congress Pkwy Chicago IL 60612
6634 W Raven St,Chicago,IL,60631,6634 W Raven St Chicago IL 60631
5424 N Oketo Ave,Chicago,IL,60656,5424 N Oketo Ave Chicago IL 60656
1940 W 18th St,Chicago,IL,60608,1940 W 18th St Chicago IL 60608
730 N Pulaski Rd,Chicago,IL,60624,730 N Pulaski Rd Chicago IL 60624
3000 S Lawndale Ave,Chicago,IL,60623,3000 S Lawndale Ave Chicago IL 60623
525 N Armour St,Chicago,IL,60642,525 N Armour St Chicago IL 60642
6550 S Seeley Ave,Chicago,IL,60636,6550 S Seeley Ave Chicago IL 60636
8247 S Christiana Ave,Chicago,IL,60652,8247 S Christiana Ave Chicago IL 60652
12302 S State St,Chicago,IL,60628,12302 S State St Chicago IL 60628
5051 N Kenneth Ave,Chicago,IL,60630,5051 N Kenneth Ave Chicago IL 60630
7037 S Rhodes Ave,Chicago,IL,60637,7037 S Rhodes Ave Chicago IL 60637
6800 S Stewart Ave,Chicago,IL,60621,6800 S Stewart Ave Chicago IL 60621
6938 S East End Ave,Chicago,IL,60649,6938 S East End Ave Chicago IL 60649
5825 S Kostner Ave,Chicago,IL,60629,5825 S Kostner Ave Chicago IL 60629
2421 W Division St,Chicago,IL,60622,2421 W Division St Chicago IL 60622
3284 W 87Th St,Chicago,IL,60652,3284 W 87Th St Chicago IL 60652
3100 W Belmont Ave,Chicago,IL,60618,3100 W Belmont Ave Chicago IL 60618
3124 W 47Th St,Chicago,IL,60632,3124 W 47Th St Chicago IL 60632
1034 N Wells St,Chicago,IL,60610,1034 N Wells St Chicago IL 60610
4946 S Paulina St,Chicago,IL,60609,4946 S Paulina St Chicago IL 60609
3826 W 58th St,Chicago,IL,60629,3826 W 58th St Chicago IL 60629
1423 W Bryn Mawr Ave,Chicago,IL,60660,1423 W Bryn Mawr Ave Chicago IL 60660
1616 S Avers Ave,Chicago,IL,60623,1616 S Avers Ave Chicago IL 60623
1241 W 19th St,Chicago,IL,60608,1241 W 19th St Chicago IL 60608
3200 S Calumet Ave,Chicago,IL,60616,3200 S Calumet Ave Chicago IL 60616
3663 S Wabash Ave,Chicago,IL,60653,3663 S Wabash Ave Chicago IL 60653
8522 S Lafayette Ave,Chicago,IL,60620,8522 S Lafayette Ave Chicago IL 60620
1930 S Archer Ave,Chicago,IL,60616,1930 S Archer Ave Chicago IL 60616
8522 S Lafayette Ave,Chicago,IL,60620,8522 S Lafayette Ave Chicago IL 60620
5510 N Christiana Ave,Chicago,IL,60625,5510 N Christiana Ave Chicago IL 60625
244 E Pershing Rd,Chicago,IL,60653,244 E Pershing Rd Chicago IL 60653
145 S Campbell Ave,Chicago,IL,60612,145 S Campbell Ave Chicago IL 60612
1040 N Keeler Ave,Chicago,IL,60651,1040 N Keeler Ave Chicago IL 60651
2301 W 21st Pl,Chicago,IL,60608,2301 W 21st Pl Chicago IL 60608
1420 W 17th St,Chicago,IL,60608,1420 W 17th St Chicago IL 60608
615 Kenwood Ave,Chicago,IL,60185,615 Kenwood Ave Chicago IL 60185
650 E 85th St,Chicago,IL,60619,650 E 85th St Chicago IL 60619
2642 W 15th Pl,Chicago,IL,60608,2642 W 15th Pl Chicago IL 60608
5545 W Harrison St,Chicago,IL,60644,5545 W Harrison St Chicago IL 60644
10538 S Langley Ave,Chicago,IL,60628,10538 S Langley Ave Chicago IL 60628
620 N Sawyer Ave,Chicago,IL,60624,620 N Sawyer Ave Chicago IL 60624
5330 W Berteau Ave,Chicago,IL,60641,5330 W Berteau Ave Chicago IL 60641
7511 S South Shore Dr,Chicago,IL,60649,7511 S South Shore Dr Chicago IL 60649
1632 W Wrightwood Ave,Chicago,IL,60614,1632 W Wrightwood Ave Chicago IL 60614
2231 N Central Ave,Chicago,IL,60639,2231 N Central Ave Chicago IL 60639
2009 W Schiller St,Chicago,IL,60622,2009 W Schiller St Chicago IL 60622
2148 N Long Ave,Chicago,IL,60639,2148 N Long Ave Chicago IL 60639
6515 S Ashland Ave,Chicago,IL,60636,6515 S Ashland Ave Chicago IL 60636
4650 N Menard Ave,Chicago,IL,60630,4650 N Menard Ave Chicago IL 60630
2230 W McLean Ave,Chicago,IL,60647,2230 W McLean Ave Chicago IL 60647
11311 S Forrestville Ave,Chicago,IL,60628,11311 S Forrestville Ave Chicago IL 60628
3545 W Fulton Blvd,Chicago,IL,60624,3545 W Fulton Blvd Chicago IL 60624
7316 S Hoyne Ave,Chicago,IL,60636,7316 S Hoyne Ave Chicago IL 60636
4332 N Paulina St,Chicago,IL,60613,4332 N Paulina St Chicago IL 60613
5631 S Kimbark Ave,Chicago,IL,60637,5631 S Kimbark Ave Chicago IL 60637
834 E 50th St,Chicago,IL,60615,834 E 50th St Chicago IL 60615
405 Ashland Ave,Chicago ,IL,60411,405 Ashland Ave Chicago  IL 60411
3650 W School St,Chicago,IL,60618,3650 W School St Chicago IL 60618
3425 N Major Ave,Chicago,IL,60634,3425 N Major Ave Chicago IL 60634
1010 E 72nd St,Chicago,IL,60619,1010 E 72nd St Chicago IL 60619
5009 S Laflin St,Chicago,IL,60609,5009 S Laflin St Chicago IL 60609
6018 S Karlov Ave,Chicago,IL,60629,6018 S Karlov Ave Chicago IL 60629
5700 W Berteau Ave,Chicago,IL,60634,5700 W Berteau Ave Chicago IL 60634
10800 Lyman Ave,Chicago,IL,60415,10800 Lyman Ave Chicago IL 60415
5757 105th St,Chicago ,IL,60415,5757 105th St Chicago  IL 60415
4225 S Lake Park Ave,Chicago,IL,60653,4225 S Lake Park Ave Chicago IL 60653
7345 N Washtenaw Ave,Chicago,IL,60645,7345 N Washtenaw Ave Chicago IL 60645
1345 Sunnyside Ave,Chicago,IL,60411,1345 Sunnyside Ave Chicago IL 60411
3436 W Wilson Ave,Chicago,IL,60625,3436 W Wilson Ave Chicago IL 60625
1424 N Cleaver St,Chicago,IL,60642,1424 N Cleaver St Chicago IL 60642
1628 W Washington Blvd,Chicago,IL,60612,1628 W Washington Blvd Chicago IL 60612
7831 S Prairie Ave,Chicago,IL,60619,7831 S Prairie Ave Chicago IL 60619
2410 S Leavitt St,Chicago,IL,60608,2410 S Leavitt St Chicago IL 60608
8716 S Wallace St,Chicago,IL,60620,8716 S Wallace St Chicago IL 60620
2216 W Hirsch St,Chicago,IL,60622,2216 W Hirsch St Chicago IL 60622
160 W Wendell St,Chicago,IL,60610,160 W Wendell St Chicago IL 60610
5534 S Saint Louis Ave,Chicago,IL,60629,5534 S Saint Louis Ave Chicago IL 60629
2850 W 24th Blvd,Chicago,IL,60623,2850 W 24th Blvd Chicago IL 60623
6040 N Kilpatrick Ave,Chicago,IL,60646,6040 N Kilpatrick Ave Chicago IL 60646
5248 S Sawyer Ave,Chicago,IL,60632,5248 S Sawyer Ave Chicago IL 60632
1850 N Newland Ave,Chicago,IL,60707,1850 N Newland Ave Chicago IL 60707
4201 W Henderson St,Chicago,IL,60641,4201 W Henderson St Chicago IL 60641
9755 S Greenwood Ave,Chicago,IL,60628,9755 S Greenwood Ave Chicago IL 60628
3120 S Kostner Ave,Chicago,IL,60623,3120 S Kostner Ave Chicago IL 60623
2727 N Long Ave,Chicago,IL,60639,2727 N Long Ave Chicago IL 60639
3601 N Milwaukee Ave,Chicago,IL,60641,3601 N Milwaukee Ave Chicago IL 60641
5900 N Glenwood Ave,Chicago,IL,60660,5900 N Glenwood Ave Chicago IL 60660
255 Pleasant Dr,Chicago ,IL,60411,255 Pleasant Dr Chicago  IL 60411
4600 S Hermitage Ave,Chicago,IL,60609,4600 S Hermitage Ave Chicago IL 60609
533 W 27th St,Chicago,IL,60616,533 W 27th St Chicago IL 60616
1000 W 52nd St,Chicago,IL,60609,1000 W 52nd St Chicago IL 60609
245 W 57th St,Chicago,IL,60621,245 W 57th St Chicago IL 60621
4250 S Rockwell St,Chicago,IL,60632,4250 S Rockwell St Chicago IL 60632
2611 W 48th St,Chicago,IL,60632,2611 W 48th St Chicago IL 60632
1330 E 50th St,Chicago,IL,60615,1330 E 50th St Chicago IL 60615
11140 S Bishop St,Chicago,IL,60643,11140 S Bishop St Chicago IL 60643
8147 S Vincennes Ave,Chicago,IL,60620,8147 S Vincennes Ave Chicago IL 60620
1321 S Paulina St,Chicago,IL,60608,1321 S Paulina St Chicago IL 60608
111 S Throop St,Chicago,IL,60607,111 S Throop St Chicago IL 60607
640 W Scott St,Chicago,IL,60610,640 W Scott St Chicago IL 60610
744 E 103rd St,Chicago,IL,60628,744 E 103rd St Chicago IL 60628
4310 N Melvina Ave,Chicago,IL,60634,4310 N Melvina Ave Chicago IL 60634
1059 W 13th St,Chicago,IL,60608,1059 W 13th St Chicago IL 60608
6206 N Hamlin Ave,Chicago,IL,60659,6206 N Hamlin Ave Chicago IL 60659
5400 S St Louis Ave,Chicago,IL,60632,5400 S St Louis Ave Chicago IL 60632
4120 W 57th St,Chicago,IL,60629,4120 W 57th St Chicago IL 60629
1212 S Plymouth Ct,Chicago,IL,60605,1212 S Plymouth Ct Chicago IL 60605
1415 E 70th St,Chicago,IL,60637,1415 E 70th St Chicago IL 60637
1955 E 75th St,Chicago,IL,60649,1955 E 75th St Chicago IL 60649
3930 E 105th St,Chicago,IL,60617,3930 E 105th St Chicago IL 60617
7342 S Hoyne Ave,Chicago,IL,60636,7342 S Hoyne Ave Chicago IL 60636
1125 Division St,Chicago,IL,60411,1125 Division St Chicago IL 60411
1125 Division St,Chicago ,IL,60411,1125 Division St Chicago  IL 60411
1125 Division St,Chicago,IL,60411,1125 Division St Chicago IL 60411
1125 Division St,Chicago ,IL,60411,1125 Division St Chicago  IL 60411
214 N Lavergne Ave,Chicago,IL,60644,214 N Lavergne Ave Chicago IL 60644
2400 S Marshall Blvd,Chicago,IL,60623,2400 S Marshall Blvd Chicago IL 60623
2400 S Marshall Blvd,Chicago,IL,60623,2400 S Marshall Blvd Chicago IL 60623
7424 S Morgan St,Chicago,IL,60621,7424 S Morgan St Chicago IL 60621
3411 MIller Avenue,Chicago,IL,60411,3411 MIller Avenue Chicago IL 60411
3030 N Mobile Ave,Chicago,IL,60634,3030 N Mobile Ave Chicago IL 60634
1522 W Fillmore St,Chicago,IL,60607,1522 W Fillmore St Chicago IL 60607
8010 S Kostner Ave,Chicago,IL,60652,8010 S Kostner Ave Chicago IL 60652
7507 W Birchwood Ave,Chicago,IL,60631,7507 W Birchwood Ave Chicago IL 60631
6239 N Leavitt St,Chicago,IL,60659,6239 N Leavitt St Chicago IL 60659
3444 W Wabansia Ave,Chicago,IL,60647,3444 W Wabansia Ave Chicago IL 60647
2022 W Washington Blvd,Chicago,IL,60612,2022 W Washington Blvd Chicago IL 60612
8331 S Mackinaw Ave,Chicago,IL,60617,8331 S Mackinaw Ave Chicago IL 60617
6631 N Bosworth Ave,Chicago,IL,60626,6631 N Bosworth Ave Chicago IL 60626
4320 W 5th Ave,Chicago,IL,60624,4320 W 5th Ave Chicago IL 60624
10015 S Leavitt St,Chicago,IL,60643,10015 S Leavitt St Chicago IL 60643
5900 N Winthrop Ave,Chicago,IL,60660,5900 N Winthrop Ave Chicago IL 60660
6530 W Bryn Mawr Ave,Chicago,IL,60631,6530 W Bryn Mawr Ave Chicago IL 60631
1840 W Ohio St,Chicago,IL,60622,1840 W Ohio St Chicago IL 60622
5450 S Talman Ave,Chicago,IL,60632,5450 S Talman Ave Chicago IL 60632
7350 S Evans Ave,Chicago,IL,60619,7350 S Evans Ave Chicago IL 60619
3330 W 71st St,Chicago,IL,60629,3330 W 71st St Chicago IL 60629
9912 S Avenue H,Chicago,IL,60617,9912 S Avenue H Chicago IL 60617
2832 W 24th Blvd,Chicago,IL,60623,2832 W 24th Blvd Chicago IL 60623
3625 S Hoyne Ave,Chicago,IL,60609,3625 S Hoyne Ave Chicago IL 60609
4136 S California Ave,Chicago,IL,60632,4136 S California Ave Chicago IL 60632
8914 S Buffalo Ave,Chicago,IL,60617,8914 S Buffalo Ave Chicago IL 60617
6024 W Warwick Ave,Chicago,IL,60634,6024 W Warwick Ave Chicago IL 60634
4747 S Union Ave,Chicago,IL,60609,4747 S Union Ave Chicago IL 60609
6543 S Champlain Ave,Chicago,IL,60637,6543 S Champlain Ave Chicago IL 60637
223 N Keeler Ave,Chicago,IL,60624,223 N Keeler Ave Chicago IL 60624
5815 S Homan Ave,Chicago,IL,60629,5815 S Homan Ave Chicago IL 60629
331 George St,Chicago,IL,60185,331 George St Chicago IL 60185
750 Ingalton Ave,Chicago,IL,60185,750 Ingalton Ave Chicago IL 60185
9300 S Princeton Ave,Chicago,IL,60620,9300 S Princeton Ave Chicago IL 60620
5134 S Lotus Ave,Chicago,IL,60638,5134 S Lotus Ave Chicago IL 60638
2712 Miller Ave,Chicago,IL,60411,2712 Miller Ave Chicago IL 60411
707 E 37th St,Chicago,IL,60653,707 E 37th St Chicago IL 60653
1119 E 46th St,Chicago,IL,60653,1119 E 46th St Chicago IL 60653
6300 S University Ave,Chicago,IL,60637,6300 S University Ave Chicago IL 60637
900 W Wilson Ave,Chicago,IL,60640,900 W Wilson Ave Chicago IL 60640
521 E 35th St,Chicago,IL,60616,521 E 35th St Chicago IL 60616
6201 S Stewart Ave,Chicago,IL,60621,6201 S Stewart Ave Chicago IL 60621
425 S Wabash Ave,Chicago,IL,60605,425 S Wabash Ave Chicago IL 60605
9510 S Prospect Ave,Chicago,IL,60643,9510 S Prospect Ave Chicago IL 60643
4355 N Linder Ave,Chicago,IL,60641,4355 N Linder Ave Chicago IL 60641
2554 W 113th St,Chicago,IL,60655,2554 W 113th St Chicago IL 60655
4950 N Avers Ave,Chicago,IL,60625,4950 N Avers Ave Chicago IL 60625
5039 N Kimball Ave,Chicago,IL,60625,5039 N Kimball Ave Chicago IL 60625
9746 S Morgan St,Chicago,IL,60643,9746 S Morgan St Chicago IL 60643
6650 S Ellis Ave,Chicago,IL,60637,6650 S Ellis Ave Chicago IL 60637
2015 S Peoria St,Chicago,IL,60608,2015 S Peoria St Chicago IL 60608
555 E 51st St,Chicago,IL,60615,555 E 51st St Chicago IL 60615
2701 S Shields Ave,Chicago,IL,60616,2701 S Shields Ave Chicago IL 60616
646 N Lawndale Ave,Chicago,IL,60624,646 N Lawndale Ave Chicago IL 60624
9239 S Jeffery Ave,Chicago,IL,60617,9239 S Jeffery Ave Chicago IL 60617
3611 E 114th St,Chicago,IL,60617,3611 E 114th St Chicago IL 60617
9130 S University Ave,Chicago,IL,60619,9130 S University Ave Chicago IL 60619
3535 E 114th St,Chicago,IL,60617,3535 E 114th St Chicago IL 60617
25 W 16th Pl,Chicago,IL,60411,25 W 16th Pl Chicago IL 60411
4540 N Campbell Ave,Chicago,IL,60625,4540 N Campbell Ave Chicago IL 60625
4055 W Arthington St,Chicago,IL,60624,4055 W Arthington St Chicago IL 60624
1180 Marcella Ln,Chicago,IL,60185,1180 Marcella Ln Chicago IL 60185
936 N Ashland Ave,Chicago,IL,60622,936 N Ashland Ave Chicago IL 60622
249 E 37th St,Chicago,IL,60653,249 E 37th St Chicago IL 60653
1340 W 71st St,Chicago,IL,60636,1340 W 71st St Chicago IL 60636
1425 N Tripp Ave,Chicago,IL,60651,1425 N Tripp Ave Chicago IL 60651
6700 N Whipple St,Chicago,IL,60645,6700 N Whipple St Chicago IL 60645
409 W 80th St,Chicago,IL,60620,409 W 80th St Chicago IL 60620
3223 W Franklin Blvd,Chicago,IL,60624,3223 W Franklin Blvd Chicago IL 60624
11533 S Ada St,Chicago,IL,60643,11533 S Ada St Chicago IL 60643
1136 W 122nd St,Chicago,IL,60643,1136 W 122nd St Chicago IL 60643
2815 S Komensky Ave,Chicago,IL,60623,2815 S Komensky Ave Chicago IL 60623
1900 W 23rd St,Chicago,IL,60608,1900 W 23rd St Chicago IL 60608
6950 N Hiawatha Ave,Chicago,IL,60646,6950 N Hiawatha Ave Chicago IL 60646
4934 S Wabash Ave,Chicago,IL,60615,4934 S Wabash Ave Chicago IL 60615
422 W 16th Pl,Chicago,IL,60411,422 W 16th Pl Chicago IL 60411
6657 S Kimbark Ave,Chicago,IL,60637,6657 S Kimbark Ave Chicago IL 60637
4414 S Evans Ave,Chicago,IL,60653,4414 S Evans Ave Chicago IL 60653
3120 S Kostner Ave,Chicago,IL,60623,3120 S Kostner Ave Chicago IL 60623
1839 N Richmond St,Chicago,IL,60647,1839 N Richmond St Chicago IL 60647
9035 S Langley Ave,Chicago,IL,60619,9035 S Langley Ave Chicago IL 60619
4909 W Division St,Chicago,IL,60651,4909 W Division St Chicago IL 60651
2920 S Wabash Ave,Chicago,IL,60616,2920 S Wabash Ave Chicago IL 60616
2739 W Division St,Chicago,IL,60622,2739 W Division St Chicago IL 60622
3121 N Pulaski Rd,Chicago,IL,60641,3121 N Pulaski Rd Chicago IL 60641
1116 N Kedzie Ave Fl 4,Chicago,IL,60651,1116 N Kedzie Ave Fl 4 Chicago IL 60651
5352 W Chicago Ave,Chicago,IL,60651,5352 W Chicago Ave Chicago IL 60651
1231 S Pulaski Rd,Chicago,IL,60623,1231 S Pulaski Rd Chicago IL 60623
7836 S Union Ave,Chicago,IL,60620,7836 S Union Ave Chicago IL 60620
17 N State St,Chicago,IL,60602,17 N State St Chicago IL 60602
1814 S Union Ave,Chicago,IL,60616,1814 S Union Ave Chicago IL 60616
2001 S California Ave,Chicago,IL,60608,2001 S California Ave Chicago IL 60608
10001 S Woodlawn Ave,Chicago,IL,60628,10001 S Woodlawn Ave Chicago IL 60628
6620 S Dr Martin L King Jr Dr,Chicago,IL,60637,6620 S Dr Martin L King Jr Dr Chicago IL 60637
4651 W Madison St,Chicago,IL,60644,4651 W Madison St Chicago IL 60644
8164 S South Chicago Ave,Chicago,IL,60617,8164 S South Chicago Ave Chicago IL 60617
1145 W Wilson Ave,Chicago,IL,60640,1145 W Wilson Ave Chicago IL 60640
500 N Sacramento Blvd,Chicago,IL,60612,500 N Sacramento Blvd Chicago IL 60612
3424 S State St,Chicago,IL,60616,3424 S State St Chicago IL 60616
1434 N Parkside Ave,Chicago,IL,60651,1434 N Parkside Ave Chicago IL 60651
211 S Laflin St,Chicago,IL,60607,211 S Laflin St Chicago IL 60607
2728 S Kostner Ave,Chicago,IL,60623,2728 S Kostner Ave Chicago IL 60623
10327 RYLIE RD,DALLAS,TX,75217,10327 RYLIE RD DALLAS TX 75217
8225 BRUTON RD,DALLAS,TX,75217,8225 BRUTON RD DALLAS TX 75217
2324 S VERNON AVE,DALLAS,TX,75224,2324 S VERNON AVE DALLAS TX 75224
7817 MILITARY PKWY,DALLAS,TX,75227,7817 MILITARY PKWY DALLAS TX 75227
5505 S POLK ST,DALLAS,TX,75232,5505 S POLK ST DALLAS TX 75232
618 W WHEATLAND RD,DALLAS,TX,75116,618 W WHEATLAND RD DALLAS TX 75116
12300 PLEASANT VLY DR,DALLAS,TX,75243,12300 PLEASANT VLY DR DALLAS TX 75243
8410 SAN LEANDRO DR,DALLAS,TX,75218,8410 SAN LEANDRO DR DALLAS TX 75218
4001 CAPITOL AVE,DALLAS,TX,75204,4001 CAPITOL AVE DALLAS TX 75204
3831 N PRAIRIE CREEK,DALLAS,TX,75227,3831 N PRAIRIE CREEK DALLAS TX 75227
5201 CELESTIAL RD,DALLAS,TX,75204,5201 CELESTIAL RD DALLAS TX 75204
8915 GREENMOUND AVE,DALLAS,TX,75227,8915 GREENMOUND AVE DALLAS TX 75227
3901 MEREDITH AVE,DALLAS,TX,75211,3901 MEREDITH AVE DALLAS TX 75211
1300 N JUSTIN AVE,DALLAS,TX,75211,1300 N JUSTIN AVE DALLAS TX 75211
5606 WAYSIDE DR BOX 16,DALLAS,TX,75235,5606 WAYSIDE DR BOX 16 DALLAS TX 75235
3600 CORNELL AVE,DALLAS,TX,75205,3600 CORNELL AVE DALLAS TX 75205
7131 MIDBURY DR,DALLAS,TX,75230,7131 MIDBURY DR DALLAS TX 75230
1120 S RAVINIA DR,DALLAS,TX,75211,1120 S RAVINIA DR DALLAS TX 75211
5940 HOLLIS AVE,DALLAS,TX,75227,5940 HOLLIS AVE DALLAS TX 75227
12600 AUDELIA,DALLAS,TX,75243,12600 AUDELIA DALLAS TX 75243
650 HOLCOMB RD,DALLAS,TX,75217,650 HOLCOMB RD DALLAS TX 75217
3030 STAG,DALLAS,TX,75241,3030 STAG DALLAS TX 75241
1111 W KIEST BLVD,DALLAS,TX,75224,1111 W KIEST BLVD DALLAS TX 75224
3313 S BECKLEY AVE BOX 187,DALLAS,TX,75224,3313 S BECKLEY AVE BOX 187 DALLAS TX 75224
3313 S BECKLEY AVE BLDG E,DALLAS,TX,75224,3313 S BECKLEY AVE BLDG E DALLAS TX 75224
2444 TELEGRAPH AVE,DALLAS,TX,75228,2444 TELEGRAPH AVE DALLAS TX 75228
4200 MCKINNEY AVE,DALLAS,TX,75205,4200 MCKINNEY AVE DALLAS TX 75205
6920 MEADOW RD,DALLAS,TX,75230,6920 MEADOW RD DALLAS TX 75230
2801 PARK ROW AVE,DALLAS,TX,75215,2801 PARK ROW AVE DALLAS TX 75215
1830 GOLDWOOD DR,DALLAS,TX,75232,1830 GOLDWOOD DR DALLAS TX 75232
201 N ADAMS AVE,DALLAS,TX,75208,201 N ADAMS AVE DALLAS TX 75208
2501 FLORA ST,DALLAS,TX,75201,2501 FLORA ST DALLAS TX 75201
3000 MARYLAND AVE,DALLAS,TX,75216,3000 MARYLAND AVE DALLAS TX 75216
7643 LA MANGA DR,DALLAS,TX,75248,7643 LA MANGA DR DALLAS TX 75248
4300 SOUTHERN AVE,DALLAS,TX,75205,4300 SOUTHERN AVE DALLAS TX 75205
6767 BRENTFIELD DR,DALLAS,TX,75248,6767 BRENTFIELD DR DALLAS TX 75248
2101 MILLMAR DR,DALLAS,TX,75228,2101 MILLMAR DR DALLAS TX 75228
6211 E GRAND AVE,DALLAS,TX,75223,6211 E GRAND AVE DALLAS TX 75223
3002 ST AUGUSTINE RD,DALLAS,TX,75227,3002 ST AUGUSTINE RD DALLAS TX 75227
1952 BAYSIDE ST,DALLAS,TX,75212,1952 BAYSIDE ST DALLAS TX 75212
1966 INWOOD RD,DALLAS,TX,75235,1966 INWOOD RD DALLAS TX 75235
13900 MAHAM RD,DALLAS,TX,75240,13900 MAHAM RD DALLAS TX 75240
2100 N FAROLA DR,DALLAS,TX,75228,2100 N FAROLA DR DALLAS TX 75228
2020 MOUSER ST,DALLAS,TX,75203,2020 MOUSER ST DALLAS TX 75203
4510 W JEFFERSON BLVD,DALLAS,TX,75211,4510 W JEFFERSON BLVD DALLAS TX 75211
1710 N CARROLL,DALLAS,TX,75204,1710 N CARROLL DALLAS TX 75204
12701 TEMPLETON TRL,DALLAS,TX,75234,12701 TEMPLETON TRL DALLAS TX 75234
10910 FERGUSON RD,DALLAS,TX,75228,10910 FERGUSON RD DALLAS TX 75228
7095 W WHEATLAND RD,DALLAS,TX,75249,7095 W WHEATLAND RD DALLAS TX 75249
2425 PINE ST,DALLAS,TX,75215,2425 PINE ST DALLAS TX 75215
912 S ERVAY ST,DALLAS,TX,75201,912 S ERVAY ST DALLAS TX 75201
8441 FOX CREEK TRL,DALLAS,TX,75249,8441 FOX CREEK TRL DALLAS TX 75249
4010 IDAHO AVE,DALLAS,TX,75216,4010 IDAHO AVE DALLAS TX 75216
3031 S BECKLEY AVE,DALLAS,TX,75224,3031 S BECKLEY AVE DALLAS TX 75224
2701 RANCH TRAIL,DALLAS,TX,75019,2701 RANCH TRAIL DALLAS TX 75019
9339 S POLK ST,DALLAS,TX,75232,9339 S POLK ST DALLAS TX 75232
1673 TERRE COLONY DR,DALLAS,TX,75212,1673 TERRE COLONY DR DALLAS TX 75212
1673 TERRE COLONY,DALLAS,TX,75212,1673 TERRE COLONY DALLAS TX 75212
2600 LONE STAR DR STE 5,DALLAS,TX,75212,2600 LONE STAR DR STE 5 DALLAS TX 75212
3531 N WESTMORELAND RD,DALLAS,TX,75212,3531 N WESTMORELAND RD DALLAS TX 75212
3801 HERSCHEL AVE,DALLAS,TX,75219,3801 HERSCHEL AVE DALLAS TX 75219
5314 ABRAMS RD,DALLAS,TX,75214,5314 ABRAMS RD DALLAS TX 75214
3815 S FRANKLIN ST,DALLAS,TX,75233,3815 S FRANKLIN ST DALLAS TX 75233
3200 KINKAID DR,DALLAS,TX,75220,3200 KINKAID DR DALLAS TX 75220
1819 W WHEATLAND RD,DALLAS,TX,75232,1819 W WHEATLAND RD DALLAS TX 75232
14040 ROLLING HILLS LN,DALLAS,TX,75240,14040 ROLLING HILLS LN DALLAS TX 75240
9400 N CENTRAL EXPY,DALLAS,TX,75231,9400 N CENTRAL EXPY DALLAS TX 75231
3837 SIMPSON STUART RD,DALLAS,TX,75241,3837 SIMPSON STUART RD DALLAS TX 75241
1817 WARREN AVE,DALLAS,TX,75215,1817 WARREN AVE DALLAS TX 75215
701 ELM ST 1ST FLOOR,DALLAS,TX,75202,701 ELM ST 1ST FLOOR DALLAS TX 75202
1673 TERRE COLONY COURT,DALLAS,TX,75212,1673 TERRE COLONY COURT DALLAS TX 75212
7044 HODDE ST,DALLAS,TX,75217,7044 HODDE ST DALLAS TX 75217
3939 VLY VIEW LN BLDG G,DALLAS,TX,75244,3939 VLY VIEW LN BLDG G DALLAS TX 75244
6211 E GRAND BLVD,DALLAS,TX,75223,6211 E GRAND BLVD DALLAS TX 75223
10210 TEAGARDEN,DALLAS,TX,75217,10210 TEAGARDEN DALLAS TX 75217
3700 ROSS AVE,DALLAS,TX,75204,3700 ROSS AVE DALLAS TX 75204
4918 HOVENKAMP DR,DALLAS,TX,75227,4918 HOVENKAMP DR DALLAS TX 75227
7420 LA VISTA,DALLAS,TX,75204,7420 LA VISTA DALLAS TX 75204
9560 HIGHFIELD DR,DALLAS,TX,75227,9560 HIGHFIELD DR DALLAS TX 75227
2611 HEALEY DR,DALLAS,TX,75228,2611 HEALEY DR DALLAS TX 75228
4500 BERNAL DR,DALLAS,TX,75212,4500 BERNAL DR DALLAS TX 75212
3313 S BECKLEY AVE BLDG E,DALLAS,TX,75224,3313 S BECKLEY AVE BLDG E DALLAS TX 75224
2914 CUMMINGS ST,DALLAS,TX,75216,2914 CUMMINGS ST DALLAS TX 75216
7502 FAIR OAKS AVE,DALLAS,TX,75231,7502 FAIR OAKS AVE DALLAS TX 75231
2221 LUCAS DR,DALLAS,TX,75219,2221 LUCAS DR DALLAS TX 75219
3453 FLAIR DR,DALLAS,TX,75229,3453 FLAIR DR DALLAS TX 75229
12532 NUESTRA DR,DALLAS,TX,75230,12532 NUESTRA DR DALLAS TX 75230
3033 MERRELL RD,DALLAS,TX,75229,3033 MERRELL RD DALLAS TX 75229
225 S MARSALIS,DALLAS,TX,75203,225 S MARSALIS DALLAS TX 75203
9663 FOREST LN,DALLAS,TX,75243,9663 FOREST LN DALLAS TX 75243
9373 WHITEHURST DR,DALLAS,TX,75243,9373 WHITEHURST DR DALLAS TX 75243
10330 BUNCHBERRY DR,DALLAS,TX,75243,10330 BUNCHBERRY DR DALLAS TX 75243
9815 BROCKBANK,DALLAS,TX,75220,9815 BROCKBANK DALLAS TX 75220
5000 BERRIDGE LN,DALLAS,TX,75227,5000 BERRIDGE LN DALLAS TX 75227
7706 OSAGE PLAZA PKWY,DALLAS,TX,75252,7706 OSAGE PLAZA PKWY DALLAS TX 75252
525 BONNIE VIEW RD,DALLAS,TX,75203,525 BONNIE VIEW RD DALLAS TX 75203
226 N JIM MILLER RD,DALLAS,TX,75227,226 N JIM MILLER RD DALLAS TX 75227
7101 W WHEATLAND RD,DALLAS,TX,75249,7101 W WHEATLAND RD DALLAS TX 75249
5220 NOMAS ST,DALLAS,TX,75212,5220 NOMAS ST DALLAS TX 75212
6103 UNIVERISTY HILLS BLVD,DALLAS,TX,75241,6103 UNIVERISTY HILLS BLVD DALLAS TX 75241
1015 E WHEATLAND RD,DALLAS,TX,75241,1015 E WHEATLAND RD DALLAS TX 75241
6901 S WESTMORELAND RD,DALLAS,TX,75237,6901 S WESTMORELAND RD DALLAS TX 75237
2911 DELMAR AVE,DALLAS,TX,75206,2911 DELMAR AVE DALLAS TX 75206
6501 ROYAL LN,DALLAS,TX,75230,6501 ROYAL LN DALLAS TX 75230
3101 RAYDELL PL,DALLAS,TX,75211,3101 RAYDELL PL DALLAS TX 75211
1811 GROSS RD,DALLAS,TX,75228,1811 GROSS RD DALLAS TX 75228
337 PLEASANT VISTA DR,DALLAS,TX,75217,337 PLEASANT VISTA DR DALLAS TX 75217
2602 W ILLINOIS AVE,DALLAS,TX,75262,2602 W ILLINOIS AVE DALLAS TX 75262
2602 W ILLINOIS AVE,DALLAS,TX,75233,2602 W ILLINOIS AVE DALLAS TX 75233
2602 W ILLINOIS AVE,DALLAS,TX,75233,2602 W ILLINOIS AVE DALLAS TX 75233
2602 W ILLINOIS AVE,DALLAS,TX,75233,2602 W ILLINOIS AVE DALLAS TX 75233
9733 OLD SEAGOVILLE RD,DALLAS,TX,75217,9733 OLD SEAGOVILLE RD DALLAS TX 75217
4203 S LANCASTER RD,DALLAS,TX,75216,4203 S LANCASTER RD DALLAS TX 75216
4401 S 2ND AVE,DALLAS,TX,75210,4401 S 2ND AVE DALLAS TX 75210
2120 KEATS DR,DALLAS,TX,75211,2120 KEATS DR DALLAS TX 75211
8301 TOWNS ST,DALLAS,TX,75243,8301 TOWNS ST DALLAS TX 75243
8120 W CAMP WISDOM RD,DALLAS,TX,75249,8120 W CAMP WISDOM RD DALLAS TX 75249
8080 W PRESIDENT GEORGE BUSH HWY,DALLAS,TX,75252,8080 W PRESIDENT GEORGE BUSH HWY DALLAS TX 75252
11995 FORESTGATE DR,DALLAS,TX,75243,11995 FORESTGATE DR DALLAS TX 75243
1678 CHENAULT,DALLAS,TX,75228,1678 CHENAULT DALLAS TX 75228
2121 S MARSALIS AVE,DALLAS,TX,75216,2121 S MARSALIS AVE DALLAS TX 75216
3959 NORTHAVEN RD,DALLAS,TX,75229,3959 NORTHAVEN RD DALLAS TX 75229
4747 VETERANS DR,DALLAS,TX,75216,4747 VETERANS DR DALLAS TX 75216
700 E 8TH ST,DALLAS,TX,75203,700 E 8TH ST DALLAS TX 75203
6610 LAKE JUNE RD,DALLAS,TX,75217,6610 LAKE JUNE RD DALLAS TX 75217
5314 BOAZ ST,DALLAS,TX,75209,5314 BOAZ ST DALLAS TX 75209
2911 NORTHAVEN RD,DALLAS,TX,75229,2911 NORTHAVEN RD DALLAS TX 75229
4220 EMERSON AVE,DALLAS,TX,75205,4220 EMERSON AVE DALLAS TX 75205
3555 GRANADA AVE,DALLAS,TX,75205,3555 GRANADA AVE DALLAS TX 75205
9924 HILLCREST RD,DALLAS,TX,75230,9924 HILLCREST RD DALLAS TX 75230
1144 N MADISON AVE,DALLAS,TX,75208,1144 N MADISON AVE DALLAS TX 75208
912 S ERVAY STE 309,DALLAS,TX,75201,912 S ERVAY STE 309 DALLAS TX 75201
3920 CARUTH BLVD,DALLAS,TX,75225,3920 CARUTH BLVD DALLAS TX 75225
4550 WORTH ST,DALLAS,TX,75246,4550 WORTH ST DALLAS TX 75246
2211 CADDO ST,DALLAS,TX,75204,2211 CADDO ST DALLAS TX 75204
4800 ROSS AVE,DALLAS,TX,75204,4800 ROSS AVE DALLAS TX 75204
8225 BRUTON RD,DALLAS,TX,75217,8225 BRUTON RD DALLAS TX 75217
8225 BRUTON RD,DALLAS,TX,75217,8225 BRUTON RD DALLAS TX 75217
1718 ROBERT B CULLUM BLVD,DALLAS,TX,75210,1718 ROBERT B CULLUM BLVD DALLAS TX 75210
6116 REIGER AVE,DALLAS,TX,75214,6116 REIGER AVE DALLAS TX 75214
3722 BLACK OAK DR,DALLAS,TX,75241,3722 BLACK OAK DR DALLAS TX 75241
3033 TIPS BLVD,DALLAS,TX,75216,3033 TIPS BLVD DALLAS TX 75216
7000 HOLLY HILL DR,DALLAS,TX,75231,7000 HOLLY HILL DR DALLAS TX 75231
330 N MARSALIS AVE,DALLAS,TX,75203,330 N MARSALIS AVE DALLAS TX 75203
3000 MARTIN LUTHER KING JR BLV,DALLAS,TX,75215,3000 MARTIN LUTHER KING JR BLV DALLAS TX 75215
6700 WANDT,DALLAS,TX,75236,6700 WANDT DALLAS TX 75236
1400 WALMSLEY AVE,DALLAS,TX,75208,1400 WALMSLEY AVE DALLAS TX 75208
6606 RIDGECREST RD,DALLAS,TX,75231,6606 RIDGECREST RD DALLAS TX 75231
2959 HAMPTON RD,DALLAS,TX,75204,2959 HAMPTON RD DALLAS TX 75204
810 S LLEWELLYN AVE,DALLAS,TX,75208,810 S LLEWELLYN AVE DALLAS TX 75208
5715 MEADERS LN,DALLAS,TX,75229,5715 MEADERS LN DALLAS TX 75229
2001 DEER PATH DR,DALLAS,TX,75216,2001 DEER PATH DR DALLAS TX 75216
8239 LK JUNE RD,DALLAS,TX,75217,8239 LK JUNE RD DALLAS TX 75217
2121 TOSCA LN,DALLAS,TX,75224,2121 TOSCA LN DALLAS TX 75224
10750 CRADLEROCK DR,DALLAS,TX,75217,10750 CRADLEROCK DR DALLAS TX 75217
9818 BROCKBANK DR,DALLAS,TX,75220,9818 BROCKBANK DR DALLAS TX 75220
4401 N 2ND AVE,DALLAS,TX,75210,4401 N 2ND AVE DALLAS TX 75210
1201 E EIGHTH ST,DALLAS,TX,75203,1201 E EIGHTH ST DALLAS TX 75203
9510 BROCKBANK DR,DALLAS,TX,75220,9510 BROCKBANK DR DALLAS TX 75220
133 N ST AUGUSTINE DR,DALLAS,TX,75217,133 N ST AUGUSTINE DR DALLAS TX 75217
3606 S WESTMORELAND RD,DALLAS,TX,75233,3606 S WESTMORELAND RD DALLAS TX 75233
1673 TERRE COLONY,DALLAS,TX,75212,1673 TERRE COLONY DALLAS TX 75212
6911 VICTORIA AVE,DALLAS,TX,75209,6911 VICTORIA AVE DALLAS TX 75209
1700 E CAMP WISDOM,DALLAS,TX,75241,1700 E CAMP WISDOM DALLAS TX 75241
6605 SEBRING,DALLAS,TX,75241,6605 SEBRING DALLAS TX 75241
3663 W CAMP WISDOM RD,DALLAS,TX,75237,3663 W CAMP WISDOM RD DALLAS TX 75237
3663 W CAMP WISDOM RD,DALLAS,TX,75237,3663 W CAMP WISDOM RD DALLAS TX 75237
3200 S LANCASTER STE 230A,DALLAS,TX,75216,3200 S LANCASTER STE 230A DALLAS TX 75216
2200 N ST AUGUSTINE,DALLAS,TX,75227,2200 N ST AUGUSTINE DALLAS TX 75227
2200 N ST AUGUSTINE,DALLAS,TX,75227,2200 N ST AUGUSTINE DALLAS TX 75227
1545 S EWING AVE,DALLAS,TX,75216,1545 S EWING AVE DALLAS TX 75216
1545 S EWING AVE,DALLAS,TX,75216,1545 S EWING AVE DALLAS TX 75216
1450 EDD RD,DALLAS,TX,75253,1450 EDD RD DALLAS TX 75253
2200 DENNISON ST,DALLAS,TX,75212,2200 DENNISON ST DALLAS TX 75212
6929 TOWN N DR,DALLAS,TX,75231,6929 TOWN N DR DALLAS TX 75231
1218 PHINNEY AVE,DALLAS,TX,75211,1218 PHINNEY AVE DALLAS TX 75211
2300 S RAVINIA DR,DALLAS,TX,75211,2300 S RAVINIA DR DALLAS TX 75211
4680 W KIEST BLVD,DALLAS,TX,75236,4680 W KIEST BLVD DALLAS TX 75236
4680 W KIEST BLVD,DALLAS,TX,75236,4680 W KIEST BLVD DALLAS TX 75236
9501 FERNDALE RD,DALLAS,TX,75238,9501 FERNDALE RD DALLAS TX 75238
9449 CHURCH RD,DALLAS,TX,75238,9449 CHURCH RD DALLAS TX 75238
10301 WALNUT HILL LN,DALLAS,TX,75238,10301 WALNUT HILL LN DALLAS TX 75238
3000 HILLBROOK ST,DALLAS,TX,75214,3000 HILLBROOK ST DALLAS TX 75214
8307 MEADOW,DALLAS,TX,75231,8307 MEADOW DALLAS TX 75231
9441 LBJ FWY STE 101,DALLAS,TX,75243,9441 LBJ FWY STE 101 DALLAS TX 75243
9441 LBJ FWY STE 101,DALLAS,TX,75243,9441 LBJ FWY STE 101 DALLAS TX 75243
1515 S RAVINIA DR,DALLAS,TX,75211,1515 S RAVINIA DR DALLAS TX 75211
9990 WEBB CHAPEL RD,DALLAS,TX,75220,9990 WEBB CHAPEL RD DALLAS TX 75220
2727 KNOXVILLE ST,DALLAS,TX,75211,2727 KNOXVILLE ST DALLAS TX 75211
10505 DENTON DR,DALLAS,TX,75220,10505 DENTON DR DALLAS TX 75220
10330 LAWLER RD,DALLAS,TX,75243,10330 LAWLER RD DALLAS TX 75243
2419 GLADSTONE DR,DALLAS,TX,75211,2419 GLADSTONE DR DALLAS TX 75211
2826 ELSIE FAYE HEGGINS ST,DALLAS,TX,75215,2826 ELSIE FAYE HEGGINS ST DALLAS TX 75215
2525 FRANKFORD,DALLAS,TX,75287,2525 FRANKFORD DALLAS TX 75287
3214 N WINNETKA AVE,DALLAS,TX,75212,3214 N WINNETKA AVE DALLAS TX 75212
610 N FRANKLIN,DALLAS,TX,75211,610 N FRANKLIN DALLAS TX 75211
7130 LINDSLEY AVE,DALLAS,TX,75223,7130 LINDSLEY AVE DALLAS TX 75223
3120 INWOOD RD,DALLAS,TX,75235,3120 INWOOD RD DALLAS TX 75235
2200 S EDGEFIELD AVE,DALLAS,TX,75224,2200 S EDGEFIELD AVE DALLAS TX 75224
2115 HAMPTON RD,DALLAS,TX,75224,2115 HAMPTON RD DALLAS TX 75224
724 GREEN COVE LN,DALLAS,TX,75232,724 GREEN COVE LN DALLAS TX 75232
11230 LIPPITT AVE,DALLAS,TX,75218,11230 LIPPITT AVE DALLAS TX 75218
8601 WILLOUGHBY BLVD,DALLAS,TX,75232,8601 WILLOUGHBY BLVD DALLAS TX 75232
1665 DUNCANVILLE RD,DALLAS,TX,75211,1665 DUNCANVILLE RD DALLAS TX 75211
3313 S BECKLEY AVE BOX 189,DALLAS,TX,75204,3313 S BECKLEY AVE BOX 189 DALLAS TX 75204
3555 GRANADA AVE,DALLAS,TX,75205,3555 GRANADA AVE DALLAS TX 75205
3443 BRIARGROVE LN,DALLAS,TX,75287,3443 BRIARGROVE LN DALLAS TX 75287
3678 TIMBERGLEN RD,DALLAS,TX,75287,3678 TIMBERGLEN RD DALLAS TX 75287
1508 E LANGDON RD,DALLAS,TX,75241,1508 E LANGDON RD DALLAS TX 75241
7101 WINEDALE DR,DALLAS,TX,75231,7101 WINEDALE DR DALLAS TX 75231
7015 WESTCHESTER DR,DALLAS,TX,75205,7015 WESTCHESTER DR DALLAS TX 75205
4223 BRIARGROVE LN,DALLAS,TX,75287,4223 BRIARGROVE LN DALLAS TX 75287
5828 E MOCKINGBIRD LN,DALLAS,TX,75206,5828 E MOCKINGBIRD LN DALLAS TX 75206
2355 DUNCANVILLE RD,DALLAS,TX,75211,2355 DUNCANVILLE RD DALLAS TX 75211
5555 MAPLE AVE,DALLAS,TX,75235,5555 MAPLE AVE DALLAS TX 75235
9202 MOSS FARM LN,DALLAS,TX,75243,9202 MOSS FARM LN DALLAS TX 75243
6012 E GRAND AVE,DALLAS,TX,75223,6012 E GRAND AVE DALLAS TX 75223
1216 E EIGHTH ST,DALLAS,TX,75203,1216 E EIGHTH ST DALLAS TX 75203
6000 KEENELAND PKWY,DALLAS,TX,75211,6000 KEENELAND PKWY DALLAS TX 75211
10400 RYLIE RD,DALLAS,TX,75217,10400 RYLIE RD DALLAS TX 75217
12600 WELCH RD,DALLAS,TX,75244,12600 WELCH RD DALLAS TX 75244
7800 UMPHRESS RD,DALLAS,TX,75217,7800 UMPHRESS RD DALLAS TX 75217
4730 LANCASTER RD,DALLAS,TX,75216,4730 LANCASTER RD DALLAS TX 75216
3120 N HASKELL AVE,DALLAS,TX,75204,3120 N HASKELL AVE DALLAS TX 75204
10059 RAVENSWAY DR,DALLAS,TX,75238,10059 RAVENSWAY DR DALLAS TX 75238
14532 MEANDERING WAY,DALLAS,TX,75240,14532 MEANDERING WAY DALLAS TX 75240
P O BOX 170127,DALLAS,TX,75217,P O BOX 170127 DALLAS TX 75217
2800 PRICHARD,DALLAS,TX,75227,2800 PRICHARD DALLAS TX 75227
2800 PRICHARD LN,DALLAS,TX,75227,2800 PRICHARD LN DALLAS TX 75227
2615 ANSON RD,DALLAS,TX,75235,2615 ANSON RD DALLAS TX 75235
2001 E KIEST BLVD,DALLAS,TX,75216,2001 E KIEST BLVD DALLAS TX 75216
4919 GRAND AVE,DALLAS,TX,75223,4919 GRAND AVE DALLAS TX 75223
1673 TERRE COLONY COURT,DALLAS,TX,75212,1673 TERRE COLONY COURT DALLAS TX 75212
1673 TERRY COLONY CT,DALLAS,TX,75212,1673 TERRY COLONY CT DALLAS TX 75212
1673 TERRE COLONY,DALLAS,TX,75212,1673 TERRE COLONY DALLAS TX 75212
16500 SHADYBANK DR,DALLAS,TX,75248,16500 SHADYBANK DR DALLAS TX 75248
1673 TERRE COLONY COURT,DALLAS,TX,75212,1673 TERRE COLONY COURT DALLAS TX 75212
4200 METROPOLITAN AVE,DALLAS,TX,75210,4200 METROPOLITAN AVE DALLAS TX 75210
601 N AKARD ST STE 203,DALLAS,TX,75201,601 N AKARD ST STE 203 DALLAS TX 75201
8939 WHITEWING LN,DALLAS,TX,75238,8939 WHITEWING LN DALLAS TX 75238
2827 THROCKMORTON AVE,DALLAS,TX,75219,2827 THROCKMORTON AVE DALLAS TX 75219
7625 HUME DR,DALLAS,TX,75227,7625 HUME DR DALLAS TX 75227
15720 HILLCREST RD,DALLAS,TX,75248,15720 HILLCREST RD DALLAS TX 75248
15720 HILLCREST RD,DALLAS,TX,75248,15720 HILLCREST RD DALLAS TX 75248
15720 HILLCREST RD,DALLAS,TX,75248,15720 HILLCREST RD DALLAS TX 75248
15720 HILLCREST RD,DALLAS,TX,75248,15720 HILLCREST RD DALLAS TX 75248
15720 HILLCREST RD,DALLAS,TX,75248,15720 HILLCREST RD DALLAS TX 75248
15720 HILLCREST RD,DALLAS,TX,75248,15720 HILLCREST RD DALLAS TX 75248
1614 N ST AUGUSTINE,DALLAS,TX,75217,1614 N ST AUGUSTINE DALLAS TX 75217
2909 N BUCKNER ROOM 703,DALLAS,TX,75228,2909 N BUCKNER ROOM 703 DALLAS TX 75228
6423 WALNUT HILL LN,DALLAS,TX,75230,6423 WALNUT HILL LN DALLAS TX 75230
6525 LA COSA,DALLAS,TX,75248,6525 LA COSA DALLAS TX 75248
12532 NUESTRA DR,DALLAS,TX,75230,12532 NUESTRA DR DALLAS TX 75230
5701 RED BIRD CTR DR,DALLAS,TX,75237,5701 RED BIRD CTR DR DALLAS TX 75237
6011 OLD OX RD,DALLAS,TX,75241,6011 OLD OX RD DALLAS TX 75241
2700 REMOND DR,DALLAS,TX,75211,2700 REMOND DR DALLAS TX 75211
10122 LOSA DR,DALLAS,TX,75218,10122 LOSA DR DALLAS TX 75218
8808 CHAPARRAL WATERS WAY,DALLAS,TX,75019,8808 CHAPARRAL WATERS WAY DALLAS TX 75019
637 EDGEWORTH DR,DALLAS,TX,75217,637 EDGEWORTH DR DALLAS TX 75217
12800 ABRAMS RD,DALLAS,TX,75243,12800 ABRAMS RD DALLAS TX 75243
13630 COIT RD,DALLAS,TX,75240,13630 COIT RD DALLAS TX 75240
505 EASTON RD,DALLAS,TX,75218,505 EASTON RD DALLAS TX 75218
3150 BAINBRIDGE DR,DALLAS,TX,75237,3150 BAINBRIDGE DR DALLAS TX 75237
17820 CAMPBELL RD,DALLAS,TX,75252,17820 CAMPBELL RD DALLAS TX 75252
1919 STEVENS FOREST DR,DALLAS,TX,75208,1919 STEVENS FOREST DR DALLAS TX 75208
719 N MONTCLAIR AVE,DALLAS,TX,75208,719 N MONTCLAIR AVE DALLAS TX 75208
1201 E EIGHTH ST,DALLAS,TX,75203,1201 E EIGHTH ST DALLAS TX 75203
6300 ELAM RD,DALLAS,TX,75217,6300 ELAM RD DALLAS TX 75217
3037 GREENMEADOW DR,DALLAS,TX,75228,3037 GREENMEADOW DR DALLAS TX 75228
7001 FAIR OAKS AVE,DALLAS,TX,75231,7001 FAIR OAKS AVE DALLAS TX 75231
7900 HUME DR,DALLAS,TX,75227,7900 HUME DR DALLAS TX 75227
2445 E LEDBETTER DR,DALLAS,TX,75216,2445 E LEDBETTER DR DALLAS TX 75216
9610 BRUTON RD,DALLAS,TX,75217,9610 BRUTON RD DALLAS TX 75217
1201 E EIGHTH ST,DALLAS,TX,75203,1201 E EIGHTH ST DALLAS TX 75203
1201 E EIGHTH ST,DALLAS,TX,75203,1201 E EIGHTH ST DALLAS TX 75203
1201 E EIGHTH ST,DALLAS,TX,75203,1201 E EIGHTH ST DALLAS TX 75203
1201 E EIGHTH ST,DALLAS,TX,75203,1201 E EIGHTH ST DALLAS TX 75203
15920 SEAGOVILLE RD,DALLAS,TX,75253,15920 SEAGOVILLE RD DALLAS TX 75253
950 WOODY RD,DALLAS,TX,75253,950 WOODY RD DALLAS TX 75253
1906 SEAGOVILLE RD,DALLAS,TX,75159,1906 SEAGOVILLE RD DALLAS TX 75159
18110 KELLY BLVD,DALLAS,TX,75287,18110 KELLY BLVD DALLAS TX 75287
7777 FORNEY RD,DALLAS,TX,75227,7777 FORNEY RD DALLAS TX 75227
9229 MEADOWKNOLL DR,DALLAS,TX,75243,9229 MEADOWKNOLL DR DALLAS TX 75243
1802 MOSER AVE,DALLAS,TX,75206,1802 MOSER AVE DALLAS TX 75206
2617 N HENDERSON AVE,DALLAS,TX,75206,2617 N HENDERSON AVE DALLAS TX 75206
3601 S MARSALIS AVE,DALLAS,TX,75216,3601 S MARSALIS AVE DALLAS TX 75216
7667 ROUNDROCK RD,DALLAS,TX,75248,7667 ROUNDROCK RD DALLAS TX 75248
13535 SPRING GROVE AVE,DALLAS,TX,75240,13535 SPRING GROVE AVE DALLAS TX 75240
3732 MYRTLE ST,DALLAS,TX,75215,3732 MYRTLE ST DALLAS TX 75215
3732 MYRTLE ST,DALLAS,TX,75215,3732 MYRTLE ST DALLAS TX 75215
3700 CLOVER LN,DALLAS,TX,75220,3700 CLOVER LN DALLAS TX 75220
2615 W COLORADO BLVD,DALLAS,TX,75211,2615 W COLORADO BLVD DALLAS TX 75211
8700 STULTS RD,DALLAS,TX,75243,8700 STULTS RD DALLAS TX 75243
4518 POMONA RD,DALLAS,TX,75209,4518 POMONA RD DALLAS TX 75209
2120 W JEFFERSON BLVD,DALLAS,TX,75208,2120 W JEFFERSON BLVD DALLAS TX 75208
1515 N JIM MILLER RD,DALLAS,TX,75217,1515 N JIM MILLER RD DALLAS TX 75217
6661 GREENSPAN DR,DALLAS,TX,75232,6661 GREENSPAN DR DALLAS TX 75232
3333 SPRAGUE DR,DALLAS,TX,75233,3333 SPRAGUE DR DALLAS TX 75233
9704 SKILLMAN,DALLAS,TX,75243,9704 SKILLMAN DALLAS TX 75243
325 W 12TH STE 200,DALLAS,TX,75208,325 W 12TH STE 200 DALLAS TX 75208
9020 GULF FWY,DALLAS,TX,75208,9020 GULF FWY DALLAS TX 75208
325 W 12TH ST,DALLAS,TX,75208,325 W 12TH ST DALLAS TX 75208
1227 N MASTERS DR,DALLAS,TX,75217,1227 N MASTERS DR DALLAS TX 75217
7203 BURTON RD,DALLAS,TX,75217,7203 BURTON RD DALLAS TX 75217
3838 CROWN SHORE DR,DALLAS,TX,75244,3838 CROWN SHORE DR DALLAS TX 75244
2929 INWOOD RD,DALLAS,TX,75235,2929 INWOOD RD DALLAS TX 75235
4001 WALNUT HILL LN,DALLAS,TX,75229,4001 WALNUT HILL LN DALLAS TX 75229
5640 S MARSALIS AVE,DALLAS,TX,75241,5640 S MARSALIS AVE DALLAS TX 75241
4000 BLUE RDG RD,DALLAS,TX,75233,4000 BLUE RDG RD DALLAS TX 75233
9666 FERRIS BRANCH,DALLAS,TX,75243,9666 FERRIS BRANCH DALLAS TX 75243
4030 CALCULUS RD,DALLAS,TX,75244,4030 CALCULUS RD DALLAS TX 75244
4849 ILLINOIS AVE STE W53A,DALLAS,TX,75211,4849 ILLINOIS AVE STE W53A DALLAS TX 75211
400 S ZANG STE 700,DALLAS,TX,75208,400 S ZANG STE 700 DALLAS TX 75208
1515 LYNN HAVEN AVE,DALLAS,TX,75216,1515 LYNN HAVEN AVE DALLAS TX 75216
3838 SPUR 408,DALLAS,TX,75236,3838 SPUR 408 DALLAS TX 75236
7808 RACINE DR,DALLAS,TX,75232,7808 RACINE DR DALLAS TX 75232
3505 AMHERST AVE,DALLAS,TX,75225,3505 AMHERST AVE DALLAS TX 75225
3301 TURF PARADISE PKWY,DALLAS,TX,76140,3301 TURF PARADISE PKWY DALLAS TX 76140
3000 PEGASUS PARK DR STE 1100,DALLAS,TX,75247,3000 PEGASUS PARK DR STE 1100 DALLAS TX 75247
1825 MARKET CENTER BLVD STE 500,DALLAS,TX,75207,1825 MARKET CENTER BLVD STE 500 DALLAS TX 75207
1825 MARKET CENTER BLVD STE 500,DALLAS,TX,75207,1825 MARKET CENTER BLVD STE 500 DALLAS TX 75207
3000 PEGASUS PARK DR BLDG 2,DALLAS,TX,75247,3000 PEGASUS PARK DR BLDG 2 DALLAS TX 75247
1825 MARKET CENTER BLVD STE 500,DALLAS,TX,75207,1825 MARKET CENTER BLVD STE 500 DALLAS TX 75207
1825 MARKET CENTER BLVD STE 500,DALLAS,TX,75207,1825 MARKET CENTER BLVD STE 500 DALLAS TX 75207
1825 MARKET CENTER BLVD STE 500,DALLAS,TX,75207,1825 MARKET CENTER BLVD STE 500 DALLAS TX 75207
1825 MARKET CENTER BLVD STE 500,DALLAS,TX,75207,1825 MARKET CENTER BLVD STE 500 DALLAS TX 75207
1825 MARKET CENTER BLVD STE 500,DALLAS,TX,75207,1825 MARKET CENTER BLVD STE 500 DALLAS TX 75207
1825 MARKET CENTER BLVD STE 500,DALLAS,TX,75207,1825 MARKET CENTER BLVD STE 500 DALLAS TX 75207
1825 MARKET CENTER BLVD STE 500,DALLAS,TX,75207,1825 MARKET CENTER BLVD STE 500 DALLAS TX 75207
1825 MARKET CENTER BLVD STE 500,DALLAS,TX,75207,1825 MARKET CENTER BLVD STE 500 DALLAS TX 75207
1825 MARKET CENTER BLVD STE 500,DALLAS,TX,75207,1825 MARKET CENTER BLVD STE 500 DALLAS TX 75207
1825 MARKET CENTER BLVD STE 500,DALLAS,TX,75207,1825 MARKET CENTER BLVD STE 500 DALLAS TX 75207
1825 MARKET CENTER BLVD STE 500,DALLAS,TX,75207,1825 MARKET CENTER BLVD STE 500 DALLAS TX 75207
1825 MARKET CENTER BLVD STE 500,DALLAS,TX,75207,1825 MARKET CENTER BLVD STE 500 DALLAS TX 75207
1825 MARKET CENTER BLVD STE 500,DALLAS,TX,75207,1825 MARKET CENTER BLVD STE 500 DALLAS TX 75207
1825 MARKET CENTER BLVD STE 500,DALLAS,TX,75207,1825 MARKET CENTER BLVD STE 500 DALLAS TX 75207
1825 MARKET CENTER BLVD STE 500,DALLAS,TX,75207,1825 MARKET CENTER BLVD STE 500 DALLAS TX 75207
1825 MARKET CENTER BLVD STE 500,DALLAS,TX,75207,1825 MARKET CENTER BLVD STE 500 DALLAS TX 75207
1825 MARKET CENTER BLVD STE 500,DALLAS,TX,75207,1825 MARKET CENTER BLVD STE 500 DALLAS TX 75207
1825 MARKET CENTER BLVD STE 500,DALLAS,TX,75207,1825 MARKET CENTER BLVD STE 500 DALLAS TX 75207
1825 MARKET CENTER BLVD STE 500,DALLAS,TX,75207,1825 MARKET CENTER BLVD STE 500 DALLAS TX 75207
1825 MARKET CENTER BLVD STE 500,DALLAS,TX,75207,1825 MARKET CENTER BLVD STE 500 DALLAS TX 75207
1825 MARKET CENTER BLVD STE 500,DALLAS,TX,75207,1825 MARKET CENTER BLVD STE 500 DALLAS TX 75207
1825 MARKET CENTER BLVD STE 500,DALLAS,TX,75207,1825 MARKET CENTER BLVD STE 500 DALLAS TX 75207
1825 MARKET CENTER BLVD STE 500,DALLAS,TX,75207,1825 MARKET CENTER BLVD STE 500 DALLAS TX 75207
1825 MARKET CENTER BLVD STE 500,DALLAS,TX,75207,1825 MARKET CENTER BLVD STE 500 DALLAS TX 75207
1825 MARKET CENTER BLVD STE 500,DALLAS,TX,75207,1825 MARKET CENTER BLVD STE 500 DALLAS TX 75207
1825 MARKET CENTER BLVD STE 500,DALLAS,TX,75207,1825 MARKET CENTER BLVD STE 500 DALLAS TX 75207
1825 MARKET CENTER BLVD STE 500,DALLAS,TX,75207,1825 MARKET CENTER BLVD STE 500 DALLAS TX 75207
1825 MARKET CENTER BLVD STE 500,DALLAS,TX,75207,1825 MARKET CENTER BLVD STE 500 DALLAS TX 75207
1825 MARKET CENTER BLVD STE 500,DALLAS,TX,75207,1825 MARKET CENTER BLVD STE 500 DALLAS TX 75207
1825 MARKET CENTER BLVD STE 500,DALLAS,TX,75207,1825 MARKET CENTER BLVD STE 500 DALLAS TX 75207
1825 MARKET CENTER BLVD STE 500,DALLAS,TX,75207,1825 MARKET CENTER BLVD STE 500 DALLAS TX 75207
1825 MARKET CENTER BLVD STE 500,DALLAS,TX,75207,1825 MARKET CENTER BLVD STE 500 DALLAS TX 75207
1825 MARKET CENTER BLVD STE 500,DALLAS,TX,75207,1825 MARKET CENTER BLVD STE 500 DALLAS TX 75207
1825 MARKET CENTER BLVD STE 500,DALLAS,TX,75207,1825 MARKET CENTER BLVD STE 500 DALLAS TX 75207
6901 MILITARY PKWY,DALLAS,TX,75227,6901 MILITARY PKWY DALLAS TX 75227
9720 WATERVIEW RD,DALLAS,TX,75218,9720 WATERVIEW RD DALLAS TX 75218
7720 GAYGLEN DR,DALLAS,TX,75217,7720 GAYGLEN DR DALLAS TX 75217
501 S EDGEFIELD AVE,DALLAS,TX,75208,501 S EDGEFIELD AVE DALLAS TX 75208
309 E NINTH ST,DALLAS,TX,75203,309 E NINTH ST DALLAS TX 75203
9565 MERCER DR,DALLAS,TX,75228,9565 MERCER DR DALLAS TX 75228
4505 RIDGESIDE DR,DALLAS,TX,75244,4505 RIDGESIDE DR DALLAS TX 75244
4200 BONNIE VIEW RD,DALLAS,TX,75216,4200 BONNIE VIEW RD DALLAS TX 75216
8928 PALISADE DR,DALLAS,TX,75217,8928 PALISADE DR DALLAS TX 75217
9921 KIRKHAVEN DR,DALLAS,TX,75238,9921 KIRKHAVEN DR DALLAS TX 75238
10115 MIDWAY RD,DALLAS,TX,75229,10115 MIDWAY RD DALLAS TX 75229
1011 MIDWAY RD,DALLAS,TX,75229,1011 MIDWAY RD DALLAS TX 75229
7630 ARAPAHO RD,DALLAS,TX,75248,7630 ARAPAHO RD DALLAS TX 75248
9229 CHISWELL RD,DALLAS,TX,75238,9229 CHISWELL RD DALLAS TX 75238
4601 VETERANS DR,DALLAS,TX,75216,4601 VETERANS DR DALLAS TX 75216
3111 BONNIE VIEW RD,DALLAS,TX,75216,3111 BONNIE VIEW RD DALLAS TX 75216
3001 MCKINNEY AVE,DALLAS,TX,75204,3001 MCKINNEY AVE DALLAS TX 75204
1303 REYNOLDSTON LN,DALLAS,TX,75232,1303 REYNOLDSTON LN DALLAS TX 75232
5801 WORTH ST,DALLAS,TX,75214,5801 WORTH ST DALLAS TX 75214
620 N ST AUGUSTINE DR,DALLAS,TX,75217,620 N ST AUGUSTINE DR DALLAS TX 75217
7475 J J LEMMON RD,DALLAS,TX,75241,7475 J J LEMMON RD DALLAS TX 75241
5520 LANGDON RD,DALLAS,TX,75241,5520 LANGDON RD DALLAS TX 75241
1151 S EDGEFIELD AVE,DALLAS,TX,75208,1151 S EDGEFIELD AVE DALLAS TX 75208
301 W CAMP WISDOM RD,DALLAS,TX,75232,301 W CAMP WISDOM RD DALLAS TX 75232
301 W CAMP WISDOM RD,DALLAS,TX,75232,301 W CAMP WISDOM RD DALLAS TX 75232
100 S GLASGOW DR,DALLAS,TX,75214,100 S GLASGOW DR DALLAS TX 75214
1625 N MASTERS DR,DALLAS,TX,75217,1625 N MASTERS DR DALLAS TX 75217
2939 ST RITA DR,DALLAS,TX,75233,2939 ST RITA DR DALLAS TX 75233
908 WAHLER PLACE SE,Washington,DC,20032,908 WAHLER PLACE SE Washington DC 20032
533 48TH PL. NE,Washington,DC,20019,533 48TH PL. NE Washington DC 20019
401 I ST. SW,Washington,DC,20024,401 I ST. SW Washington DC 20024
1601 16TH ST. SE,Washington,DC,20020,1601 16TH ST. SE Washington DC 20020
2750 14TH STREET NW,Washington,DC,20009,2750 14TH STREET NW Washington DC 20009
2017 Savannah Terrace SE,Washington,DC,20020,2017 Savannah Terrace SE Washington DC 20020
138 12TH STREET NE,Washington,DC,20002,138 12TH STREET NE Washington DC 20002
330 21ST STREET NE,Washington,DC,20002,330 21ST STREET NE Washington DC 20002
1801 Mississippi Avenue SE,Washington,DC,20032,1801 Mississippi Avenue SE Washington DC 20032
488 VIRGINIA AVENUE SW,WASHINGTON,DC,20024,488 VIRGINIA AVENUE SW WASHINGTON DC 20024
3401 4TH ST. SE,Washington,DC,20032,3401 4TH ST. SE Washington DC 20032
3401 4TH ST. SE,Washington,DC,20032,3401 4TH ST. SE Washington DC 20032
1755 NEWTON ST. NW,Washington,DC,20010,1755 NEWTON ST. NW Washington DC 20010
4430 H ST. SE,Washington,DC,20019,4430 H ST. SE Washington DC 20019
430 DECATUR ST. NW,Washington,DC,20011,430 DECATUR ST. NW Washington DC 20011
410 8TH STREET NW,Washington,DC,20004,410 8TH STREET NW Washington DC 20004
3600 ALABAMA AVE. SE,Washington,DC,20020,3600 ALABAMA AVE. SE Washington DC 20020
1600 9th St. NW,Washington,DC,20001,1600 9th St. NW Washington DC 20001
6923 WILLOW STREET NW,Washington,DC,20012,6923 WILLOW STREET NW Washington DC 20012
301 NORTH CAROLINA AVE. SE,Washington,DC,20003,301 NORTH CAROLINA AVE. SE Washington DC 20003
100 GALLATIN STREET NE,Washington,DC,20011,100 GALLATIN STREET NE Washington DC 20011
1300 NICHOLSON ST. NW,Washington,DC,20011,1300 NICHOLSON ST. NW Washington DC 20011
1150 Michigan Ave NE,Washington,DC,20017,1150 Michigan Ave NE Washington DC 20017
850 26TH ST. NE,Washington,DC,20002,850 26TH ST. NE Washington DC 20002
3560 WARDER ST. NW,Washington,DC,20010,3560 WARDER ST. NW Washington DC 20010
1401 Michigan Ave NE,Washington,DC,20017,1401 Michigan Ave NE Washington DC 20017
1820 MONROE ST. NE,Washington,DC,20018,1820 MONROE ST. NE Washington DC 20018
801 DIVISION AVE. NE,Washington,DC,20019,801 DIVISION AVE. NE Washington DC 20019
301 53RD ST. SE,Washington,DC,20019,301 53RD ST. SE Washington DC 20019
100 PEABODY STREET NW,Washington,DC,20011,100 PEABODY STREET NW Washington DC 20011
100 PEABODY STREET NW,Washington,DC,20011,100 PEABODY STREET NW Washington DC 20011
100 PEABODY STREET NW,Washington,DC,20011,100 PEABODY STREET NW Washington DC 20011
705 EDGEWOOD STREET NE,WASHINGTON,DC,20017,705 EDGEWOOD STREET NE WASHINGTON DC 20017
215 G St NE,Washington,DC,20002,215 G St NE Washington DC 20002
1200 CLIFTON ST. NW,Washington,DC,20009,1200 CLIFTON ST. NW Washington DC 20009
701 HOWARD ROAD SE,Washington,DC,20020,701 HOWARD ROAD SE Washington DC 20020
6008 GEORGIA AVENUE NW,Washington,DC,20011,6008 GEORGIA AVENUE NW Washington DC 20011
1503 EAST CAPITOL STREET SE,Washington,DC,20003,1503 EAST CAPITOL STREET SE Washington DC 20003
220 HIGHVIEW PLACE SE,Washington,DC,20032,220 HIGHVIEW PLACE SE Washington DC 20032
510 WEBSTER STREET NW,Washington,DC,20011,510 WEBSTER STREET NW Washington DC 20011
711 N STREET NW,Washington,DC,20001,711 N STREET NW Washington DC 20001
1217 WEST VIRGINIA AVENUE NE,Washington,DC,20002,1217 WEST VIRGINIA AVENUE NE Washington DC 20002
3701 HAYES STREET NE,Washington,DC,20019,3701 HAYES STREET NE Washington DC 20019
1825 8TH ST. NW,Washington,DC,20001,1825 8TH ST. NW Washington DC 20001
3101 16TH ST. NW,Washington,DC,20010,3101 16TH ST. NW Washington DC 20010
6315 5TH ST. NW,Washington,DC,20011,6315 5TH ST. NW Washington DC 20011
3700 NORTH CAPITOL STREET NW,Washington,DC,20011,3700 NORTH CAPITOL STREET NW Washington DC 20011
33 RIGGS ROAD NE,Washington,DC,20011,33 RIGGS ROAD NE Washington DC 20011
1409 V STREET SE,Washington,DC,20020,1409 V STREET SE Washington DC 20020
2501 MARTIN LUTHER KING JR AVENUE SE,WASHINGTON,DC,20020,2501 MARTIN LUTHER KING JR AVENUE SE WASHINGTON DC 20020
100 41ST STREET NE,Washington,DC,20019,100 41ST STREET NE Washington DC 20019
100 41ST STREET NE,Washington,DC,20019,100 41ST STREET NE Washington DC 20019
707 EDGEWOOD STREET NE,Washington,DC,20017,707 EDGEWOOD STREET NE Washington DC 20017
701 EDGEWOOD STREET NE,Washington,DC,20017,701 EDGEWOOD STREET NE Washington DC 20017
5601 EAST CAPITOL STREET SE,Washington,DC,20019,5601 EAST CAPITOL STREET SE Washington DC 20019
3815 FORT DR. NW,Washington,DC,20016,3815 FORT DR. NW Washington DC 20016
709 12TH STREET SE,Washington,DC,20003,709 12TH STREET SE Washington DC 20003
4025 9TH STREET SE,Washington,DC,20032,4025 9TH STREET SE Washington DC 20032
1400 Main Drive NW,Washington,DC,20012,1400 Main Drive NW Washington DC 20012
4300 13th St. NW,Washington,DC,20011,4300 13th St. NW Washington DC 20011
5600 EADS ST. NE,Washington,DC,20019,5600 EADS ST. NE Washington DC 20019
3500 R ST. NW,Washington,DC,20007,3500 R ST. NW Washington DC 20007
101 N ST. NW,Washington,DC,20001,101 N ST. NW Washington DC 20001
4501 KANSAS AVENUE NW,Washington,DC,20011,4501 KANSAS AVENUE NW Washington DC 20011
4501 KANSAS AVENUE NW,Washington,DC,20011,4501 KANSAS AVENUE NW Washington DC 20011
3600 GEORGIA AVENUE NW,Washington,DC,20010,3600 GEORGIA AVENUE NW Washington DC 20010
1900 HALF STREET SW,Washington,DC,20536,1900 HALF STREET SW Washington DC 20536
3400 WHEELER ROAD SE,Washington,DC,20032,3400 WHEELER ROAD SE Washington DC 20032
885 BARNABY STREET SE,Washington,DC,20032,885 BARNABY STREET SE Washington DC 20032
1700 EAST CAPITOL ST. NE,Washington,DC,20003,1700 EAST CAPITOL ST. NE Washington DC 20003
3301 Lowell St NW,Washington,DC,20008,3301 Lowell St NW Washington DC 20008
1830 CONSTITUTION AVE. NE,Washington,DC,20002,1830 CONSTITUTION AVE. NE Washington DC 20002
3700 Oakview Terrace NE,Washington,DC,20017,3700 Oakview Terrace NE Washington DC 20017
5600 EAST CAPITOL STREET NE,Washington,DC,20019,5600 EAST CAPITOL STREET NE Washington DC 20019
2501 MARTIN LUTHER KING JR. AVE. SE,Washington,DC,20020,2501 MARTIN LUTHER KING JR. AVE. SE Washington DC 20020
111 O STREET NW,Washington,DC,20001,111 O STREET NW Washington DC 20001
111 O STREET NW,Washington,DC,20001,111 O STREET NW Washington DC 20001
725 19TH STREET NE,Washington,DC,20002,725 19TH STREET NE Washington DC 20002
725 19TH STREET NE,Washington,DC,20002,725 19TH STREET NE Washington DC 20002
1345 POTOMAC AVENUE SE,Washington,DC,20003,1345 POTOMAC AVENUE SE Washington DC 20003
1345 POTOMAC AVENUE SE,Washington,DC,20003,1345 POTOMAC AVENUE SE Washington DC 20003
4095 MINNESOTA AVENUE NE,Washington,DC,20019,4095 MINNESOTA AVENUE NE Washington DC 20019
6130 NORTH CAPITOL STREET NW,Washington,DC,20011,6130 NORTH CAPITOL STREET NW Washington DC 20011
6130 NORTH CAPITOL STREET NW,Washington,DC,20011,6130 NORTH CAPITOL STREET NW Washington DC 20011
1351 NICHOLSON STREET NW,Washington,DC,20011,1351 NICHOLSON STREET NW Washington DC 20011
645 MILWAUKEE PLACE SE,Washington,DC,20032,645 MILWAUKEE PLACE SE Washington DC 20032
645 MILWAUKEE PLACE SE,Washington,DC,20032,645 MILWAUKEE PLACE SE Washington DC 20032
2705 MARTIN LUTHER KING JR AVENUE SE,Washington,DC,20032,2705 MARTIN LUTHER KING JR AVENUE SE Washington DC 20032
2959 CARLTON AVENUE NE,Washington,DC,20018,2959 CARLTON AVENUE NE Washington DC 20018
2959 CARLTON AVENUE NE,Washington,DC,20018,2959 CARLTON AVENUE NE Washington DC 20018
2435 ALABAMA AVE. SE,Washington,DC,20020,2435 ALABAMA AVE. SE Washington DC 20020
1200 S ST. NW,Washington,DC,20009,1200 S ST. NW Washington DC 20009
733 8TH STREET NW,WASHINGTON,DC,20001,733 8TH STREET NW WASHINGTON DC 20001
4095 MINNESOTA AVENUE NE,Washington,DC,20019,4095 MINNESOTA AVENUE NE Washington DC 20019
1776 G STREET NW,Washington,DC,20006,1776 G STREET NW Washington DC 20006
2525 17TH ST. NW,Washington,DC,20009,2525 17TH ST. NW Washington DC 20009
540 55TH ST. NE,Washington,DC,20019,540 55TH ST. NE Washington DC 20019
1819 35TH ST. NW,Washington,DC,20007,1819 35TH ST. NW Washington DC 20007
62 T STREET NE,Washington,DC,20002,62 T STREET NE Washington DC 20002
601 MISSISSIPPI AVE. SE,Washington,DC,20032,601 MISSISSIPPI AVE. SE Washington DC 20032
3950 37TH ST. NW,Washington,DC,20008,3950 37TH ST. NW Washington DC 20008
425 CHESAPEAKE ST. SE,Washington,DC,20032,425 CHESAPEAKE ST. SE Washington DC 20032
2917 8TH STREET NE,Washington,DC,20017,2917 8TH STREET NE Washington DC 20017
1100 50TH PL. NE,Washington,DC,20019,1100 50TH PL. NE Washington DC 20019
405 HOWARD ROAD PLACE NW,Washington,DC,20059,405 HOWARD ROAD PLACE NW Washington DC 20059
3219 O ST. NW,Washington,DC,20007,3219 O ST. NW Washington DC 20007
2220 BRANCH AVENUE SE,WASHINGTON,DC,20020,2220 BRANCH AVENUE SE WASHINGTON DC 20020
405 SHERIDAN ST. NW,Washington,DC,20011,405 SHERIDAN ST. NW Washington DC 20011
1027 45TH STREET NE,Washington,DC,20019,1027 45TH STREET NE Washington DC 20019
4600 LIVINGSTON ROAD SE,Washington,DC,20032,4600 LIVINGSTON ROAD SE Washington DC 20032
200 DOUGLAS STREET NE,Washington,DC,20002,200 DOUGLAS STREET NE Washington DC 20002
660 K ST. NE,Washington,DC,20002,660 K ST. NE Washington DC 20002
4130 ALBEMARLE ST. NW,Washington,DC,20016,4130 ALBEMARLE ST. NW Washington DC 20016
801 7TH ST. SW,Washington,DC,20024,801 7TH ST. SW Washington DC 20024
1400 BRUCE PL. SE,Washington,DC,20020,1400 BRUCE PL. SE Washington DC 20020
301 49TH ST. NE,Washington,DC,20019,301 49TH ST. NE Washington DC 20019
1919 15TH ST. SE,Washington,DC,20020,1919 15TH ST. SE Washington DC 20020
5001 DANA PL. NW,Washington,DC,20016,5001 DANA PL. NW Washington DC 20016
3375 MINNESOTA AVE. SE,Washington,DC,20019,3375 MINNESOTA AVE. SE Washington DC 20019
3200 6TH ST. SE,Washington,DC,20032,3200 6TH ST. SE Washington DC 20032
1375 E STREET NE,Washington,DC,20002,1375 E STREET NE Washington DC 20002
2600 DOUGLASS ROAD SE,Washington,DC,20020,2600 DOUGLASS ROAD SE Washington DC 20020
5300 BLAINE STREET NE,Washington,DC,20019,5300 BLAINE STREET NE Washington DC 20019
1405 Brentwood Parkway NE,Washington,DC,20002,1405 Brentwood Parkway NE Washington DC 20002
1375 MOUNT OLIVET ROAD NE,Washington,DC,20002,1375 MOUNT OLIVET ROAD NE Washington DC 20002
2600 DOUGLASS ROAD SE,Washington,DC,20020,2600 DOUGLASS ROAD SE Washington DC 20020
421 P STREET NW,Washington,DC,20001,421 P STREET NW Washington DC 20001
2600 DOUGLASS ROAD SE,Washington,DC,20020,2600 DOUGLASS ROAD SE Washington DC 20020
3301 WHEELER ROAD SE,Washington,DC,20032,3301 WHEELER ROAD SE Washington DC 20032
3301 WHEELER ROAD SE,Washington,DC,20032,3301 WHEELER ROAD SE Washington DC 20032
4801 BENNING ROAD SE,Washington,DC,20019,4801 BENNING ROAD SE Washington DC 20019
421 P STREET NW,Washington,DC,20001,421 P STREET NW Washington DC 20001
4801 BENNING ROAD SE,Washington,DC,20019,4801 BENNING ROAD SE Washington DC 20019
3999 8TH STREET SE,Washington,DC,20032,3999 8TH STREET SE Washington DC 20032
1375 MOUNT OLIVET ROAD NE,Washington,DC,20002,1375 MOUNT OLIVET ROAD NE Washington DC 20002
3301 WHEELER ROAD SE,Washington,DC,20032,3301 WHEELER ROAD SE Washington DC 20032
4801 BENNING ROAD SE,Washington,DC,20019,4801 BENNING ROAD SE Washington DC 20019
5300 BLAINE STREET NE,Washington,DC,20019,5300 BLAINE STREET NE Washington DC 20019
1375 MOUNT OLIVET ROAD NE,Washington,DC,20002,1375 MOUNT OLIVET ROAD NE Washington DC 20002
5300 BLAINE STREET NE,Washington,DC,20019,5300 BLAINE STREET NE Washington DC 20019
421 P STREET NW,Washington,DC,20001,421 P STREET NW Washington DC 20001
1700 Q ST. SE,Washington,DC,20020,1700 Q ST. SE Washington DC 20020
5701 BROAD BRANCH RD. NW,Washington,DC,20015,5701 BROAD BRANCH RD. NW Washington DC 20015
1900 EVARTS ST. NE,Washington,DC,20018,1900 EVARTS ST. NE Washington DC 20018
101 T Street NE,Washington,DC,20002,101 T Street NE Washington DC 20002
501 RIGGS RD. NE,Washington,DC,20011,501 RIGGS RD. NE Washington DC 20011
5000 14TH STREET NW,Washington,DC,20011,5000 14TH STREET NW Washington DC 20011
2200 MINNESOTA AVE. SE,Washington,DC,20020,2200 MINNESOTA AVE. SE Washington DC 20020
100 DUNCAN STREET SW,Washington,DC,20032,100 DUNCAN STREET SW Washington DC 20032
4201 M.L. KING AVE. SW,Washington,DC,20032,4201 M.L. KING AVE. SW Washington DC 20032
3025 4TH STREET NE,Washington,DC,20017,3025 4TH STREET NE Washington DC 20017
2345 R STREET SE,Washington,DC,20020,2345 R STREET SE Washington DC 20020
659 G ST. NE,Washington,DC,20002,659 G ST. NE Washington DC 20002
1001 MONROE ST. NE,Washington,DC,20017,1001 MONROE ST. NE Washington DC 20017
4400 IOWA AVE. NW,Washington,DC,20011,4400 IOWA AVE. NW Washington DC 20011
1500 MISSISSIPPI AVE. SE,Washington,DC,20032,1500 MISSISSIPPI AVE. SE Washington DC 20032
4430 NEWARK ST. NW,Washington,DC,20016,4430 NEWARK ST. NW Washington DC 20016
2201 18TH ST. NW,Washington,DC,20009,2201 18TH ST. NW Washington DC 20009
1404 JACKSON STREET NE,Washington,DC,20017,1404 JACKSON STREET NE Washington DC 20017
1250 CONSTITUTION AVE. NE,Washington,DC,20002,1250 CONSTITUTION AVE. NE Washington DC 20002
1000 Mount Olivet Road NE,Washington,DC,20002,1000 Mount Olivet Road NE Washington DC 20002
1901 D STREET SE,Washington,DC,20003,1901 D STREET SE Washington DC 20003
5600 EAST CAPITOL STREET NE,Washington,DC,20019,5600 EAST CAPITOL STREET NE Washington DC 20019
151 T. ST. NE,Washington,DC,20002,151 T. ST. NE Washington DC 20002
151 T ST. NE,Washington,DC,20002,151 T ST. NE Washington DC 20002
2120 13TH STREET NW,Washington,DC,20009,2120 13TH STREET NW Washington DC 20009
1375 Missouri Ave NW,Washington,DC,20011,1375 Missouri Ave NW Washington DC 20011
601 15TH ST. NE,Washington,DC,20002,601 15TH ST. NE Washington DC 20002
500 19TH STREET NE,Washington,DC,20002,500 19TH STREET NE Washington DC 20002
1565 MORRIS RD. SE,Washington,DC,20020,1565 MORRIS RD. SE Washington DC 20020
4401 8TH STREET NE,Washington,DC,20017,4401 8TH STREET NE Washington DC 20017
30 P STREET NW,Washington,DC,20001,30 P STREET NW Washington DC 20001
4810 36TH ST. NW,Washington,DC,20008,4810 36TH ST. NW Washington DC 20008
219 50TH ST. SE,Washington,DC,20019,219 50TH ST. SE Washington DC 20019
2725 10TH ST. NE,Washington,DC,20018,2725 10TH ST. NE Washington DC 20018
2801 CALVERT ST. NW AND 2020 19TH ST. NW,Washington,DC,20008,2801 CALVERT ST. NW AND 2020 19TH ST. NW Washington DC 20008
4399 SOUTH CAPITOL TERR. SW,Washington,DC,20032,4399 SOUTH CAPITOL TERR. SW Washington DC 20032
5800 8TH STREET NW,Washington,DC,20011,5800 8TH STREET NW Washington DC 20011
5800 8TH STREET NW,Washington,DC,20011,5800 8TH STREET NW Washington DC 20011
1445 C ST. SE,Washington,DC,20003,1445 C ST. SE Washington DC 20003
425 C ST. NE,Washington,DC,20002,425 C ST. NE Washington DC 20002
1800 PERRY STREET NE,Washington,DC,20018,1800 PERRY STREET NE Washington DC 20018
704 26TH ST. NE,Washington,DC,20002,704 26TH ST. NE Washington DC 20002
4601 TEXAS AVE. SE,Washington,DC,20019,4601 TEXAS AVE. SE Washington DC 20019
1350 UPSHUR ST. NW,Washington,DC,20011,1350 UPSHUR ST. NW Washington DC 20011
1650 30TH ST. SE,Washington,DC,20020,1650 30TH ST. SE Washington DC 20020
2501 11th Street NW,Washington,DC,20001,2501 11th Street NW Washington DC 20001
475 SCHOOL STREET SW,Washington,DC,20024,475 SCHOOL STREET SW Washington DC 20024
405 ANACOSTIA AVE. NE,Washington,DC,20019,405 ANACOSTIA AVE. NE Washington DC 20019
5450 3RD STREET NE,WASHINGTON,DC,20011,5450 3RD STREET NE WASHINGTON DC 20011
4250 MASSACHUSETTS AVENUE SE,Washington,DC,20019,4250 MASSACHUSETTS AVENUE SE Washington DC 20019
2335 RAYNOLDS PLACE SE,Washington,DC,20020,2335 RAYNOLDS PLACE SE Washington DC 20020
4800 MEADE ST. NE,Washington,DC,20019,4800 MEADE ST. NE Washington DC 20019
4301 13TH ST. NW,Washington,DC,20011,4301 13TH ST. NW Washington DC 20011
4301 13TH ST. NW,Washington,DC,20011,4301 13TH ST. NW Washington DC 20011
15 KENNEDY STREET NW,Washington,DC,20011,15 KENNEDY STREET NW Washington DC 20011
1730 R ST. NW,Washington,DC,20009,1730 R ST. NW Washington DC 20009
2400 SHANNON PL. SE,Washington,DC,20020,2400 SHANNON PL. SE Washington DC 20020
2425 N ST. NW,Washington,DC,20037,2425 N ST. NW Washington DC 20037
2130 G ST. NW,Washington,DC,20037,2130 G ST. NW Washington DC 20037
810 26th Street NE,Washington,DC,20002,810 26th Street NE Washington DC 20002
1503 10TH ST. NW,Washington,DC,20001,1503 10TH ST. NW Washington DC 20001
4300 C STREET SE,Washington,DC,20019,4300 C STREET SE Washington DC 20019
6015 CHILLUM PLACE NE,Washington,DC,20011,6015 CHILLUM PLACE NE Washington DC 20011
7800 14th St NW,Washington,DC,20012,7800 14th St NW Washington DC 20012
1240 RANDOLPH STREET NE,Washington,DC,20017,1240 RANDOLPH STREET NE Washington DC 20017
401 MISSISSIPPI AVE. SE,Washington,DC,20032,401 MISSISSIPPI AVE. SE Washington DC 20032
1300 44TH ST. NE,Washington,DC,20019,1300 44TH ST. NE Washington DC 20019
5450 3RD STREET NE,WASHINGTON,DC,20011,5450 3RD STREET NE WASHINGTON DC 20011
3650 ELY PL. SE,Washington,DC,20019,3650 ELY PL. SE Washington DC 20019
1901 INDEPENDENCE AVENUE SE,Washington,DC,20003,1901 INDEPENDENCE AVENUE SE Washington DC 20003
2701 NAYLOR RD. SE,Washington,DC,20020,2701 NAYLOR RD. SE Washington DC 20020
4600 LIVINGSTON ROAD SE,Washington,DC,20032,4600 LIVINGSTON ROAD SE Washington DC 20032
4001 CALVERT ST. NW,Washington,DC,20007,4001 CALVERT ST. NW Washington DC 20007
410 E ST. NE,Washington,DC,20002,410 E ST. NE Washington DC 20002
7010 PINEY BRANCH RD. NW,Washington,DC,20012,7010 PINEY BRANCH RD. NW Washington DC 20012
1050 21ST STREET NW,WASHINGTON,DC,20036,1050 21ST STREET NW WASHINGTON DC 20036
2146 24TH PLACE NE,Washington,DC,20018,2146 24TH PLACE NE Washington DC 20018
1800 PERRY STREET NE,WASHINGTON,DC,20018,1800 PERRY STREET NE WASHINGTON DC 20018
650 ANACOSTIA AVE. NE,Washington,DC,20019,650 ANACOSTIA AVE. NE Washington DC 20019
1200 L ST. NW,Washington,DC,20005,1200 L ST. NW Washington DC 20005
2427 MARTIN LUTHER KING JR AVENUE SE,Washington,DC,20020,2427 MARTIN LUTHER KING JR AVENUE SE Washington DC 20020
800 INGRAHAM ST. NW,Washington,DC,20011,800 INGRAHAM ST. NW Washington DC 20011
3101 13TH ST. NW,Washington,DC,20010,3101 13TH ST. NW Washington DC 20010
3264 STANTON RD. SE,Washington,DC,20032,3264 STANTON RD. SE Washington DC 20032
1227 4TH STREET NE,Washington,DC,20002,1227 4TH STREET NE Washington DC 20002
820 26TH STREET NE,Washington,DC,20002,820 26TH STREET NE Washington DC 20002
830 26TH STREET NE,WASHINGTON,DC,20002,830 26TH STREET NE WASHINGTON DC 20002
1001 G ST. SE,Washington,DC,20003,1001 G ST. SE Washington DC 20003
1150 5th St SE,Washington,DC,20003,1150 5th St SE Washington DC 20003
1125 NEW JERSEY AVE. NW,Washington,DC,20001,1125 NEW JERSEY AVE. NW Washington DC 20001
525 SCHOOL STREET SW,Washington,DC,20024,525 SCHOOL STREET SW Washington DC 20024
5200 2ND STREET NW,Washington,DC,20011,5200 2ND STREET NW Washington DC 20011
5200 2ND STREET NW,Washington,DC,20011,5200 2ND STREET NW Washington DC 20011
3015 4TH STREET NE,Washington,DC,20017,3015 4TH STREET NE Washington DC 20017
220 TAYLOR STREET NE,Washington,DC,20017,220 TAYLOR STREET NE Washington DC 20017
420 12TH ST. SE,Washington,DC,20003,420 12TH ST. SE Washington DC 20003
1335 Farragut St NW,Washington,DC,20011,1335 Farragut St NW Washington DC 20011
1299 NEAL ST. NE,Washington,DC,20002,1299 NEAL ST. NE Washington DC 20002
6201 5TH ST. NW,Washington,DC,20011,6201 5TH ST. NW Washington DC 20011
3950 CHESAPEAKE ST. NW,Washington,DC,20016,3950 CHESAPEAKE ST. NW Washington DC 20016
949 Van St,Elgin,IL,60123,949 Van St Elgin IL 60123
355 E Chicago St,Elgin,IL,60120,355 E Chicago St Elgin IL 60120
1235 Braeburn Dr,Elgin,IL,60123,1235 Braeburn Dr Elgin IL 60123
63 S Channing St,Elgin,IL,60120,63 S Channing St Elgin IL 60120
770 Mill St,Elgin,IL,60177,770 Mill St Elgin IL 60177
1220 Dundee Ave,Elgin,IL,60120,1220 Dundee Ave Elgin IL 60120
455 Thornwood Way,Elgin,IL,60177,455 Thornwood Way Elgin IL 60177
3701 Highland Woods Blvd,Elgin,IL,60124,3701 Highland Woods Blvd Elgin IL 60124
655 N Airlite St,Elgin,IL,60123,655 N Airlite St Elgin IL 60123
46 S Gifford St,Elgin,IL,60120,46 S Gifford St Elgin IL 60120
46 S Gifford St,Elgin,IL,60120,46 S Gifford St Elgin IL 60120
1200 Maroon Dr,Elgin,IL,60120,1200 Maroon Dr Elgin IL 60120
1600 Dundee Ave,Elgin,IL,60120,1600 Dundee Ave Elgin IL 60120
225 S Liberty St,Elgin,IL,60120,225 S Liberty St Elgin IL 60120
1275 Jenna Dr,Elgin,IL,60177,1275 Jenna Dr Elgin IL 60177
420 May St,Elgin,IL,60120,420 May St Elgin IL 60120
240 S Clifton Ave,Elgin,IL,60123,240 S Clifton Ave Elgin IL 60123
190 N Melrose Ave,Elgin,IL,60123,190 N Melrose Ave Elgin IL 60123
80 N Airlite St,Elgin,IL,60123,80 N Airlite St Elgin IL 60123
1855 Rohrson Rd,Elgin,IL,60120,1855 Rohrson Rd Elgin IL 60120
801 Hastings St,Elgin,IL,60120,801 Hastings St Elgin IL 60120
1350 Wing St,Elgin,IL,60123,1350 Wing St Elgin IL 60123
1515 Raymond St,Elgin,IL,60177,1515 Raymond St Elgin IL 60177
451 N McLean Blvd,Elgin,IL,60123,451 N McLean Blvd Elgin IL 60123
1475 Larkin Ave,Elgin,IL,60123,1475 Larkin Ave Elgin IL 60123
665 Dundee Ave,Elgin,IL,60120,665 Dundee Ave Elgin IL 60120
323 Waverly Dr,Elgin,IL,60120,323 Waverly Dr Elgin IL 60120
264 Oak St,Elgin,IL,60123,264 Oak St Elgin IL 60123
258 Lovell St,Elgin,IL,60120,258 Lovell St Elgin IL 60120
46 S Gifford St,Elgin,IL,60120,46 S Gifford St Elgin IL 60120
2701 Hopps Rd,Elgin,IL,60124,2701 Hopps Rd Elgin IL 60124
46 S Gifford St,Elgin,IL,60120,46 S Gifford St Elgin IL 60120
225 Nesler Rd,Elgin,IL,60124,225 Nesler Rd Elgin IL 60124
10N630 Nesler Rd,Elgin,IL,60124,10N630 Nesler Rd Elgin IL 60124
510 Franklin Blvd,Elgin,IL,60120,510 Franklin Blvd Elgin IL 60120
760 E Main St,Elgin,IL,60177,760 E Main St Elgin IL 60177
819 W Chicago St,Elgin,IL,60123,819 W Chicago St Elgin IL 60123
370 W Spring St,Elgin,IL,60177,370 W Spring St Elgin IL 60177
3800 ANGLIN DR,FORT WORTH,TX,76119,3800 ANGLIN DR FORT WORTH TX 76119
4501 BARBARA RD,FORT WORTH,TX,76114,4501 BARBARA RD FORT WORTH TX 76114
3320 W CANTEY ST,FORT WORTH,TX,76109,3320 W CANTEY ST FORT WORTH TX 76109
4100 LUBBOCK AVE,FORT WORTH,TX,76115,4100 LUBBOCK AVE FORT WORTH TX 76115
5901 HEREFORD DR,FORT WORTH,TX,76179,5901 HEREFORD DR FORT WORTH TX 76179
12000 OAK GROVE RD,FORT WORTH,TX,76028,12000 OAK GROVE RD FORT WORTH TX 76028
7060 CAMP BOWIE,FORT WORTH,TX,76116,7060 CAMP BOWIE FORT WORTH TX 76116
4501 W FWY,FORT WORTH,TX,76107,4501 W FWY FORT WORTH TX 76107
100 N UNIVERSITY,FORT WORTH,TX,76107,100 N UNIVERSITY FORT WORTH TX 76107
1850 BARRON LN,FORT WORTH,TX,76112,1850 BARRON LN FORT WORTH TX 76112
3100 CLAY MOUNTAIN TRAIL,FORT WORTH,TX,76137,3100 CLAY MOUNTAIN TRAIL FORT WORTH TX 76137
800 MERCEDES ST,FORT WORTH,TX,76126,800 MERCEDES ST FORT WORTH TX 76126
201 OVERCREST,FORT WORTH,TX,76126,201 OVERCREST FORT WORTH TX 76126
10301 BERKSHIRE LAKE BLVD,FORT WORTH,TX,76131,10301 BERKSHIRE LAKE BLVD FORT WORTH TX 76131
2501 COOKS LN,FORT WORTH,TX,76120,2501 COOKS LN FORT WORTH TX 76120
601 BLUE HAZE DR,FORT WORTH,TX,76108,601 BLUE HAZE DR FORT WORTH TX 76108
7000 TEAL DR,FORT WORTH,TX,76137,7000 TEAL DR FORT WORTH TX 76137
3504 KIMBO RD,FORT WORTH,TX,76111,3504 KIMBO RD FORT WORTH TX 76111
5805 W BAILEY BOSWELL RD,FORT WORTH,TX,76179,5805 W BAILEY BOSWELL RD FORT WORTH TX 76179
5100 EL CAMPO,FORT WORTH,TX,76107,5100 EL CAMPO FORT WORTH TX 76107
1025 W LOOP 820 N,FORT WORTH,TX,76108,1025 W LOOP 820 N FORT WORTH TX 76108
100 N UNIVERSITY,FORT WORTH,TX,76107,100 N UNIVERSITY FORT WORTH TX 76107
5533 WHITMAN AVE,FORT WORTH,TX,76133,5533 WHITMAN AVE FORT WORTH TX 76133
8601 OLD DECATUR RD,FORT WORTH,TX,76179,8601 OLD DECATUR RD FORT WORTH TX 76179
519 BURTON HILL RD,FORT WORTH,TX,76114,519 BURTON HILL RD FORT WORTH TX 76114
1201 E JEFFERSON AVE,FORT WORTH,TX,76104,1201 E JEFFERSON AVE FORT WORTH TX 76104
1204 E BROADUS AVE,FORT WORTH,TX,76115,1204 E BROADUS AVE FORT WORTH TX 76115
3301 YUCCA AVE,FORT WORTH,TX,76111,3301 YUCCA AVE FORT WORTH TX 76111
1100 ROBERTS CUT OFF,FORT WORTH,TX,76114,1100 ROBERTS CUT OFF FORT WORTH TX 76114
215 CHURCHILL RD,FORT WORTH,TX,76114,215 CHURCHILL RD FORT WORTH TX 76114
3710 DEEN RD,FORT WORTH,TX,76106,3710 DEEN RD FORT WORTH TX 76106
3131 SANGUINET ST,FORT WORTH,TX,76107,3131 SANGUINET ST FORT WORTH TX 76107
401 SAMUELS AVE,FORT WORTH,TX,76102,401 SAMUELS AVE FORT WORTH TX 76102
100 N UNIVERSITY DR,FORT WORTH,TX,76107,100 N UNIVERSITY DR FORT WORTH TX 76107
8301 RUNNING RIVER,FORT WORTH,TX,76131,8301 RUNNING RIVER FORT WORTH TX 76131
3100 NW COLLEGE DR,FORT WORTH,TX,76179,3100 NW COLLEGE DR FORT WORTH TX 76179
4108 EASTLAND ST,FORT WORTH,TX,76119,4108 EASTLAND ST FORT WORTH TX 76119
7820 HANGER CUTOFF RD,FORT WORTH,TX,76135,7820 HANGER CUTOFF RD FORT WORTH TX 76135
4400 CAMPUS DR,FORT WORTH,TX,76119,4400 CAMPUS DR FORT WORTH TX 76119
8100 COMANCHE SPRINGS DR,FORT WORTH,TX,76131,8100 COMANCHE SPRINGS DR FORT WORTH TX 76131
4000 HORNE ST,FORT WORTH,TX,76107,4000 HORNE ST FORT WORTH TX 76107
4001 LITTLEPAGE ST,FORT WORTH,TX,76107,4001 LITTLEPAGE ST FORT WORTH TX 76107
8801 COPPER MEADOW DR,FORT WORTH,TX,76131,8801 COPPER MEADOW DR FORT WORTH TX 76131
6716 BOB HANGER RD,FORT WORTH,TX,76179,6716 BOB HANGER RD FORT WORTH TX 76179
3800 W RISINGER RD,FORT WORTH,TX,76123,3800 W RISINGER RD FORT WORTH TX 76123
P O BOX 77070,FORT WORTH,TX,76177,P O BOX 77070 FORT WORTH TX 76177
958 PAGE AVE,FORT WORTH,TX,76110,958 PAGE AVE FORT WORTH TX 76110
1108 CARLOCK ST,FORT WORTH,TX,76110,1108 CARLOCK ST FORT WORTH TX 76110
801 W JESSAMINE,FORT WORTH,TX,76110,801 W JESSAMINE FORT WORTH TX 76110
8700 VIRIDIAN LN,FORT WORTH,TX,76123,8700 VIRIDIAN LN FORT WORTH TX 76123
4200 DORSEY ST,FORT WORTH,TX,76119,4200 DORSEY ST FORT WORTH TX 76119
9901 HEMPHILL ST,FORT WORTH,TX,76123,9901 HEMPHILL ST FORT WORTH TX 76123
1419 COLLEGE AVE,FORT WORTH,TX,76104,1419 COLLEGE AVE FORT WORTH TX 76104
2701 KIMBO RD,FORT WORTH,TX,76111,2701 KIMBO RD FORT WORTH TX 76111
2000 DEWEY ST,FORT WORTH,TX,76106,2000 DEWEY ST FORT WORTH TX 76106
1411 MAYDELL ST,FORT WORTH,TX,76106,1411 MAYDELL ST FORT WORTH TX 76106
3309 W LONG AVE,FORT WORTH,TX,76106,3309 W LONG AVE FORT WORTH TX 76106
6201 REDEAGLE CREEK DR,FORT WORTH,TX,76179,6201 REDEAGLE CREEK DR FORT WORTH TX 76179
5700 RAMEY AVE,FORT WORTH,TX,76112,5700 RAMEY AVE FORT WORTH TX 76112
7309 SHERIDAN RD,FORT WORTH,TX,76134,7309 SHERIDAN RD FORT WORTH TX 76134
6505 LUCERNE DR,FORT WORTH,TX,76135,6505 LUCERNE DR FORT WORTH TX 76135
9700 MORRIS DIDO NEWARK RD,FORT WORTH,TX,76179,9700 MORRIS DIDO NEWARK RD FORT WORTH TX 76179
501 OAKLAND BLVD,FORT WORTH,TX,76103,501 OAKLAND BLVD FORT WORTH TX 76103
2617 MIMS ST,FORT WORTH,TX,76112,2617 MIMS ST FORT WORTH TX 76112
5917 SHELTON ST,FORT WORTH,TX,76112,5917 SHELTON ST FORT WORTH TX 76112
5701 SHELTON ST,FORT WORTH,TX,76112,5701 SHELTON ST FORT WORTH TX 76112
6129 TEXAS SHINER RD,FORT WORTH,TX,76179,6129 TEXAS SHINER RD FORT WORTH TX 76179
2751 YUMA AVE,FORT WORTH,TX,76104,2751 YUMA AVE FORT WORTH TX 76104
709 NW 21ST,FORT WORTH,TX,76164,709 NW 21ST FORT WORTH TX 76164
7250 ELKINS SCHOOL RD,FORT WORTH,TX,76179,7250 ELKINS SCHOOL RD FORT WORTH TX 76179
5901 HEREFORD DR,FORT WORTH,TX,76179,5901 HEREFORD DR FORT WORTH TX 76179
8301 DOWNE DR,FORT WORTH,TX,76108,8301 DOWNE DR FORT WORTH TX 76108
3221 PECOS ST,FORT WORTH,TX,76119,3221 PECOS ST FORT WORTH TX 76119
3901 S HULEN ST,FORT WORTH,TX,76109,3901 S HULEN ST FORT WORTH TX 76109
3901 S HULEN ST,FORT WORTH,TX,76109,3901 S HULEN ST FORT WORTH TX 76109
3821 STAGHORN CIR S,FORT WORTH,TX,76137,3821 STAGHORN CIR S FORT WORTH TX 76137
100 N UNIVERSITY DR,FORT WORTH,TX,76107,100 N UNIVERSITY DR FORT WORTH TX 76107
3300 S HENDERSON ST,FORT WORTH,TX,76110,3300 S HENDERSON ST FORT WORTH TX 76110
3601 PECOS ST,FORT WORTH,TX,76119,3601 PECOS ST FORT WORTH TX 76119
4200 S HULEN ST STE 650,FORT WORTH,TX,76109,4200 S HULEN ST STE 650 FORT WORTH TX 76109
1605 GRADY LEE ST,FORT WORTH,TX,76134,1605 GRADY LEE ST FORT WORTH TX 76134
6020 TEN MILE BRIDGE RD,FORT WORTH,TX,76135,6020 TEN MILE BRIDGE RD FORT WORTH TX 76135
5615 FOREST HILL DR,FORT WORTH,TX,76119,5615 FOREST HILL DR FORT WORTH TX 76119
8100 S HULEN ST,FORT WORTH,TX,76123,8100 S HULEN ST FORT WORTH TX 76123
5651 WESTCREEK DR,FORT WORTH,TX,76133,5651 WESTCREEK DR FORT WORTH TX 76133
7421 TRAIL LAKE DR,FORT WORTH,TX,76133,7421 TRAIL LAKE DR FORT WORTH TX 76133
3524 N CRUMP ST,FORT WORTH,TX,76106,3524 N CRUMP ST FORT WORTH TX 76106
1301 HIGH COUNTRY TRL,FORT WORTH,TX,76131,1301 HIGH COUNTRY TRL FORT WORTH TX 76131
7225 CROWLEY RD,FORT WORTH,TX,76134,7225 CROWLEY RD FORT WORTH TX 76134
7225 CROWLEY RD,FORT WORTH,TX,76134,7225 CROWLEY RD FORT WORTH TX 76134
7225 CROWLEY RD,FORT WORTH,TX,76134,7225 CROWLEY RD FORT WORTH TX 76134
1001 E BAILEY BOSWELL RD,FORT WORTH,TX,76131,1001 E BAILEY BOSWELL RD FORT WORTH TX 76131
8250 PARKWOOD HILL BLVD,FORT WORTH,TX,76137,8250 PARKWOOD HILL BLVD FORT WORTH TX 76137
1333 W SPURGEON ST,FORT WORTH,TX,76115,1333 W SPURGEON ST FORT WORTH TX 76115
6701 CROWLEY RD,FORT WORTH,TX,76134,6701 CROWLEY RD FORT WORTH TX 76134
6701 CROWLEY RD,FORT WORTH,TX,76134,6701 CROWLEY RD FORT WORTH TX 76134
3000 S CHERRY LN,FORT WORTH,TX,76116,3000 S CHERRY LN FORT WORTH TX 76116
3000 S CHERRY LN,FORT WORTH,TX,76116,3000 S CHERRY LN FORT WORTH TX 76116
2935 E SEMINARY DR,FORT WORTH,TX,76119,2935 E SEMINARY DR FORT WORTH TX 76119
2935 E SEMINARY DR,FORT WORTH,TX,76119,2935 E SEMINARY DR FORT WORTH TX 76119
5901 BOCA RATON BLVD,FORT WORTH,TX,76112,5901 BOCA RATON BLVD FORT WORTH TX 76112
5901 BOCA RATON BLVD,FORT WORTH,TX,76112,5901 BOCA RATON BLVD FORT WORTH TX 76112
2301 HERITAGE TRACE PKWY,FORT WORTH,TX,76177,2301 HERITAGE TRACE PKWY FORT WORTH TX 76177
2301 HERITAGE TRACE PKWY,FORT WORTH,TX,76177,2301 HERITAGE TRACE PKWY FORT WORTH TX 76177
10537 NW HWY 287,FORT WORTH,TX,76131,10537 NW HWY 287 FORT WORTH TX 76131
1900 IM TERRELL WAY,FORT WORTH,TX,76102,1900 IM TERRELL WAY FORT WORTH TX 76102
100 N UNIVERSITY,FORT WORTH,TX,76107,100 N UNIVERSITY FORT WORTH TX 76107
3813 VALENTINE ST,FORT WORTH,TX,76107,3813 VALENTINE ST FORT WORTH TX 76107
415 HAGG DR,FORT WORTH,TX,76114,415 HAGG DR FORT WORTH TX 76114
9200 POYNTER ST,FORT WORTH,TX,76123,9200 POYNTER ST FORT WORTH TX 76123
6161 WRIGLEY WAY,FORT WORTH,TX,76133,6161 WRIGLEY WAY FORT WORTH TX 76133
3701 GARDEN SPRINGS RD,FORT WORTH,TX,76123,3701 GARDEN SPRINGS RD FORT WORTH TX 76123
606 N WALNUT,FORT WORTH,TX,76262,606 N WALNUT FORT WORTH TX 76262
1101 NASHVILLE ST,FORT WORTH,TX,76105,1101 NASHVILLE ST FORT WORTH TX 76105
3000 FOREST AVE,FORT WORTH,TX,76112,3000 FOREST AVE FORT WORTH TX 76112
201 N BAILEY AVE,FORT WORTH,TX,76107,201 N BAILEY AVE FORT WORTH TX 76107
7300 JOHN T WHITE RD,FORT WORTH,TX,76120,7300 JOHN T WHITE RD FORT WORTH TX 76120
5300 BUCHANAN ST,FORT WORTH,TX,76114,5300 BUCHANAN ST FORT WORTH TX 76114
6301 ROCKROSE TRAIL,FORT WORTH,TX,76123,6301 ROCKROSE TRAIL FORT WORTH TX 76123
3131 SANQUINET,FORT WORTH,TX,76107,3131 SANQUINET FORT WORTH TX 76107
3901 SUMMEFIELDS BLVD,FORT WORTH,TX,76137,3901 SUMMEFIELDS BLVD FORT WORTH TX 76137
3975 SUMMERFIELDS BLVD,FORT WORTH,TX,76137,3975 SUMMERFIELDS BLVD FORT WORTH TX 76137
3229 LINCOLN AVE,FORT WORTH,TX,76106,3229 LINCOLN AVE FORT WORTH TX 76106
3201 REFUGIO AVE,FORT WORTH,TX,76106,3201 REFUGIO AVE FORT WORTH TX 76106
701 WAGGOMAN RD,FORT WORTH,TX,76131,701 WAGGOMAN RD FORT WORTH TX 76131
7151 LAKE COUNTRY DR,FORT WORTH,TX,76179,7151 LAKE COUNTRY DR FORT WORTH TX 76179
5501 PARK DR,FORT WORTH,TX,76179,5501 PARK DR FORT WORTH TX 76179
4801 EASTLINE DR,FORT WORTH,TX,76119,4801 EASTLINE DR FORT WORTH TX 76119
P O BOX 77070,FORT WORTH,TX,76177,P O BOX 77070 FORT WORTH TX 76177
P O BOX 77070,FORT WORTH,TX,76177,P O BOX 77070 FORT WORTH TX 76177
8900 CHAPIN,FORT WORTH,TX,76116,8900 CHAPIN FORT WORTH TX 76116
2000 PARK PL AVE,FORT WORTH,TX,76110,2000 PARK PL AVE FORT WORTH TX 76110
P O BOX 77070,FORT WORTH,TX,76177,P O BOX 77070 FORT WORTH TX 76177
7600 LOWERY RD,FORT WORTH,TX,76120,7600 LOWERY RD FORT WORTH TX 76120
3651 SANTOS DR,FORT WORTH,TX,76106,3651 SANTOS DR FORT WORTH TX 76106
7325 KERMIT AVE,FORT WORTH,TX,76116,7325 KERMIT AVE FORT WORTH TX 76116
3020 BIGHAM BLVD,FORT WORTH,TX,76116,3020 BIGHAM BLVD FORT WORTH TX 76116
2100 LINCOLN AVE,FORT WORTH,TX,76164,2100 LINCOLN AVE FORT WORTH TX 76164
5250 ESTRELLA DR,FORT WORTH,TX,76106,5250 ESTRELLA DR FORT WORTH TX 76106
4801 MARINE CREEK PKWY,FORT WORTH,TX,76107,4801 MARINE CREEK PKWY FORT WORTH TX 76107
4801 HUFFINES BLVD,FORT WORTH,TX,76135,4801 HUFFINES BLVD FORT WORTH TX 76135
5825 MARINE CREEK PKWY,FORT WORTH,TX,76179,5825 MARINE CREEK PKWY FORT WORTH TX 76179
8400 W CLEBURNE RD,FORT WORTH,TX,76123,8400 W CLEBURNE RD FORT WORTH TX 76123
2300 DILLARD ST,FORT WORTH,TX,76105,2300 DILLARD ST FORT WORTH TX 76105
5816 RICKENBACKER ST,FORT WORTH,TX,76112,5816 RICKENBACKER ST FORT WORTH TX 76112
14700 OLD WEATHERFORD RD,FORT WORTH,TX,76008,14700 OLD WEATHERFORD RD FORT WORTH TX 76008
3201 S HILLS AVE,FORT WORTH,TX,76109,3201 S HILLS AVE FORT WORTH TX 76109
3816 STADIUM DR,FORT WORTH,TX,76109,3816 STADIUM DR FORT WORTH TX 76109
3316 AVE N,FORT WORTH,TX,76105,3316 AVE N FORT WORTH TX 76105
3600 WEBER ST,FORT WORTH,TX,76106,3600 WEBER ST FORT WORTH TX 76106
4330 MEADOWBROOK DR,FORT WORTH,TX,76103,4330 MEADOWBROOK DR FORT WORTH TX 76103
2001 EDERVILLE RD,FORT WORTH,TX,76103,2001 EDERVILLE RD FORT WORTH TX 76103
2801 COUNTRY CREEK LN,FORT WORTH,TX,76123,2801 COUNTRY CREEK LN FORT WORTH TX 76123
2801 PATINO RD,FORT WORTH,TX,76112,2801 PATINO RD FORT WORTH TX 76112
3601 MITCHELL BLVD,FORT WORTH,TX,76105,3601 MITCHELL BLVD FORT WORTH TX 76105
3136 BIGHAM BLVD,FORT WORTH,TX,76116,3136 BIGHAM BLVD FORT WORTH TX 76116
1809 NE 36TH ST,FORT WORTH,TX,76106,1809 NE 36TH ST FORT WORTH TX 76106
2601 EVANS AVE,FORT WORTH,TX,76104,2601 EVANS AVE FORT WORTH TX 76104
2751 MISSISSIPPI AVE,FORT WORTH,TX,76104,2751 MISSISSIPPI AVE FORT WORTH TX 76104
1324 KINGS HWY,FORT WORTH,TX,76117,1324 KINGS HWY FORT WORTH TX 76117
2001 BEACH ST,FORT WORTH,TX,76103,2001 BEACH ST FORT WORTH TX 76103
100 N UNIVERSITY DR,FORT WORTH,TX,76107,100 N UNIVERSITY DR FORT WORTH TX 76107
9100 S HULEN,FORT WORTH,TX,76123,9100 S HULEN FORT WORTH TX 76123
3801 W SEVENTH ST,FORT WORTH,TX,76107,3801 W SEVENTH ST FORT WORTH TX 76107
7900 N RIVERSIDE DR,FORT WORTH,TX,76137,7900 N RIVERSIDE DR FORT WORTH TX 76137
2211 MCKINLEY AVE,FORT WORTH,TX,76164,2211 MCKINLEY AVE FORT WORTH TX 76164
2500 CANTRELL SANSOM RD,FORT WORTH,TX,76131,2500 CANTRELL SANSOM RD FORT WORTH TX 76131
2000 WINTER HAWK DR,FORT WORTH,TX,76177,2000 WINTER HAWK DR FORT WORTH TX 76177
2400 E SEMINARY DR,FORT WORTH,TX,76119,2400 E SEMINARY DR FORT WORTH TX 76119
2700 YUCCA AVE,FORT WORTH,TX,76111,2700 YUCCA AVE FORT WORTH TX 76111
3220 HARDEMAN ST,FORT WORTH,TX,76119,3220 HARDEMAN ST FORT WORTH TX 76119
6651 OAKMONT TRL,FORT WORTH,TX,76132,6651 OAKMONT TRL FORT WORTH TX 76132
4865 BRIARHAVEN RD,FORT WORTH,TX,76109,4865 BRIARHAVEN RD FORT WORTH TX 76109
5100 GLEN CANYON RD,FORT WORTH,TX,76137,5100 GLEN CANYON RD FORT WORTH TX 76137
6900 BAYBERRY DR,FORT WORTH,TX,76137,6900 BAYBERRY DR FORT WORTH TX 76137
6225 CRYSTAL LK DR,FORT WORTH,TX,76179,6225 CRYSTAL LK DR FORT WORTH TX 76179
1320 W EVERMAN PKWY,FORT WORTH,TX,76134,1320 W EVERMAN PKWY FORT WORTH TX 76134
8201 PARKWOOD HILL BLVD,FORT WORTH,TX,76137,8201 PARKWOOD HILL BLVD FORT WORTH TX 76137
3001 FOREST PARK BLVD,FORT WORTH,TX,76110,3001 FOREST PARK BLVD FORT WORTH TX 76110
2501 STALCUP RD,FORT WORTH,TX,76105,2501 STALCUP RD FORT WORTH TX 76105
100 N UNIVERSITY,FORT WORTH,TX,76107,100 N UNIVERSITY FORT WORTH TX 76107
1300 CONNER AVE,FORT WORTH,TX,76105,1300 CONNER AVE FORT WORTH TX 76105
8000 COMANCHE SPRINGS DR,FORT WORTH,TX,76131,8000 COMANCHE SPRINGS DR FORT WORTH TX 76131
1101 MERRITT,FORT WORTH,TX,76114,1101 MERRITT FORT WORTH TX 76114
6000 OLD DECATUR RD,FORT WORTH,TX,76179,6000 OLD DECATUR RD FORT WORTH TX 76179
900 W FOGG ST,FORT WORTH,TX,76110,900 W FOGG ST FORT WORTH TX 76110
6785 CAMP BOWIE BLVD 200,FORT WORTH,TX,76116,6785 CAMP BOWIE BLVD 200 FORT WORTH TX 76116
6817 CUMBERLAND RD,FORT WORTH,TX,76116,6817 CUMBERLAND RD FORT WORTH TX 76116
8850 ELBE TRL,FORT WORTH,TX,76118,8850 ELBE TRL FORT WORTH TX 76118
3600 FOSSIL DR,FORT WORTH,TX,76111,3600 FOSSIL DR FORT WORTH TX 76111
1600 BOLTON ST,FORT WORTH,TX,76111,1600 BOLTON ST FORT WORTH TX 76111
1501 W SEMINARY DR,FORT WORTH,TX,76115,1501 W SEMINARY DR FORT WORTH TX 76115
1412 DENVER AVE,FORT WORTH,TX,76164,1412 DENVER AVE FORT WORTH TX 76164
10525 MCCART AVE,FORT WORTH,TX,76123,10525 MCCART AVE FORT WORTH TX 76123
4000 AVE N,FORT WORTH,TX,76105,4000 AVE N FORT WORTH TX 76105
701 S HUGHES AVE,FORT WORTH,TX,76103,701 S HUGHES AVE FORT WORTH TX 76103
2613 ROOSEVELT AVE,FORT WORTH,TX,76164,2613 ROOSEVELT AVE FORT WORTH TX 76164
5037 TOWNSEND DR,FORT WORTH,TX,76115,5037 TOWNSEND DR FORT WORTH TX 76115
521 ASHDALE RD,FORT WORTH,TX,76140,521 ASHDALE RD FORT WORTH TX 76140
701 TIERRA VISTA WAY,FORT WORTH,TX,76131,701 TIERRA VISTA WAY FORT WORTH TX 76131
4101 BIRCHMAN AVE,FORT WORTH,TX,76107,4101 BIRCHMAN AVE FORT WORTH TX 76107
3009 BILGLADE RD,FORT WORTH,TX,76133,3009 BILGLADE RD FORT WORTH TX 76133
6101 MCCART,FORT WORTH,TX,76133,6101 MCCART FORT WORTH TX 76133
4100 ALTAMESA BLVD,FORT WORTH,TX,76133,4100 ALTAMESA BLVD FORT WORTH TX 76133
3207 HOLLIS ST,FORT WORTH,TX,76111,3207 HOLLIS ST FORT WORTH TX 76111
2100 CLOVER LN,FORT WORTH,TX,76107,2100 CLOVER LN FORT WORTH TX 76107
1003 W CANNON,FORT WORTH,TX,76104,1003 W CANNON FORT WORTH TX 76104
8036 CEDAR LK LN,FORT WORTH,TX,76123,8036 CEDAR LK LN FORT WORTH TX 76123
3409 STALCUP RD,FORT WORTH,TX,76119,3409 STALCUP RD FORT WORTH TX 76119
2032 CANCHIM ST,FORT WORTH,TX,76131,2032 CANCHIM ST FORT WORTH TX 76131
1601 COUNTRY MANOR RD,FORT WORTH,TX,76134,1601 COUNTRY MANOR RD FORT WORTH TX 76134
3500 CRENSHAW AVE,FORT WORTH,TX,76105,3500 CRENSHAW AVE FORT WORTH TX 76105
1101 MERRITT,FORT WORTH,TX,76114,1101 MERRITT FORT WORTH TX 76114
3060 OVERTON PARK W,FORT WORTH,TX,76109,3060 OVERTON PARK W FORT WORTH TX 76109
701 AMERICAN FLYER BLVD,FORT WORTH,TX,76108,701 AMERICAN FLYER BLVD FORT WORTH TX 76108
100 N UNIVERSITY DR,FORT WORTH,TX,76107,100 N UNIVERSITY DR FORT WORTH TX 76107
1850 WHITE SETTLEMENT RD,FORT WORTH,TX,76107,1850 WHITE SETTLEMENT RD FORT WORTH TX 76107
315 CHURCHILL RD,FORT WORTH,TX,76114,315 CHURCHILL RD FORT WORTH TX 76114
3131 SAN GUINET,FORT WORTH,TX,76109,3131 SAN GUINET FORT WORTH TX 76109
100 N UNIVERSITY,FORT WORTH,TX,76107,100 N UNIVERSITY FORT WORTH TX 76107
1316 LANCASTER AVE,FORT WORTH,TX,76114,1316 LANCASTER AVE FORT WORTH TX 76114
6620 WESTCREEK DR,FORT WORTH,TX,76133,6620 WESTCREEK DR FORT WORTH TX 76133
2100 CLOVER LN,FORT WORTH,TX,76107,2100 CLOVER LN FORT WORTH TX 76107
3901 S HULEN ST,FORT WORTH,TX,76109,3901 S HULEN ST FORT WORTH TX 76109
12350 TIMBERLAND BLVD,FORT WORTH,TX,76244,12350 TIMBERLAND BLVD FORT WORTH TX 76244
10300 OLD DENTON RD,FORT WORTH,TX,76244,10300 OLD DENTON RD FORT WORTH TX 76244
5100 EL CAMPO AVE,FORT WORTH,TX,76107,5100 EL CAMPO AVE FORT WORTH TX 76107
1003 W CANNON ST,FORT WORTH,TX,76104,1003 W CANNON ST FORT WORTH TX 76104
101 W PAFFORD ST,FORT WORTH,TX,76110,101 W PAFFORD ST FORT WORTH TX 76110
2520 S PRECINCT LINE RD,FORT WORTH,TX,76118,2520 S PRECINCT LINE RD FORT WORTH TX 76118
3301 TURF PARADISE PKWY,FORT WORTH,TX,76140,3301 TURF PARADISE PKWY FORT WORTH TX 76140
10800 CHAPIN RD,FORT WORTH,TX,76108,10800 CHAPIN RD FORT WORTH TX 76108
P O BOX 77070,FORT WORTH,TX,76177,P O BOX 77070 FORT WORTH TX 76177
501 MISSOURI AVE,FORT WORTH,TX,76104,501 MISSOURI AVE FORT WORTH TX 76104
901 BAURLINE ST,FORT WORTH,TX,76111,901 BAURLINE ST FORT WORTH TX 76111
3201 THOMPSON RD,FORT WORTH,TX,76137,3201 THOMPSON RD FORT WORTH TX 76137
3001 AZLE AVE,FORT WORTH,TX,76106,3001 AZLE AVE FORT WORTH TX 76106
4612 DAVID STRICKLAND,FORT WORTH,TX,76119,4612 DAVID STRICKLAND FORT WORTH TX 76119
14113 WALSH AVE,FORT WORTH,TX,76008,14113 WALSH AVE FORT WORTH TX 76008
3215 N HOUSTON ST,FORT WORTH,TX,76106,3215 N HOUSTON ST FORT WORTH TX 76106
3604 CIMARRON TR,FORT WORTH,TX,76116,3604 CIMARRON TR FORT WORTH TX 76116
1300 OLD DECATUR RD,FORT WORTH,TX,76179,1300 OLD DECATUR RD FORT WORTH TX 76179
4212 BELDEN AVE,FORT WORTH,TX,76132,4212 BELDEN AVE FORT WORTH TX 76132
3909 WILKIE WAY,FORT WORTH,TX,76133,3909 WILKIE WAY FORT WORTH TX 76133
2749 PUTNAM,FORT WORTH,TX,76112,2749 PUTNAM FORT WORTH TX 76112
4300 CLAY AVE,FORT WORTH,TX,76109,4300 CLAY AVE FORT WORTH TX 76109
3401 WALTON AVE,FORT WORTH,TX,76133,3401 WALTON AVE FORT WORTH TX 76133
2805 LAREDO DR,FORT WORTH,TX,76116,2805 LAREDO DR FORT WORTH TX 76116
3600 BOSTON AVE,FORT WORTH,TX,76116,3600 BOSTON AVE FORT WORTH TX 76116
8300 MOJAVE TRL,FORT WORTH,TX,76116,8300 MOJAVE TRL FORT WORTH TX 76116
10117 WESTPARK DR,FORT WORTH,TX,76126,10117 WESTPARK DR FORT WORTH TX 76126
8100 ELIZABETH LN,FORT WORTH,TX,76116,8100 ELIZABETH LN FORT WORTH TX 76116
100 N UNIVERSITY,FORT WORTH,TX,76107,100 N UNIVERSITY FORT WORTH TX 76107
6701 WOODWAY DR,FORT WORTH,TX,76133,6701 WOODWAY DR FORT WORTH TX 76133
1066 W MAGNOLIA AVE,FORT WORTH,TX,76104,1066 W MAGNOLIA AVE FORT WORTH TX 76104
519 E BUTLER ST,FORT WORTH,TX,76110,519 E BUTLER ST FORT WORTH TX 76110
5100 WILLIE,FORT WORTH,TX,76105,5100 WILLIE FORT WORTH TX 76105
1066 W MAGNOLIA,FORT WORTH,TX,76104,1066 W MAGNOLIA FORT WORTH TX 76104
3501 N. BRd.way,Los Angeles,CA,90031,3501 N. BRd.way Los Angeles CA 90031
PO Box 42095,Los Angeles,CA,90042,PO Box 42095 Los Angeles CA 90042
4000 S. Main St.,Los Angeles,CA,90037,4000 S. Main St. Los Angeles CA 90037
3914 S. Main St.,Los Angeles,CA,90037,3914 S. Main St. Los Angeles CA 90037
1149 S. Hill St. Ste. 600,Los Angeles,CA,90015,1149 S. Hill St. Ste. 600 Los Angeles CA 90015
322 S. Ave. 18,Los Angeles,CA,90031,322 S. Ave. 18 Los Angeles CA 90031
632 N. Ave. 50,Los Angeles,CA,90042,632 N. Ave. 50 Los Angeles CA 90042
2955 Robertson Blvd.,Los Angeles,CA,90034,2955 Robertson Blvd. Los Angeles CA 90034
4211 Oakwood Ave.,Los Angeles,CA,90004,4211 Oakwood Ave. Los Angeles CA 90004
4540 Michigan Ave.,Los Angeles,CA,90022,4540 Michigan Ave. Los Angeles CA 90022
2210 Riverside Dr.,Los Angeles,CA,90039,2210 Riverside Dr. Los Angeles CA 90039
10720 Wilmington Ave.,Los Angeles,CA,90059,10720 Wilmington Ave. Los Angeles CA 90059
131 E. 50th St.,Los Angeles,CA,90011,131 E. 50th St. Los Angeles CA 90011
9719 S. Main St.,Los Angeles,CA,90003,9719 S. Main St. Los Angeles CA 90003
113 S. Rowan Ave.,Los Angeles,CA,90063,113 S. Rowan Ave. Los Angeles CA 90063
644 W. 17th St.,Los Angeles,CA,90015,644 W. 17th St. Los Angeles CA 90015
2023 S. Union Ave.,Los Angeles,CA,90007,2023 S. Union Ave. Los Angeles CA 90007
603 E. 115th St.,Los Angeles,CA,90059,603 E. 115th St. Los Angeles CA 90059
10101 S. BRd.way,Los Angeles,CA,90003,10101 S. BRd.way Los Angeles CA 90003
5886 Compton Ave.,Los Angeles,CA,90001,5886 Compton Ave. Los Angeles CA 90001
2930 Fletcher Dr.,Los Angeles,CA,90065,2930 Fletcher Dr. Los Angeles CA 90065
5151 State Univ Dr.,Los Angeles,CA,90032,5151 State Univ Dr. Los Angeles CA 90032
110 S. Townsend Ave.,Los Angeles,CA,90063,110 S. Townsend Ave. Los Angeles CA 90063
5356 S. Fifth Ave.,Los Angeles,CA,90043,5356 S. Fifth Ave. Los Angeles CA 90043
4610 S. Main St.,Los Angeles,CA,90037,4610 S. Main St. Los Angeles CA 90037
8515 Kansas Ave.,Los Angeles,CA,90044,8515 Kansas Ave. Los Angeles CA 90044
2941 W. 70th St.,Los Angeles,CA,90043,2941 W. 70th St. Los Angeles CA 90043
211 S. Ave. 20,Los Angeles,CA,90031,211 S. Ave. 20 Los Angeles CA 90031
1552 W. Rockwood St.,Los Angeles,CA,90026,1552 W. Rockwood St. Los Angeles CA 90026
2050 N. San Fernando Rd.,Los Angeles,CA,90065,2050 N. San Fernando Rd. Los Angeles CA 90065
2941 W. 70th St.,Los Angeles,CA,90043,2941 W. 70th St. Los Angeles CA 90043
1745 Vineyard Ave.,Los Angeles,CA,90019,1745 Vineyard Ave. Los Angeles CA 90019
832 S. E.man Ave.,Los Angeles,CA,90023,832 S. E.man Ave. Los Angeles CA 90023
3201 W. Eighth St.,Los Angeles,CA,90005,3201 W. Eighth St. Los Angeles CA 90005
701 S. Catalina St.,Los Angeles,CA,90005,701 S. Catalina St. Los Angeles CA 90005
4736 Hntngtn Dr. S.,Los Angeles,CA,90032,4736 Hntngtn Dr. S. Los Angeles CA 90032
2611 W. 52nd St.,Los Angeles,CA,90043,2611 W. 52nd St. Los Angeles CA 90043
1149 S. Hill St. Ste. 600,Los Angeles,CA,90015,1149 S. Hill St. Ste. 600 Los Angeles CA 90015
1149 S. Hill St.,Los Angeles,CA,90015,1149 S. Hill St. Los Angeles CA 90015
1149 S. Hill St. Ste. 600,Los Angeles,CA,90015,1149 S. Hill St. Ste. 600 Los Angeles CA 90015
1149 S. Hill St. Ste. 600,Los Angeles,CA,90015,1149 S. Hill St. Ste. 600 Los Angeles CA 90015
1149 S. Hill St. Ste. 600,Los Angeles,CA,90015,1149 S. Hill St. Ste. 600 Los Angeles CA 90015
1149 S. Hill St.,Los Angeles,CA,90015,1149 S. Hill St. Los Angeles CA 90015
1149 S. Hill St. Ste. 600,Los Angeles,CA,90015,1149 S. Hill St. Ste. 600 Los Angeles CA 90015
1149 S. Hill St. Ste. 600,Los Angeles,CA,90015,1149 S. Hill St. Ste. 600 Los Angeles CA 90015
1149 S. Hill St. Ste. 600,Los Angeles,CA,90015,1149 S. Hill St. Ste. 600 Los Angeles CA 90015
1149 S. Hill St. Ste. 600,Los Angeles,CA,90015,1149 S. Hill St. Ste. 600 Los Angeles CA 90015
1149 S. Hill St. Ste. 600,Los Angeles,CA,90015,1149 S. Hill St. Ste. 600 Los Angeles CA 90015
1149 S. Hill St. Ste. 600,Los Angeles,CA,90015,1149 S. Hill St. Ste. 600 Los Angeles CA 90015
1149 S. Hill St. Ste. 600,Los Angeles,CA,90015,1149 S. Hill St. Ste. 600 Los Angeles CA 90015
1149 S. Hill St. Ste. 600,Los Angeles,CA,90015,1149 S. Hill St. Ste. 600 Los Angeles CA 90015
1149 S. Hill St. Ste. 600,Los Angeles,CA,90015,1149 S. Hill St. Ste. 600 Los Angeles CA 90015
1149 S. Hill St. Ste. 600,Los Angeles,CA,90015,1149 S. Hill St. Ste. 600 Los Angeles CA 90015
1149 S. Hill St. Ste. 600,Los Angeles,CA,90015,1149 S. Hill St. Ste. 600 Los Angeles CA 90015
126 E. Bloom St.,Los Angeles,CA,90012,126 E. Bloom St. Los Angeles CA 90012
6125 Poppy Peak Dr.,Los Angeles,CA,90042,6125 Poppy Peak Dr. Los Angeles CA 90042
1309 N. Wilton Pl. 3rd Fl.,Los Angeles,CA,90028,1309 N. Wilton Pl. 3rd Fl. Los Angeles CA 90028
1118 Aragon Ave.,Los Angeles,CA,90065,1118 Aragon Ave. Los Angeles CA 90065
1717 Seventh Ave.,Los Angeles,CA,90019,1717 Seventh Ave. Los Angeles CA 90019
4805 Sycamore Terr.,Los Angeles,CA,90042,4805 Sycamore Terr. Los Angeles CA 90042
5115 Via Corona St.,Los Angeles,CA,90022,5115 Via Corona St. Los Angeles CA 90022
745 S. KERN AVE.,Los Angeles,CA,90022,745 S. KERN AVE. Los Angeles CA 90022
1447 E. 45th St.,Los Angeles,CA,90011,1447 E. 45th St. Los Angeles CA 90011
3271 Silver Lake Blvd.,Los Angeles,CA,90039,3271 Silver Lake Blvd. Los Angeles CA 90039
4120 11th Ave.,Los Angeles,CA,90008,4120 11th Ave. Los Angeles CA 90008
825 W. 60th St.,Los Angeles,CA,90044,825 W. 60th St. Los Angeles CA 90044
1050 E. 52nd Pl.,Los Angeles,CA,90011,1050 E. 52nd Pl. Los Angeles CA 90011
13940 S. San Pedro St.,Los Angeles,CA,90061,13940 S. San Pedro St. Los Angeles CA 90061
5421 Rodeo Rd.,Los Angeles,CA,90016,5421 Rodeo Rd. Los Angeles CA 90016
13305 S. San Pedro St.,Los Angeles,CA,90061,13305 S. San Pedro St. Los Angeles CA 90061
1700 W. 46th St.,Los Angeles,CA,90062,1700 W. 46th St. Los Angeles CA 90062
3711 Beethoven St.,Los Angeles,CA,90066,3711 Beethoven St. Los Angeles CA 90066
1575 W. 2nd St.,Los Angeles,CA,90026,1575 W. 2nd St. Los Angeles CA 90026
3724 E. First St.,Los Angeles,CA,90063,3724 E. First St. Los Angeles CA 90063
312 N. Record Ave.,Los Angeles,CA,90063,312 N. Record Ave. Los Angeles CA 90063
14024 S. San Pedro St.,Los Angeles,CA,90061,14024 S. San Pedro St. Los Angeles CA 90061
820 N. Ave. 54,Los Angeles,CA,90042,820 N. Ave. 54 Los Angeles CA 90042
1157 S. Berendo St.,Los Angeles,CA,90006,1157 S. Berendo St. Los Angeles CA 90006
1321 Cortez St.,Los Angeles,CA,90026,1321 Cortez St. Los Angeles CA 90026
1771 W. 36th St.,Los Angeles,CA,90018,1771 W. 36th St. Los Angeles CA 90018
544 S. Mathews St.,Los Angeles,CA,90033,544 S. Mathews St. Los Angeles CA 90033
2550 E. 6th St.,Los Angeles,CA,90023,2550 E. 6th St. Los Angeles CA 90023
1511 W. 110th St.,Los Angeles,CA,90047,1511 W. 110th St. Los Angeles CA 90047
2226 E. Third St.,Los Angeles,CA,90033,2226 E. Third St. Los Angeles CA 90033
740 Gretna Green Way,Los Angeles,CA,90049,740 Gretna Green Way Los Angeles CA 90049
9301 S. Hoover St.,Los Angeles,CA,90044,9301 S. Hoover St. Los Angeles CA 90044
605 N. Boyle Ave.,Los Angeles,CA,90033,605 N. Boyle Ave. Los Angeles CA 90033
600 S. La Fayette Park Pl. - Third Fl.,Los Angeles,CA,90057,600 S. La Fayette Park Pl. - Third Fl. Los Angeles CA 90057
1309 Armacost Ave.,Los Angeles,CA,90025,1309 Armacost Ave. Los Angeles CA 90025
4620 Cesar Chavez Ave.,Los Angeles,CA,90022,4620 Cesar Chavez Ave. Los Angeles CA 90022
5024 Buchanan St.,Los Angeles,CA,90042,5024 Buchanan St. Los Angeles CA 90042
5940 S. Budlong Ave.,Los Angeles,CA,90044,5940 S. Budlong Ave. Los Angeles CA 90044
5507 Bushnell Way,Los Angeles,CA,90042,5507 Bushnell Way Los Angeles CA 90042
220 S. Hobart Blvd.,Los Angeles,CA,90004,220 S. Hobart Blvd. Los Angeles CA 90004
1495 Colorado Blvd.,Los Angeles,CA,90041,1495 Colorado Blvd. Los Angeles CA 90041
697 S. Burlington Ave.,Los Angeles,CA,90057,697 S. Burlington Ave. Los Angeles CA 90057
3400 W. 3rd St.,Los Angeles,CA,90020,3400 W. 3rd St. Los Angeles CA 90020
1018 Mohawk St.,Los Angeles,CA,90026,1018 Mohawk St. Los Angeles CA 90026
1723 Cordova St.,Los Angeles,CA,90007,1723 Cordova St. Los Angeles CA 90007
3500 W. Temple St.,Los Angeles,CA,90004,3500 W. Temple St. Los Angeles CA 90004
9233 Airdrome St.,Los Angeles,CA,90035,9233 Airdrome St. Los Angeles CA 90035
3200 W. Washington Blvd.,Los Angeles,CA,90018,3200 W. Washington Blvd. Los Angeles CA 90018
6351 W. Olympic Blvd.,Los Angeles,CA,90048,6351 W. Olympic Blvd. Los Angeles CA 90048
1425 E. 120th St.,Los Angeles,CA,90059,1425 E. 120th St. Los Angeles CA 90059
840 Yale St.,Los Angeles,CA,90012,840 Yale St. Los Angeles CA 90012
9755 Cattaraugus Ave.,Los Angeles,CA,90034,9755 Cattaraugus Ave. Los Angeles CA 90034
PO Box 561752,Los Angeles,CA,90023,PO Box 561752 Los Angeles CA 90023
333 S. Beaudry Ave. 18th Fl.,Los Angeles,CA,90017,333 S. Beaudry Ave. 18th Fl. Los Angeles CA 90017
727 S. Wilson St.,Los Angeles,CA,90021,727 S. Wilson St. Los Angeles CA 90021
4016 S. Central Ave.,Los Angeles,CA,90011,4016 S. Central Ave. Los Angeles CA 90011
221 N. W.moreland Ave.,Los Angeles,CA,90004,221 N. W.moreland Ave. Los Angeles CA 90004
716 E. 14th St.,Los Angeles,CA,90021,716 E. 14th St. Los Angeles CA 90021
5243 Oakland St.,Los Angeles,CA,90032,5243 Oakland St. Los Angeles CA 90032
8511 Compton Ave.,Los Angeles,CA,90001,8511 Compton Ave. Los Angeles CA 90001
225 S. Oxford Ave.,Los Angeles,CA,90004,225 S. Oxford Ave. Los Angeles CA 90004
419 W. 98th St.,Los Angeles,CA,90003,419 W. 98th St. Los Angeles CA 90003
2401 Wilshire Blvd.,Los Angeles,CA,90057,2401 Wilshire Blvd. Los Angeles CA 90057
11133 Charnock Rd.,Los Angeles,CA,90034,11133 Charnock Rd. Los Angeles CA 90034
6017 Franklin Ave.,Los Angeles,CA,90028,6017 Franklin Ave. Los Angeles CA 90028
9200 Cattaraugus Ave.,Los Angeles,CA,90034,9200 Cattaraugus Ave. Los Angeles CA 90034
1314 Dacotah St.,Los Angeles,CA,90023,1314 Dacotah St. Los Angeles CA 90023
2611 S. Orange Dr.,Los Angeles,CA,90016,2611 S. Orange Dr. Los Angeles CA 90016
1316 N. Bronson Ave.,Los Angeles,CA,90028,1316 N. Bronson Ave. Los Angeles CA 90028
11561 Gateway Blvd.,Los Angeles,CA,90064,11561 Gateway Blvd. Los Angeles CA 90064
110 N. Coronado St.,Los Angeles,CA,90026,110 N. Coronado St. Los Angeles CA 90026
4001 Venice Blvd.,Los Angeles,CA,90019,4001 Venice Blvd. Los Angeles CA 90019
221 S. E.man Ave.,Los Angeles,CA,90063,221 S. E.man Ave. Los Angeles CA 90063
4350 City Terrace Dr.,Los Angeles,CA,90063,4350 City Terrace Dr. Los Angeles CA 90063
2150 Duane St.,Los Angeles,CA,90039,2150 Duane St. Los Angeles CA 90039
11020 Clover Ave.,Los Angeles,CA,90034,11020 Clover Ave. Los Angeles CA 90034
4400 Coliseum St.,Los Angeles,CA,90016,4400 Coliseum St. Los Angeles CA 90016
725 S. INDIANA ST.,Los Angeles,CA,90023,725 S. INDIANA ST. Los Angeles CA 90023
215 S. Commonwealth Ave.,Los Angeles,CA,90004,215 S. Commonwealth Ave. Los Angeles CA 90004
6100 S. Central Ave.,Los Angeles,CA,90001,6100 S. Central Ave. Los Angeles CA 90001
11301 Bellagio Rd.,Los Angeles,CA,90049,11301 Bellagio Rd. Los Angeles CA 90049
1515 E. 104th St.,Los Angeles,CA,90002,1515 E. 104th St. Los Angeles CA 90002
322 Lucas Ave.,Los Angeles,CA,90017,322 Lucas Ave. Los Angeles CA 90017
322 S. Lucas Ave.,Los Angeles,CA,90017,322 S. Lucas Ave. Los Angeles CA 90017
322 Lucas Ave.,Los Angeles,CA,90017,322 Lucas Ave. Los Angeles CA 90017
7615 Cowan Ave.,Los Angeles,CA,90045,7615 Cowan Ave. Los Angeles CA 90045
5010 11th Ave.,Los Angeles,CA,90043,5010 11th Ave. Los Angeles CA 90043
1661 S. Crescent Heights,Los Angeles,CA,90035,1661 S. Crescent Heights Los Angeles CA 90035
6103 Crenshaw Blvd.,Los Angeles,CA,90043,6103 Crenshaw Blvd. Los Angeles CA 90043
3200 W. Adams Blvd.,Los Angeles,CA,90018,3200 W. Adams Blvd. Los Angeles CA 90018
5063 Floristan Ave.,Los Angeles,CA,90041,5063 Floristan Ave. Los Angeles CA 90041
11330 W. Graham Pl.,Los Angeles,CA,90064,11330 W. Graham Pl. Los Angeles CA 90064
8621 S. Baring Cross St.,Los Angeles,CA,90044,8621 S. Baring Cross St. Los Angeles CA 90044
607 N. W.moreland Ave.,Los Angeles,CA,90004,607 N. W.moreland Ave. Los Angeles CA 90004
4168 W. Ave. 42,Los Angeles,CA,90065,4168 W. Ave. 42 Los Angeles CA 90065
6100 S. Central Ave.,Los Angeles,CA,90001,6100 S. Central Ave. Los Angeles CA 90001
260 E. 31st St.,Los Angeles,CA,90011,260 E. 31st St. Los Angeles CA 90011
10601 S. Grandee Ave.,Los Angeles,CA,90002,10601 S. Grandee Ave. Los Angeles CA 90002
2225 Dorris Pl.,Los Angeles,CA,90031,2225 Dorris Pl. Los Angeles CA 90031
1081 W. Temple St.,Los Angeles,CA,90012,1081 W. Temple St. Los Angeles CA 90012
950 W. Washington Blvd.,Los Angeles,CA,90015,950 W. Washington Blvd. Los Angeles CA 90015
1017 W. 47th St.,Los Angeles,CA,90037,1017 W. 47th St. Los Angeles CA 90037
1420 E. Adams Blvd.,Los Angeles,CA,90011,1420 E. Adams Blvd. Los Angeles CA 90011
1321 E. 61st St.,Los Angeles,CA,90001,1321 E. 61st St. Los Angeles CA 90001
300 E. 53rd St.,Los Angeles,CA,90011,300 E. 53rd St. Los Angeles CA 90011
8919 S. Main St.,Los Angeles,CA,90003,8919 S. Main St. Los Angeles CA 90003
3600 Council St.,Los Angeles,CA,90004,3600 Council St. Los Angeles CA 90004
3737 S. Figueroa St.,Los Angeles,CA,90007,3737 S. Figueroa St. Los Angeles CA 90007
4211 Dozier St.,Los Angeles,CA,90063,4211 Dozier St. Los Angeles CA 90063
2057 Fair Park Ave.,Los Angeles,CA,90041,2057 Fair Park Ave. Los Angeles CA 90041
1750 Yosemite Dr.,Los Angeles,CA,90041,1750 Yosemite Dr. Los Angeles CA 90041
400 W. Washington Blvd.,Los Angeles,CA,90015,400 W. Washington Blvd. Los Angeles CA 90015
4112 E. Olympic Blvd.,Los Angeles,CA,90023,4112 E. Olympic Blvd. Los Angeles CA 90023
350 S. FIGUEROA ST. STE. 100,Los Angeles,CA,90071,350 S. FIGUEROA ST. STE. 100 Los Angeles CA 90071
3825 N. MISSION RD.,Los Angeles,CA,90031,3825 N. MISSION RD. Los Angeles CA 90031
319 N. Humphreys Ave.,Los Angeles,CA,90022,319 N. Humphreys Ave. Los Angeles CA 90022
700 Wilshire Blvd. Ste. 400,Los Angeles,CA,90017,700 Wilshire Blvd. Ste. 400 Los Angeles CA 90017
3939 S. Vermont Ave.,Los Angeles,CA,90071,3939 S. Vermont Ave. Los Angeles CA 90071
1200 W. Colton St.,Los Angeles,CA,90026,1200 W. Colton St. Los Angeles CA 90026
1650 E. 104th St.,Los Angeles,CA,90002,1650 E. 104th St. Los Angeles CA 90002
2635 PASADENA AVE.,LOS ANGELES,CA,90031,2635 PASADENA AVE. LOS ANGELES CA 90031
3838 Rosemead Ave.,Los Angeles,CA,90032,3838 Rosemead Ave. Los Angeles CA 90032
2839 N. E.ern Ave.,Los Angeles,CA,90032,2839 N. E.ern Ave. Los Angeles CA 90032
1541 W. 110th St.,Los Angeles,CA,90047,1541 W. 110th St. Los Angeles CA 90047
1562 Baxter St.,Los Angeles,CA,90026,1562 Baxter St. Los Angeles CA 90026
1650 Selby Ave.,Los Angeles,CA,90024,1650 Selby Ave. Los Angeles CA 90024
4211 Dozier St.,Los Angeles,CA,90063,4211 Dozier St. Los Angeles CA 90063
2723 W. 8th St.,Los Angeles,CA,90005,2723 W. 8th St. Los Angeles CA 90005
1050 Beacon Ave.,Los Angeles,CA,90015,1050 Beacon Ave. Los Angeles CA 90015
2501 W. 7th St.,Los Angeles,CA,90057,2501 W. 7th St. Los Angeles CA 90057
1050 Beacon Ave.,Los Angeles,CA,90015,1050 Beacon Ave. Los Angeles CA 90015
1700 W. PICO BLVD.,Los Angeles,CA,90015,1700 W. PICO BLVD. Los Angeles CA 90015
1700 W. Pico Blvd.,Los Angeles,CA,90015,1700 W. Pico Blvd. Los Angeles CA 90015
680 Little St.,Los Angeles,CA,90017,680 Little St. Los Angeles CA 90017
4211 Dozier St.,Los Angeles,CA,90063,4211 Dozier St. Los Angeles CA 90063
120 E. 57th St.,Los Angeles,CA,90011,120 E. 57th St. Los Angeles CA 90011
806 Euclid Ave.,Los Angeles,CA,90023,806 Euclid Ave. Los Angeles CA 90023
680 Wilshire Pl. #315,Los Angeles,CA,90005,680 Wilshire Pl. #315 Los Angeles CA 90005
2730 Ganahl St.,Los Angeles,CA,90033,2730 Ganahl St. Los Angeles CA 90033
2226 E. Third St.,Los Angeles,CA,90033,2226 E. Third St. Los Angeles CA 90033
3626 E. 5th St. 2nd Fl.,Los Angeles,CA,90063,3626 E. 5th St. 2nd Fl. Los Angeles CA 90063
1403 Fairburn Ave.,Los Angeles,CA,90024,1403 Fairburn Ave. Los Angeles CA 90024
7850 Melrose Ave.,Los Angeles,CA,90046,7850 Melrose Ave. Los Angeles CA 90046
2660 Ruth Swiggett Dr.,Los Angeles,CA,90032,2660 Ruth Swiggett Dr. Los Angeles CA 90032
1200 Plaza Del Sol,Los Angeles,CA,90033,1200 Plaza Del Sol Los Angeles CA 90033
5501 S. Eileen Ave.,Los Angeles,CA,90043,5501 S. Eileen Ave. Los Angeles CA 90043
5939 Second Ave.,Los Angeles,CA,90043,5939 Second Ave. Los Angeles CA 90043
816 W. 51st St.,Los Angeles,CA,90037,816 W. 51st St. Los Angeles CA 90037
510 W. 111th St.,Los Angeles,CA,90044,510 W. 111th St. Los Angeles CA 90044
2820 E. First St.,Los Angeles,CA,90033,2820 E. First St. Los Angeles CA 90033
3350 Fletcher Dr.,Los Angeles,CA,90065,3350 Fletcher Dr. Los Angeles CA 90065
7211 Bell Ave.,Los Angeles,CA,90001,7211 Bell Ave. Los Angeles CA 90001
1963 E. 103rd St.,Los Angeles,CA,90002,1963 E. 103rd St. Los Angeles CA 90002
3311 N. Figueroa St.,Los Angeles,CA,90065,3311 N. Figueroa St. Los Angeles CA 90065
1112 S. Ford Blvd.,Los Angeles,CA,90022,1112 S. Ford Blvd. Los Angeles CA 90022
750 E. 49th St.,Los Angeles,CA,90011,750 E. 49th St. Los Angeles CA 90011
4231 Fourth Ave.,Los Angeles,CA,90008,4231 Fourth Ave. Los Angeles CA 90008
3751 S. Harvard Blvd.,Los Angeles,CA,90018,3751 S. Harvard Blvd. Los Angeles CA 90018
420 S. Amalia Ave.,Los Angeles,CA,90022,420 S. Amalia Ave. Los Angeles CA 90022
469 Amalia Ave.,Los Angeles,CA,90022,469 Amalia Ave. Los Angeles CA 90022
1200 N. Cornwell St.,Los Angeles,CA,90033,1200 N. Cornwell St. Los Angeles CA 90033
100 N. New Hampshire Ave.,Los Angeles,CA,90004,100 N. New Hampshire Ave. Los Angeles CA 90004
1910 N. Commonwealth Ave.,Los Angeles,CA,90027,1910 N. Commonwealth Ave. Los Angeles CA 90027
1924 S. Los Angeles St.,Los Angeles,CA,90011,1924 S. Los Angeles St. Los Angeles CA 90011
1435 Logan St.,Los Angeles,CA,90026,1435 Logan St. Los Angeles CA 90026
3736 Trinity St.,Los Angeles,CA,90011,3736 Trinity St. Los Angeles CA 90011
7450 Hawthorn Ave.,Los Angeles,CA,90046,7450 Hawthorn Ave. Los Angeles CA 90046
317 N. Ave. 62,Los Angeles,CA,90042,317 N. Ave. 62 Los Angeles CA 90042
2750 E. Hostetter St.,Los Angeles,CA,90023,2750 E. Hostetter St. Los Angeles CA 90023
3333 Manitou Ave.,Los Angeles,CA,90031,3333 Manitou Ave. Los Angeles CA 90031
4410 McKinley Ave.,Los Angeles,CA,90011,4410 McKinley Ave. Los Angeles CA 90011
10860 S. Denker Ave.,Los Angeles,CA,90047,10860 S. Denker Ave. Los Angeles CA 90047
929 W. 69th St.,Los Angeles,CA,90044,929 W. 69th St. Los Angeles CA 90044
612 W. 68th St.,Los Angeles,CA,90044,612 W. 68th St. Los Angeles CA 90044
1067 W. Blvd.,Los Angeles,CA,90019,1067 W. Blvd. Los Angeles CA 90019
2211 W. Ave. 30,Los Angeles,CA,90065,2211 W. Ave. 30 Los Angeles CA 90065
3410 Sierra St.,Los Angeles,CA,90031,3410 Sierra St. Los Angeles CA 90031
3955 Glenfeliz Blvd.,Los Angeles,CA,90039,3955 Glenfeliz Blvd. Los Angeles CA 90039
4141 S. Figueroa St.,Los Angeles,CA,90037,4141 S. Figueroa St. Los Angeles CA 90037
1717 Seventh Ave.,Los Angeles,CA,90019,1717 Seventh Ave. Los Angeles CA 90019
12500 Braddock Dr.,Los Angeles,CA,90066,12500 Braddock Dr. Los Angeles CA 90066
8407 S. Fir Ave.,Los Angeles,CA,90001,8407 S. Fir Ave. Los Angeles CA 90001
3951 Grand View Blvd.,Los Angeles,CA,90066,3951 Grand View Blvd. Los Angeles CA 90066
1530 N. Wilton Pl.,Los Angeles,CA,90028,1530 N. Wilton Pl. Los Angeles CA 90028
1940 E. 111th St.,Los Angeles,CA,90059,1940 E. 111th St. Los Angeles CA 90059
309 Lucas Ave.,Los Angeles,CA,90017,309 Lucas Ave. Los Angeles CA 90017
2025 Griffin Ave.,Los Angeles,CA,90031,2025 Griffin Ave. Los Angeles CA 90031
4765 E. Fourth St.,Los Angeles,CA,90022,4765 E. Fourth St. Los Angeles CA 90022
408 S. Fairfax Ave.,Los Angeles,CA,90036,408 S. Fairfax Ave. Los Angeles CA 90036
899 E. 42nd St.,Los Angeles,CA,90011,899 E. 42nd St. Los Angeles CA 90011
611 S. Carondelet St.,Los Angeles,CA,90057,611 S. Carondelet St. Los Angeles CA 90057
1575 W. Second St.,Los Angeles,CA,90026,1575 W. Second St. Los Angeles CA 90026
3529 City Terrace Dr.,Los Angeles,CA,90063,3529 City Terrace Dr. Los Angeles CA 90063
330 N. Harvard Blvd.,Los Angeles,CA,90004,330 N. Harvard Blvd. Los Angeles CA 90004
928 N. Ave. 53,Los Angeles,CA,90042,928 N. Ave. 53 Los Angeles CA 90042
319 N. Humphreys Ave.,Los Angeles,CA,90022,319 N. Humphreys Ave. Los Angeles CA 90022
4041 Hillcrest Dr.,Los Angeles,CA,90008,4041 Hillcrest Dr. Los Angeles CA 90008
120 E. Ave. 35,Los Angeles,CA,90031,120 E. Ave. 35 Los Angeles CA 90031
980 S. Hobart Blvd.,Los Angeles,CA,90006,980 S. Hobart Blvd. Los Angeles CA 90006
2510 E. Sixth St.,Los Angeles,CA,90023,2510 E. Sixth St. Los Angeles CA 90023
1115 Tamarind Ave.,Los Angeles,CA,90038,1115 Tamarind Ave. Los Angeles CA 90038
1521 N. Highland Ave.,Los Angeles,CA,90028,1521 N. Highland Ave. Los Angeles CA 90028
5108 Holmes Ave.,Los Angeles,CA,90058,5108 Holmes Ave. Los Angeles CA 90058
1225 E. 52nd St.,Los Angeles,CA,90011,1225 E. 52nd St. Los Angeles CA 90011
1280 E. 52nd St.,Los Angeles,CA,90011,1280 E. 52nd St. Los Angeles CA 90011
2726 Francis Ave.,Los Angeles,CA,90005,2726 Francis Ave. Los Angeles CA 90005
7001 S. Saint Andrews Pl.,Los Angeles,CA,90047,7001 S. Saint Andrews Pl. Los Angeles CA 90047
929 N. Las Palmas Ave.,Los Angeles,CA,90038,929 N. Las Palmas Ave. Los Angeles CA 90038
4211 Dozier St.,Los Angeles,CA,90063,4211 Dozier St. Los Angeles CA 90063
500 S. Humphreys Ave.,Los Angeles,CA,90022,500 S. Humphreys Ave. Los Angeles CA 90022
4435 N. Hntngtn Dr.,Los Angeles,CA,90032,4435 N. Hntngtn Dr. Los Angeles CA 90032
3855 W. Slauson Ave.,Los Angeles,CA,90037,3855 W. Slauson Ave. Los Angeles CA 90037
3855 W. Slauson Ave.,Los Angeles,CA,90043,3855 W. Slauson Ave. Los Angeles CA 90043
3855 W. Slauson Ave.,Los Angeles,CA,90043,3855 W. Slauson Ave. Los Angeles CA 90043
3855 W. Slauson Ave.,Los Angeles,CA,90043,3855 W. Slauson Ave. Los Angeles CA 90043
3855 W. Slauson Ave.,Los Angeles,CA,90043,3855 W. Slauson Ave. Los Angeles CA 90043
3855 W. Slauson Ave.,Los Angeles,CA,90043,3855 W. Slauson Ave. Los Angeles CA 90043
13305 S. San Pedro St.,Los Angeles,CA,90061,13305 S. San Pedro St. Los Angeles CA 90061
9920 COMPTON AVE.,Los Angeles,CA,90002,9920 COMPTON AVE. Los Angeles CA 90002
3580 Wilshire Blvd.,Los Angeles,CA,90010,3580 Wilshire Blvd. Los Angeles CA 90010
3580 Wilshire Blvd. Ste. 1130,Los Angeles,CA,90010,3580 Wilshire Blvd. Ste. 1130 Los Angeles CA 90010
3580 Wilshire Blvd.,Los Angeles,CA,90010,3580 Wilshire Blvd. Los Angeles CA 90010
3580 Wilshire Blvd. Ste. 1130,Los Angeles,CA,90010,3580 Wilshire Blvd. Ste. 1130 Los Angeles CA 90010
3580 Wilshire Blvd. Ste. 1130,Los Angeles,CA,90010,3580 Wilshire Blvd. Ste. 1130 Los Angeles CA 90010
3580 Wilshire Blvd. Ste. 1130,Los Angeles,CA,90010,3580 Wilshire Blvd. Ste. 1130 Los Angeles CA 90010
2828 Herkimer St.,Los Angeles,CA,90039,2828 Herkimer St. Los Angeles CA 90039
5101 E. Sixth St.,Los Angeles,CA,90022,5101 E. Sixth St. Los Angeles CA 90022
3960 Centinela Ave.,Los Angeles,CA,90066,3960 Centinela Ave. Los Angeles CA 90066
1400 S BRd.way Los Angeles CA 90015,Los Angeles,CA,90015,1400 S BRd.way Los Angeles CA 90015 Los Angeles CA 90015
151 W. 30th St.,Los Angeles,CA,90007,151 W. 30th St. Los Angeles CA 90007
600 S. McCadden Pl.,Los Angeles,CA,90005,600 S. McCadden Pl. Los Angeles CA 90005
7676 S. San Pedro St.,Los Angeles,CA,90003,7676 S. San Pedro St. Los Angeles CA 90003
650 S. Union Ave.,Los Angeles,CA,90017,650 S. Union Ave. Los Angeles CA 90017
7840 Towne Ave.,Los Angeles,CA,90003,7840 Towne Ave. Los Angeles CA 90003
3939 Tracy St.,Los Angeles,CA,90027,3939 Tracy St. Los Angeles CA 90027
5929 S. Vermont Ave.,Los Angeles,CA,90044,5929 S. Vermont Ave. Los Angeles CA 90044
3020 S. Catalina St.,Los Angeles,CA,90007,3020 S. Catalina St. Los Angeles CA 90007
4066 W. Johnnie Cochran Vista,Los Angeles,CA,90019,4066 W. Johnnie Cochran Vista Los Angeles CA 90019
2265 E. 103rd St.,Los Angeles,CA,90002,2265 E. 103rd St. Los Angeles CA 90002
630 S. Leonard St.,Los Angeles,CA,90022,630 S. Leonard St. Los Angeles CA 90022
2302 S. Gramercy Pl.,Los Angeles,CA,90018,2302 S. Gramercy Pl. Los Angeles CA 90018
1536 E. 89th St.,Los Angeles,CA,90002,1536 E. 89th St. Los Angeles CA 90002
8701 Parkhill Dr.,Los Angeles,CA,90045,8701 Parkhill Dr. Los Angeles CA 90045
645 N. Kenter Ave.,Los Angeles,CA,90049,645 N. Kenter Ave. Los Angeles CA 90049
8401 Emerson Ave.,Los Angeles,CA,90045,8401 Emerson Ave. Los Angeles CA 90045
1601 E. 120th St.,Los Angeles,CA,90059,1601 E. 120th St. Los Angeles CA 90059
5200 W. Virginia Ave.,Los Angeles,CA,90029,5200 W. Virginia Ave. Los Angeles CA 90029
4240 E. Olympic Blvd.,Los Angeles,CA,90023,4240 E. Olympic Blvd. Los Angeles CA 90023
8500 S. Figueroa St.,Los Angeles,CA,90003,8500 S. Figueroa St. Los Angeles CA 90003
13305 S. San Pedro St.,Los Angeles,CA,90061,13305 S. San Pedro St. Los Angeles CA 90061
8466 S. Figueroa St.,Los Angeles,CA,90003,8466 S. Figueroa St. Los Angeles CA 90003
1263 S. Soto St.,Los Angeles,CA,90023,1263 S. Soto St. Los Angeles CA 90023
9110 S. Central Ave.,Los Angeles,CA,90002,9110 S. Central Ave. Los Angeles CA 90002
4800 E. Cesar Chavez Ave.,Los Angeles,CA,90022,4800 E. Cesar Chavez Ave. Los Angeles CA 90022
2810 Whittier Blvd.,Los Angeles,CA,90023,2810 Whittier Blvd. Los Angeles CA 90023
1999 E. 102nd St.,Los Angeles,CA,90002,1999 E. 102nd St. Los Angeles CA 90002
3601 E. First St.,Los Angeles,CA,90063,3601 E. First St. Los Angeles CA 90063
207 S. Dacotah St.,Los Angeles,CA,90063,207 S. Dacotah St. Los Angeles CA 90063
3601 E. First St.,Los Angeles,CA,90062,3601 E. First St. Los Angeles CA 90062
668 Atlantic Blvd.,Los Angeles,CA,90022,668 Atlantic Blvd. Los Angeles CA 90022
1729 W. MLK Jr. Blvd.,Los Angeles,CA,90062,1729 W. MLK Jr. Blvd. Los Angeles CA 90062
4800 E. Cesar Chavez Ave.,Los Angeles,CA,90022,4800 E. Cesar Chavez Ave. Los Angeles CA 90022
4410 S. Budlong Ave.,Los Angeles,CA,90037,4410 S. Budlong Ave. Los Angeles CA 90037
5151 State Univ Dr.,Los Angeles,CA,90032,5151 State Univ Dr. Los Angeles CA 90032
8715 La Salle Ave.,Los Angeles,CA,90047,8715 La Salle Ave. Los Angeles CA 90047
310 S. La Fayette Park Pl.,Los Angeles,CA,90057,310 S. La Fayette Park Pl. Los Angeles CA 90057
135 N. Lake St.,Los Angeles,CA,90026,135 N. Lake St. Los Angeles CA 90026
444 N. Larchmont Blvd. Ste 207,Los Angeles,CA,90004,444 N. Larchmont Blvd. Ste 207 Los Angeles CA 90004
7119 W. Sunset Blvd. Ste. 420,Los Angeles,CA,90046,7119 W. Sunset Blvd. Ste. 420 Los Angeles CA 90046
7119 W. Sunset Blvd.,Los Angeles,CA,90046,7119 W. Sunset Blvd. Los Angeles CA 90046
4312 Berenice Ave.,Los Angeles,CA,90031,4312 Berenice Ave. Los Angeles CA 90031
925 N. Hayworth Ave.,Los Angeles,CA,90046,925 N. Hayworth Ave. Los Angeles CA 90046
10736 Jefferson Blvd. Ste. 119,Los Angeles,CA,90230,10736 Jefferson Blvd. Ste. 119 Los Angeles CA 90230
1260 W. 36th Pl.,Los Angeles,CA,90007,1260 W. 36th Pl. Los Angeles CA 90007
2481 W. 11th St.,Los Angeles,CA,90006,2481 W. 11th St. Los Angeles CA 90006
4564 W. Lexington Ave.,Los Angeles,CA,90029,4564 W. Lexington Ave. Los Angeles CA 90029
5101 W.ern Ave.,Los Angeles,CA,90062,5101 W.ern Ave. Los Angeles CA 90062
5909 Lillian St.,Los Angeles,CA,90001,5909 Lillian St. Los Angeles CA 90001
4345 Lockwood Ave.,Los Angeles,CA,90029,4345 Lockwood Ave. Los Angeles CA 90029
1711 W. Montana St.,Los Angeles,CA,90026,1711 W. Montana St. Los Angeles CA 90026
830 W. 77th St.,Los Angeles,CA,90044,830 W. 77th St. Los Angeles CA 90044
1015 S. Lorena St.,Los Angeles,CA,90023,1015 S. Lorena St. Los Angeles CA 90023
3408 Arroyo Seco Ave.,Los Angeles,CA,90065,3408 Arroyo Seco Ave. Los Angeles CA 90065
644 E. 56th St.,Los Angeles,CA,90011,644 E. 56th St. Los Angeles CA 90011
PO Box 26750,Los Angeles,CA,90026,PO Box 26750 Los Angeles CA 90026
5931 W. 18th St.,Los Angeles,CA,90035,5931 W. 18th St. Los Angeles CA 90035
625 Coleman Ave.,Los Angeles,CA,90042,625 Coleman Ave. Los Angeles CA 90042
1211 S. Hobart Blvd.,Los Angeles,CA,90006,1211 S. Hobart Blvd. Los Angeles CA 90006
701 S. Catalina St.,Los Angeles,CA,90005,701 S. Catalina St. Los Angeles CA 90005
234 E. Ave. 33,Los Angeles,CA,90031,234 E. Ave. 33 Los Angeles CA 90031
2670 Griffin Ave.,Los Angeles,CA,90031,2670 Griffin Ave. Los Angeles CA 90031
4650 W. Olympic Blvd.,Los Angeles,CA,90019,4650 W. Olympic Blvd. Los Angeles CA 90019
333 S. Beaudry Ave.,Los Angeles,CA,90017,333 S. Beaudry Ave. Los Angeles CA 90017
2709 MEDIA CENTER DR.,Los Angeles,CA,90065,2709 MEDIA CENTER DR. Los Angeles CA 90065
2709 MEDIA CENTER DR.,Los Angeles,CA,90065,2709 MEDIA CENTER DR. Los Angeles CA 90065
1740 N. New Hampshire Ave.,Los Angeles,CA,90027,1740 N. New Hampshire Ave. Los Angeles CA 90027
1630 E. 111th St.,Los Angeles,CA,90059,1630 E. 111th St. Los Angeles CA 90059
8821 Villanova Ave.,Los Angeles,CA,90045,8821 Villanova Ave. Los Angeles CA 90045
6460 N. Figueroa St.,Los Angeles,CA,90042,6460 N. Figueroa St. Los Angeles CA 90042
2300 W. Seventh St.,Los Angeles,CA,90057,2300 W. Seventh St. Los Angeles CA 90057
1626 S. Orchard Ave.,Los Angeles,CA,90006,1626 S. Orchard Ave. Los Angeles CA 90006
11330 W. Graham Pl. B-9,Los Angeles,CA,90064,11330 W. Graham Pl. B-9 Los Angeles CA 90064
1512 Arlington Ave.,Los Angeles,CA,90019,1512 Arlington Ave. Los Angeles CA 90019
129 E. 53rd St.,Los Angeles,CA,90011,129 E. 53rd St. Los Angeles CA 90011
3200 E. Malabar St.,Los Angeles,CA,90063,3200 E. Malabar St. Los Angeles CA 90063
661 W. 87th St.,Los Angeles,CA,90044,661 W. 87th St. Los Angeles CA 90044
1850 W. 96th St.,Los Angeles,CA,90047,1850 W. 96th St. Los Angeles CA 90047
4131 S. Vermont Ave.,Los Angeles,CA,90037,4131 S. Vermont Ave. Los Angeles CA 90037
3601 S. Maple Ave.,Los Angeles,CA,90011,3601 S. Maple Ave. Los Angeles CA 90011
3330 Granville Ave.,Los Angeles,CA,90066,3330 Granville Ave. Los Angeles CA 90066
4410 Orchard Ave.,Los Angeles,CA,90037,4410 Orchard Ave. Los Angeles CA 90037
4215 E. Gleason St.,Los Angeles,CA,90063,4215 E. Gleason St. Los Angeles CA 90063
12500 Braddock Dr.,Los Angeles,CA,90066,12500 Braddock Dr. Los Angeles CA 90066
987 S. Mariposa Ave.,Los Angeles,CA,90006,987 S. Mariposa Ave. Los Angeles CA 90006
2224 Walgrove Ave.,Los Angeles,CA,90066,2224 Walgrove Ave. Los Angeles CA 90066
4000 Santo Tomas Dr.,Los Angeles,CA,90008,4000 Santo Tomas Dr. Los Angeles CA 90008
3989 S. Hobart Blvd.,Los Angeles,CA,90062,3989 S. Hobart Blvd. Los Angeles CA 90062
2411 Marvin Ave.,Los Angeles,CA,90016,2411 Marvin Ave. Los Angeles CA 90016
155 W. 69th St.,Los Angeles,CA,90003,155 W. 69th St. Los Angeles CA 90003
3200 W. Adams Blvd.,Los Angeles,CA,90018,3200 W. Adams Blvd. Los Angeles CA 90018
456 S. Mathews St.,Los Angeles,CA,90033,456 S. Mathews St. Los Angeles CA 90033
1010 E. 34th St.,Los Angeles,CA,90011,1010 E. 34th St. Los Angeles CA 90011
2414 Mayberry St.,Los Angeles,CA,90026,2414 Mayberry St. Los Angeles CA 90026
7812 McKinley Ave.,Los Angeles,CA,90001,7812 McKinley Ave. Los Angeles CA 90001
731 N. Detroit St.,Los Angeles,CA,90046,731 N. Detroit St. Los Angeles CA 90046
4156 Menlo Ave.,Los Angeles,CA,90037,4156 Menlo Ave. Los Angeles CA 90037
8800 S. San Pedro St.,Los Angeles,CA,90003,8800 S. San Pedro St. Los Angeles CA 90003
727 S. Wilson St.,Los Angeles,CA,90021,727 S. Wilson St. Los Angeles CA 90021
1511 Micheltorena St.,Los Angeles,CA,90026,1511 Micheltorena St. Los Angeles CA 90026
3150 W. Adams Blvd.,Los Angeles,CA,90018,3150 W. Adams Blvd. Los Angeles CA 90018
1600 IMPERIAL HWY BLDG. 16,Los Angeles,CA,90047,1600 IMPERIAL HWY BLDG. 16 Los Angeles CA 90047
1400 E. 68th St.,Los Angeles,CA,90001,1400 E. 68th St. Los Angeles CA 90001
2670 W. 11TH ST.,Los Angeles,CA,90035,2670 W. 11TH ST. Los Angeles CA 90035
5423 Monte Vista St.,Los Angeles,CA,90042,5423 Monte Vista St. Los Angeles CA 90042
6300 N.side Dr.,Los Angeles,CA,90022,6300 N.side Dr. Los Angeles CA 90022
466 S. Fraser St.,Los Angeles,CA,90022,466 S. Fraser St. Los Angeles CA 90022
4865 E. First St.,Los Angeles,CA,90022,4865 E. First St. Los Angeles CA 90022
3981 San Rafael Ave.,Los Angeles,CA,90065,3981 San Rafael Ave. Los Angeles CA 90065
2101 N. Indiana Ave.,Los Angeles,CA,90032,2101 N. Indiana Ave. Los Angeles CA 90032
1501 Murchison St.,Los Angeles,CA,90033,1501 Murchison St. Los Angeles CA 90033
379 S. Loma Ave.,Los Angeles,CA,90017,379 S. Loma Ave. Los Angeles CA 90017
1319 E. 41st St.,Los Angeles,CA,90011,1319 E. 41st St. Los Angeles CA 90011
1569 E. 32nd St.,Los Angeles,CA,90011,1569 E. 32nd St. Los Angeles CA 90011
2303 S. Figueroa Way,Los Angeles,CA,90007,2303 S. Figueroa Way Los Angeles CA 90007
12714 S. Avalon Blvd.,Los Angeles,CA,90061,12714 S. Avalon Blvd. Los Angeles CA 90061
2202 W. MLK Jr Blvd.,Los Angeles,CA,90008,2202 W. MLK Jr Blvd. Los Angeles CA 90008
1919 S. Burnside Ave.,Los Angeles,CA,90016,1919 S. Burnside Ave. Los Angeles CA 90016
5421 Obama Rd.,Los Angeles,CA,90016,5421 Obama Rd. Los Angeles CA 90016
3201 W. Eighth St.,Los Angeles,CA,90010,3201 W. Eighth St. Los Angeles CA 90010
147 N. Occidental Blvd.,Los Angeles,CA,90026,147 N. Occidental Blvd. Los Angeles CA 90026
1905 Armacost Ave.,Los Angeles,CA,90025,1905 Armacost Ave. Los Angeles CA 90025
1109 W. 96th St.,Los Angeles,CA,90044,1109 W. 96th St. Los Angeles CA 90044
9900 S. Wadsworth Ave.,Los Angeles,CA,90002,9900 S. Wadsworth Ave. Los Angeles CA 90002
9211 Grape St.,Los Angeles,CA,90002,9211 Grape St. Los Angeles CA 90002
1471 E. 96th St.,Los Angeles,CA,90002,1471 E. 96th St. Los Angeles CA 90002
330 E. 93rd St.,Los Angeles,CA,90003,330 E. 93rd St. Los Angeles CA 90003
835 St.anford Ave.,Los Angeles,CA,90021,835 St.anford Ave. Los Angeles CA 90021
1730 Corinth Ave.,Los Angeles,CA,90025,1730 Corinth Ave. Los Angeles CA 90025
4505 S. Raymond Ave.,Los Angeles,CA,90037,4505 S. Raymond Ave. Los Angeles CA 90037
2020 Oak St.,Los Angeles,CA,90007,2020 Oak St. Los Angeles CA 90007
12870 Panama St.,Los Angeles,CA,90066,12870 Panama St. Los Angeles CA 90066
950 S. Albany St.,Los Angeles,CA,90015,950 S. Albany St. Los Angeles CA 90015
144 E. 118th St.,Los Angeles,CA,90061,144 E. 118th St. Los Angeles CA 90061
10915 S. McKinley Ave.,Los Angeles,CA,90059,10915 S. McKinley Ave. Los Angeles CA 90059
147 E. 107th St.,Los Angeles,CA,90003,147 E. 107th St. Los Angeles CA 90003
11610 Stanford Ave.,Los Angeles,CA,90059,11610 Stanford Ave. Los Angeles CA 90059
1265 E. 112th St.,Los Angeles,CA,90059,1265 E. 112th St. Los Angeles CA 90059
405 E. 122nd St.,Los Angeles,CA,90061,405 E. 122nd St. Los Angeles CA 90061
5540 W. 77th St.,Los Angeles,CA,90045,5540 W. 77th St. Los Angeles CA 90045
300 W. 23rd St.,Los Angeles,CA,90007,300 W. 23rd St. Los Angeles CA 90007
6550 W. 80th St.,Los Angeles,CA,90045,6550 W. 80th St. Los Angeles CA 90045
1149 S. Hill St. Ste. 600,Los Angeles,CA,90015,1149 S. Hill St. Ste. 600 Los Angeles CA 90015
10650 Ashby Ave.,Los Angeles,CA,90064,10650 Ashby Ave. Los Angeles CA 90064
3520 Motor Ave.,Los Angeles,CA,90034,3520 Motor Ave. Los Angeles CA 90034
10860 Woodbine St.,Los Angeles,CA,90034,10860 Woodbine St. Los Angeles CA 90034
474 S. Hartford Ave.,Los Angeles,CA,90017,474 S. Hartford Ave. Los Angeles CA 90017
1617 E. Seventh St.,Los Angeles,CA,90021,1617 E. Seventh St. Los Angeles CA 90021
835 Stanford Ave.,Los Angeles,CA,90021,835 Stanford Ave. Los Angeles CA 90021
1338 E. 76th Pl.,Los Angeles,CA,90001,1338 E. 76th Pl. Los Angeles CA 90001
1450 Allenford Ave.,Los Angeles,CA,90049,1450 Allenford Ave. Los Angeles CA 90049
6100 S. Central Ave.,Los Angeles,CA,90001,6100 S. Central Ave. Los Angeles CA 90001
12971 Zanja St.,Los Angeles,CA,90066,12971 Zanja St. Los Angeles CA 90066
1512 S. Arlington Ave.,Los Angeles,CA,90019,1512 S. Arlington Ave. Los Angeles CA 90019
6100 S. Central Ave.,Los Angeles,CA,90001,6100 S. Central Ave. Los Angeles CA 90001
2506 Alta St.,Los Angeles,CA,90031,2506 Alta St. Los Angeles CA 90031
501 S. Boyle Ave.,Los Angeles,CA,90033,501 S. Boyle Ave. Los Angeles CA 90033
1212 Queen Anne Pl.,Los Angeles,CA,90019,1212 Queen Anne Pl. Los Angeles CA 90019
900 E. 33rd St.,Los Angeles,CA,90011,900 E. 33rd St. Los Angeles CA 90011
450 N. Grand Ave.,Los Angeles,CA,90012,450 N. Grand Ave. Los Angeles CA 90012
1133 N. Mariposa Ave.,Los Angeles,CA,90029,1133 N. Mariposa Ave. Los Angeles CA 90029
231 S. Alma Ave.,Los Angeles,CA,90063,231 S. Alma Ave. Los Angeles CA 90063
7511 Raymond Ave.,Los Angeles,CA,90044,7511 Raymond Ave. Los Angeles CA 90044
2558 N. San Fernando Rd.,Los Angeles,CA,90065,2558 N. San Fernando Rd. Los Angeles CA 90065
1265 E. 112th St.,Los Angeles,CA,90059,1265 E. 112th St. Los Angeles CA 90059
401 E. 40th Pl.,Los Angeles,CA,90011,401 E. 40th Pl. Los Angeles CA 90011
5755 Fountain Ave.,Los Angeles,CA,90028,5755 Fountain Ave. Los Angeles CA 90028
5531 Monte Vista St.,Los Angeles,CA,90042,5531 Monte Vista St. Los Angeles CA 90042
11562 Richland Ave.,Los Angeles,CA,90064,11562 Richland Ave. Los Angeles CA 90064
600 S. La Fayette Park Pl.,Los Angeles,CA,90057,600 S. La Fayette Park Pl. Los Angeles CA 90057
600 S. Lafayette Park Pl.,Los Angeles,CA,90057,600 S. Lafayette Park Pl. Los Angeles CA 90057
600 S. La Fayette Park Pl. - Third Fl.,Los Angeles,CA,90057,600 S. La Fayette Park Pl. - Third Fl. Los Angeles CA 90057
11108 Watts Ave.,Los Angeles,CA,90059,11108 Watts Ave. Los Angeles CA 90059
4010 E. Ramboz Dr.,Los Angeles,CA,90063,4010 E. Ramboz Dr. Los Angeles CA 90063
725 S. Indiana St.,Los Angeles,CA,90023,725 S. Indiana St. Los Angeles CA 90023
1303 Yosemite Dr.,Los Angeles,CA,90041,1303 Yosemite Dr. Los Angeles CA 90041
2425 Roscomare Rd.,Los Angeles,CA,90077,2425 Roscomare Rd. Los Angeles CA 90077
421 N. Rosemont Ave.,Los Angeles,CA,90026,421 N. Rosemont Ave. Los Angeles CA 90026
503 N. Croft Ave.,Los Angeles,CA,90048,503 N. Croft Ave. Los Angeles CA 90048
600 S. Rowan Ave.,Los Angeles,CA,90023,600 S. Rowan Ave. Los Angeles CA 90023
1263 E. Firestone Blvd.,Los Angeles,CA,90001,1263 E. Firestone Blvd. Los Angeles CA 90001
1755 W. 52nd St.,Los Angeles,CA,90062,1755 W. 52nd St. Los Angeles CA 90062
1933 BRD.WAY #1108,Los Angeles,CA,90007,1933 BRD.WAY #1108 Los Angeles CA 90007
1575 W. 2nd St.,Los Angeles,CA,90026,1575 W. 2nd St. Los Angeles CA 90026
1041 E. 46th St.,Los Angeles,CA,90011,1041 E. 46th St. Los Angeles CA 90011
234 E. 112th St.,Los Angeles,CA,90061,234 E. 112th St. Los Angeles CA 90061
815 San Pascual Ave.,Los Angeles,CA,90042,815 San Pascual Ave. Los Angeles CA 90042
1635 S. San Pedro St.,Los Angeles,CA,90015,1635 S. San Pedro St. Los Angeles CA 90015
1022 N. Van Ness Ave.,Los Angeles,CA,90038,1022 N. Van Ness Ave. Los Angeles CA 90038
1921 S. Maple Ave.,Los Angeles,CA,90011,1921 S. Maple Ave. Los Angeles CA 90011
5360 Saturn St.,Los Angeles,CA,90019,5360 Saturn St. Los Angeles CA 90019
701 S. Catalina St.,Los Angeles,CA,90005,701 S. Catalina St. Los Angeles CA 90005
322 Lucas Ave.,Los Angeles,CA,90017,322 Lucas Ave. Los Angeles CA 90017
1942 E. Second St.,Los Angeles,CA,90033,1942 E. Second St. Los Angeles CA 90033
142 W. 75th St.,Los Angeles,CA,90003,142 W. 75th St. Los Angeles CA 90003
2112 W. 74th St.,Los Angeles,CA,90047,2112 W. 74th St. Los Angeles CA 90047
2450 Shenandoah St.,Los Angeles,CA,90034,2450 Shenandoah St. Los Angeles CA 90034
416 N. Cornwell St.,Los Angeles,CA,90033,416 N. Cornwell St. Los Angeles CA 90033
12814 Maxella Ave.,Los Angeles,CA,90066,12814 Maxella Ave. Los Angeles CA 90066
255 S. Mednik Ave.,Los Angeles,CA,90022,255 S. Mednik Ave. Los Angeles CA 90022
3170 Budau Ave.,Los Angeles,CA,90032,3170 Budau Ave. Los Angeles CA 90032
4342 Alpha St.,Los Angeles,CA,90032,4342 Alpha St. Los Angeles CA 90032
3109 Sixth Ave.,Los Angeles,CA,90018,3109 Sixth Ave. Los Angeles CA 90018
6020 S. Figueroa St.,Los Angeles,CA,90003,6020 S. Figueroa St. Los Angeles CA 90003
6600 S. San Pedro St.,Los Angeles,CA,90003,6600 S. San Pedro St. Los Angeles CA 90003
4211 Dozier St.,Los Angeles,CA,90063,4211 Dozier St. Los Angeles CA 90063
615 Solano Ave.,Los Angeles,CA,90012,615 Solano Ave. Los Angeles CA 90012
1925 Budlong Ave.,Los Angeles,CA,90007,1925 Budlong Ave. Los Angeles CA 90007
1020 S. Soto St.,Los Angeles,CA,90023,1020 S. Soto St. Los Angeles CA 90023
2050 San Fernando Rd.,Los Angeles,CA,90065,2050 San Fernando Rd. Los Angeles CA 90065
8510 Towne Ave.,Los Angeles,CA,90003,8510 Towne Ave. Los Angeles CA 90003
333 S. Beaudry Ave. Fl. 17,Los Angeles,CA,90017,333 S. Beaudry Ave. Fl. 17 Los Angeles CA 90017
600 S. La Fayette Park Pl.,Los Angeles,CA,90057,600 S. La Fayette Park Pl. Los Angeles CA 90057
600 S. La Fayette Park Pl.,Los Angeles,CA,90057,600 S. La Fayette Park Pl. Los Angeles CA 90057
1374 W. 35TH ST.,Los Angeles,CA,90007,1374 W. 35TH ST. Los Angeles CA 90007
2821 E. Seventh St.,Los Angeles,CA,90023,2821 E. Seventh St. Los Angeles CA 90023
3537 Farmdale Ave.,Los Angeles,CA,90016,3537 Farmdale Ave. Los Angeles CA 90016
PO Box 78999,Los Angeles,CA,90016,PO Box 78999 Los Angeles CA 90016
PO Box 78638,Los Angeles,CA,90016,PO Box 78638 Los Angeles CA 90016
PO Box 78999,Los Angeles,CA,90016,PO Box 78999 Los Angeles CA 90016
10045 S. W.ern Ave.,Los Angeles,CA,90047,10045 S. W.ern Ave. Los Angeles CA 90047
8505 S. W.ern Ave.,Los Angeles,CA,90047,8505 S. W.ern Ave. Los Angeles CA 90047
10616 S. W.ern Ave.,Los Angeles,CA,90047,10616 S. W.ern Ave. Los Angeles CA 90047
1000 Grattan St.,Los Angeles,CA,90015,1000 Grattan St. Los Angeles CA 90015
5753 Obama Blvd.,Los Angeles,CA,90016,5753 Obama Blvd. Los Angeles CA 90016
1990 S. Bundy Dr. Ste. 340,Los Angeles,CA,90025,1990 S. Bundy Dr. Ste. 340 Los Angeles CA 90025
456 S. Mathews St.,Los Angeles,CA,90033,456 S. Mathews St. Los Angeles CA 90033
201 S. June St.,Los Angeles,CA,90004,201 S. June St. Los Angeles CA 90004
822 W. 32nd St.,Los Angeles,CA,90007,822 W. 32nd St. Los Angeles CA 90007
6500 Hooper Ave.,Los Angeles,CA,90001,6500 Hooper Ave. Los Angeles CA 90001
1319 E. 41st St.,Los Angeles,CA,90011,1319 E. 41st St. Los Angeles CA 90011
1524 E. 103rd St.,Los Angeles,CA,90002,1524 E. 103rd St. Los Angeles CA 90002
4201 Fountain Ave.,Los Angeles,CA,90029,4201 Fountain Ave. Los Angeles CA 90029
4514 Crenshaw Blvd.,Los Angeles,CA,90043,4514 Crenshaw Blvd. Los Angeles CA 90043
4545 Toland Way,Los Angeles,CA,90041,4545 Toland Way Los Angeles CA 90041
3875 Dublin Ave.,Los Angeles,CA,90008,3875 Dublin Ave. Los Angeles CA 90008
716 E. 14th St. Second Fl.,Los Angeles,CA,90021,716 E. 14th St. Second Fl. Los Angeles CA 90021
3736 Trinity St.,Los Angeles,CA,90011,3736 Trinity St. Los Angeles CA 90011
1353 E. 20th St.,Los Angeles,CA,90011,1353 E. 20th St. Los Angeles CA 90011
2807 Stanford Ave.,Los Angeles,CA,90011,2807 Stanford Ave. Los Angeles CA 90011
2055 W. 24th St.,Los Angeles,CA,90018,2055 W. 24th St. Los Angeles CA 90018
700 S. Mariposa Ave.,Los Angeles,CA,90005,700 S. Mariposa Ave. Los Angeles CA 90005
150 S. Burlington Ave.,Los Angeles,CA,90057,150 S. Burlington Ave. Los Angeles CA 90057
11800 Texas Ave.,Los Angeles,CA,90025,11800 Texas Ave. Los Angeles CA 90025
11227 S. San Pedro St.,Los Angeles,CA,90061,11227 S. San Pedro St. Los Angeles CA 90061
1415 Firestone Blvd.,Los Angeles,CA,90001,1415 Firestone Blvd. Los Angeles CA 90001
680 Wilshire Pl. Ste. 315,Los Angeles,CA,90005,680 Wilshire Pl. Ste. 315 Los Angeles CA 90005
255 Gabriel Garcia Marquez St.,Los Angeles,CA,90033,255 Gabriel Garcia Marquez St. Los Angeles CA 90033
6921 Woodrow Wilson Dr.,Los Angeles,CA,90068,6921 Woodrow Wilson Dr. Los Angeles CA 90068
600 S. La Fayette Park Pl.,Los Angeles,CA,90057,600 S. La Fayette Park Pl. Los Angeles CA 90057
600 S. La Fayette Park Pl.,Los Angeles,CA,90057,600 S. La Fayette Park Pl. Los Angeles CA 90057
600 S. La Fayette Park Pl.,Los Angeles,CA,90057,600 S. La Fayette Park Pl. Los Angeles CA 90057
501 N. Van Ness Ave.,Los Angeles,CA,90004,501 N. Van Ness Ave. Los Angeles CA 90004
13000 Venice Blvd.,Los Angeles,CA,90066,13000 Venice Blvd. Los Angeles CA 90066
1435 W. 27th St.,Los Angeles,CA,90007,1435 W. 27th St. Los Angeles CA 90007
2360 E. Vernon Ave.,Los Angeles,CA,90058,2360 E. Vernon Ave. Los Angeles CA 90058
4701 Rodeo Rd.,Los Angeles,CA,90016,4701 Rodeo Rd. Los Angeles CA 90016
955 N. Vine St.,Los Angeles,CA,90038,955 N. Vine St. Los Angeles CA 90038
152 N. Vermont Ave.,Los Angeles,CA,90004,152 N. Vermont Ave. Los Angeles CA 90004
2925 Virginia Rd.,Los Angeles,CA,90016,2925 Virginia Rd. Los Angeles CA 90016
2900 W. Temple St.,Los Angeles,CA,90026,2900 W. Temple St. Los Angeles CA 90026
980 S. Hobart Blvd.,Los Angeles,CA,90006,980 S. Hobart Blvd. Los Angeles CA 90006
1100 W. Manchester Ave.,Los Angeles,CA,90044,1100 W. Manchester Ave. Los Angeles CA 90044
981 E. 41st St.,Los Angeles,CA,90011,981 E. 41st St. Los Angeles CA 90011
1630 Walgrove Ave.,Los Angeles,CA,90066,1630 Walgrove Ave. Los Angeles CA 90066
4000 S. Main St.,Los Angeles,CA,90037,4000 S. Main St. Los Angeles CA 90037
615 Holmby Ave.,Los Angeles,CA,90024,615 Holmby Ave. Los Angeles CA 90024
3010 Estara Ave.,Los Angeles,CA,90065,3010 Estara Ave. Los Angeles CA 90065
860 W. 112th St.,Los Angeles,CA,90044,860 W. 112th St. Los Angeles CA 90044
310 W. 95th St.,Los Angeles,CA,90003,310 W. 95th St. Los Angeles CA 90003
8800 S. San Pedro St.,Los Angeles,CA,90003,8800 S. San Pedro St. Los Angeles CA 90003
10401 Weigand Ave.,Los Angeles,CA,90002,10401 Weigand Ave. Los Angeles CA 90002
7400 W. Manchester Ave.,Los Angeles,CA,90045,7400 W. Manchester Ave. Los Angeles CA 90045
1500 W. Washington Blvd.,Los Angeles,CA,90007,1500 W. Washington Blvd. Los Angeles CA 90007
1110 W. 119th St.,Los Angeles,CA,90044,1110 W. 119th St. Los Angeles CA 90044
4312 S. Grand Ave.,Los Angeles,CA,90037,4312 S. Grand Ave. Los Angeles CA 90037
1724 W. 53rd St.,Los Angeles,CA,90062,1724 W. 53rd St. Los Angeles CA 90062
6011 W. 79th St.,Los Angeles,CA,90045,6011 W. 79th St. Los Angeles CA 90045
2050 Selby Ave.,Los Angeles,CA,90025,2050 Selby Ave. Los Angeles CA 90025
7795 Rosewood Ave.,Los Angeles,CA,90036,7795 Rosewood Ave. Los Angeles CA 90036
3051 W. 52nd St.,Los Angeles,CA,90043,3051 W. 52nd St. Los Angeles CA 90043
3500 S. Hill St.,Los Angeles,CA,90007,3500 S. Hill St. Los Angeles CA 90007
831 N. Bonnie Beach Pl.,Los Angeles,CA,90063,831 N. Bonnie Beach Pl. Los Angeles CA 90063
5241 W. Olympic Blvd.,Los Angeles,CA,90036,5241 W. Olympic Blvd. Los Angeles CA 90036
4063 Ingraham St.,Los Angeles,CA,90005,4063 Ingraham St. Los Angeles CA 90005
745 S. Wilton Pl.,Los Angeles,CA,90005,745 S. Wilton Pl. Los Angeles CA 90005
5215 Overdale Dr.,Los Angeles,CA,90043,5215 Overdale Dr. Los Angeles CA 90043
1277 S. Clela Ave.,Los Angeles,CA,90022,1277 S. Clela Ave. Los Angeles CA 90022
1125 E. 74th St.,Los Angeles,CA,90001,1125 E. 74th St. Los Angeles CA 90001
7400 W. Manchester Ave.,Los Angeles,CA,90045,7400 W. Manchester Ave. Los Angeles CA 90045
6550 W. 80th St.,Los Angeles,CA,90045,6550 W. 80th St. Los Angeles CA 90045
8510 Wonderland Ave.,Los Angeles,CA,90046,8510 Wonderland Ave. Los Angeles CA 90046
1151 W. 109th St.,Los Angeles,CA,90044,1151 W. 109th St. Los Angeles CA 90044
4500 Multnomah St.,Los Angeles,CA,90032,4500 Multnomah St. Los Angeles CA 90032
3140 Hyde Park Blvd.,Los Angeles,CA,90043,3140 Hyde Park Blvd. Los Angeles CA 90043
5657 Meridian St.,Los Angeles,CA,90042,5657 Meridian St. Los Angeles CA 90042
615 S. Shatto Pl.,Los Angeles,CA,90005,615 S. Shatto Pl. Los Angeles CA 90005
943 W. 85th St.,Los Angeles,CA,90044,943 W. 85th St. Los Angeles CA 90044
2202 S. Figueroa Ste. 728,Los Angeles,CA,90007,2202 S. Figueroa Ste. 728 Los Angeles CA 90007
5320 Pine Ave.,Long Beach,CA,90805,5320 Pine Ave. Long Beach CA 90805
1400 E. 20th St.,Long Beach,CA,90806,1400 E. 20th St. Long Beach CA 90806
5301 E. Centralia St.,Long Beach,CA,90808,5301 E. Centralia St. Long Beach CA 90808
1100 E. Del Amo Blvd.,Long Beach,CA,90807,1100 E. Del Amo Blvd. Long Beach CA 90807
3701 E. Willow St.,Long Beach,CA,90815,3701 E. Willow St. Long Beach CA 90815
710 W. Spring St.,Long Beach,CA,90806,710 W. Spring St. Long Beach CA 90806
5251 E. Stearns St.,Long Beach,CA,90815,5251 E. Stearns St. Long Beach CA 90815
565 E. Hill St.,Long Beach,CA,90806,565 E. Hill St. Long Beach CA 90806
4101 E. Fountain St.,Long Beach,CA,90804,4101 E. Fountain St. Long Beach CA 90804
501 Junipero Ave.,Long Beach,CA,90814,501 Junipero Ave. Long Beach CA 90814
5610 E. Monlaco Rd.,Long Beach,CA,90808,5610 E. Monlaco Rd. Long Beach CA 90808
2001 Santa Fe Ave.,Long Beach,CA,90810,2001 Santa Fe Ave. Long Beach CA 90810
6125 Coke St.,Long Beach,CA,90805,6125 Coke St. Long Beach CA 90805
5335 E. Pavo St.,Long Beach,CA,90808,5335 E. Pavo St. Long Beach CA 90808
730 W. Third St.,Long Beach,CA,90802,730 W. Third St. Long Beach CA 90802
4401 Atlantic Ave. Ste. 200,Long Beach,CA,90807,4401 Atlantic Ave. Ste. 200 Long Beach CA 90807
3635 Atlantic Ave,Long Beach,CA,90807,3635 Atlantic Ave Long Beach CA 90807
3200 Monogram Ave.,Long Beach,CA,90808,3200 Monogram Ave. Long Beach CA 90808
5075 Long Beach Blvd.,Long Beach,CA,90805,5075 Long Beach Blvd. Long Beach CA 90805
625 Maine Ave.,Long Beach,CA,90802,625 Maine Ave. Long Beach CA 90802
1794 Cedar Ave.,Long Beach,CA,90813,1794 Cedar Ave. Long Beach CA 90813
2625 Josie Ave.,Long Beach,CA,90815,2625 Josie Ave. Long Beach CA 90815
7025 E. Parkcrest St.,Long Beach,CA,90808,7025 E. Parkcrest St. Long Beach CA 90808
1100 Iroquois Ave.,Long Beach,CA,90815,1100 Iroquois Ave. Long Beach CA 90815
540 Cerritos Ave.,Long Beach,CA,90802,540 Cerritos Ave. Long Beach CA 90802
4000 E. Fourth St.,Long Beach,CA,90814,4000 E. Fourth St. Long Beach CA 90814
1854 Britton Dr.,Long Beach,CA,90815,1854 Britton Dr. Long Beach CA 90815
2240 Baltic Ave.,Long Beach,CA,90810,2240 Baltic Ave. Long Beach CA 90810
1225 E. 64th St.,Long Beach,CA,90805,1225 E. 64th St. Long Beach CA 90805
1060 E. 70th St.,Long Beach,CA,90805,1060 E. 70th St. Long Beach CA 90805
1671 E. Phillips St.,Long Beach,CA,90805,1671 E. Phillips St. Long Beach CA 90805
7020 E. Brittain St.,Long Beach,CA,90808,7020 E. Brittain St. Long Beach CA 90808
3720 Canehill Ave.,Long Beach,CA,90808,3720 Canehill Ave. Long Beach CA 90808
2335 Webster Ave.,Long Beach,CA,90810,2335 Webster Ave. Long Beach CA 90810
3846 CA Ave.,Long Beach,CA,90807,3846 CA Ave. Long Beach CA 90807
1637 Long Beach Blvd.,Long Beach,CA,90813,1637 Long Beach Blvd. Long Beach CA 90813
3601 Linden Ave.,Long Beach,CA,90807,3601 Linden Ave. Long Beach CA 90807
750 Euclid Ave.,Long Beach,CA,90804,750 Euclid Ave. Long Beach CA 90804
700 Locust Ave.,Long Beach,CA,90813,700 Locust Ave. Long Beach CA 90813
6500 Atlantic Ave.,Long Beach,CA,90805,6500 Atlantic Ave. Long Beach CA 90805
550 Silvera Ave.,Long Beach,CA,90803,550 Silvera Ave. Long Beach CA 90803
145 E. Artesia Blvd.,Long Beach,CA,90805,145 E. Artesia Blvd. Long Beach CA 90805
2445 Chestnut Ave.,Long Beach,CA,90806,2445 Chestnut Ave. Long Beach CA 90806
1175 E. 11th St.,Long Beach,CA,90813,1175 E. 11th St. Long Beach CA 90813
1022 E. Market St.,Long Beach,CA,90805,1022 E. Market St. Long Beach CA 90805
5075 Daisy Ave.,Long Beach,CA,90805,5075 Daisy Ave. Long Beach CA 90805
3701B E. Willow St.,Long Beach,CA,90815,3701B E. Willow St. Long Beach CA 90815
3800 Olive Ave.,Long Beach,CA,90807,3800 Olive Ave. Long Beach CA 90807
515 W. San Antonio Dr.,Long Beach,CA,90807,515 W. San Antonio Dr. Long Beach CA 90807
5201 E. BRd.way,Long Beach,CA,90803,5201 E. BRd.way Long Beach CA 90803
257 Coronado Ave.,Long Beach,CA,90803,257 Coronado Ave. Long Beach CA 90803
5870 E. Wardlow Rd.,Long Beach,CA,90808,5870 E. Wardlow Rd. Long Beach CA 90808
6822 Paramount Blvd.,Long Beach,CA,90805,6822 Paramount Blvd. Long Beach CA 90805
2800 Snowden Ave.,Long Beach,CA,90815,2800 Snowden Ave. Long Beach CA 90815
3038 Delta Ave.,Long Beach,CA,90810,3038 Delta Ave. Long Beach CA 90810
5537 The Toledo,Long Beach,CA,90803,5537 The Toledo Long Beach CA 90803
3351 Val Verde Ave.,Long Beach,CA,90808,3351 Val Verde Ave. Long Beach CA 90808
1620 Temple Ave.,Long Beach,CA,90804,1620 Temple Ave. Long Beach CA 90804
1600 Atlantic Ave.,Long Beach,CA,90813,1600 Atlantic Ave. Long Beach CA 90813
150 Victoria St.,Long Beach,CA,90805,150 Victoria St. Long Beach CA 90805
2375 Fanwood Ave.,Long Beach,CA,90815,2375 Fanwood Ave. Long Beach CA 90815
4110 Santa Fe Ave.,Long Beach,CA,90810,4110 Santa Fe Ave. Long Beach CA 90810
2153 W. Hill St.,Long Beach,CA,90810,2153 W. Hill St. Long Beach CA 90810
235 E. 8th St.,Long Beach,CA,90813,235 E. 8th St. Long Beach CA 90813
2120 Obispo Ave.,Long Beach,CA,90804,2120 Obispo Ave. Long Beach CA 90804
2750 Pine Ave.,Long Beach,CA,90806,2750 Pine Ave. Long Beach CA 90806
365 Monrovia Ave.,Long Beach,CA,90803,365 Monrovia Ave. Long Beach CA 90803
1574 Linden Ave.,Long Beach,CA,90813,1574 Linden Ave. Long Beach CA 90813
2221 Argonne Ave.,Long Beach,CA,90815,2221 Argonne Ave. Long Beach CA 90815
5871 E. Los Arcos St.,Long Beach,CA,90815,5871 E. Los Arcos St. Long Beach CA 90815
1830 W. Columbia St.,Long Beach,CA,90810,1830 W. Columbia St. Long Beach CA 90810
515 Lime Ave.,Long Beach,CA,90802,515 Lime Ave. Long Beach CA 90802
3635 Atlantic Ave.,Long Beach,CA,90807,3635 Atlantic Ave. Long Beach CA 90807
1701 Petaluma Ave.,Long Beach,CA,90815,1701 Petaluma Ave. Long Beach CA 90815
5021 E. Centralia St.,Long Beach,CA,90808,5021 E. Centralia St. Long Beach CA 90808
1450 Cedar Ave.,Long Beach,CA,90813,1450 Cedar Ave. Long Beach CA 90813
1635 Long Beach Blvd.,Long Beach,CA,90813,1635 Long Beach Blvd. Long Beach CA 90813
1755 W. 32nd Way,Long Beach,CA,90810,1755 W. 32nd Way Long Beach CA 90810
1761 Walnut Ave.,Long Beach,CA,90813,1761 Walnut Ave. Long Beach CA 90813
1055 Freeman Ave.,Long Beach,CA,90804,1055 Freeman Ave. Long Beach CA 90804
4400 E. Tenth St.,Long Beach,CA,90804,4400 E. Tenth St. Long Beach CA 90804
1011 S Naper Blvd,Naperville,IL,60540,1011 S Naper Blvd Naperville IL 60540
2620 Leverenz Rd,Naperville,IL,60564,2620 Leverenz Rd Naperville IL 60564
110 E 11th Ave,Naperville,IL,60563,110 E 11th Ave Naperville IL 60563
1200 Redfield Rd,Naperville,IL,60563,1200 Redfield Rd Naperville IL 60563
4020 111th St,Naperville,IL,60564,4020 111th St Naperville IL 60564
4008 Chinaberry Ln,Naperville,IL,60564,4008 Chinaberry Ln Naperville IL 60564
6S331 Cornwall Rd,Naperville,IL,60540,6S331 Cornwall Rd Naperville IL 60540
145 N Sleight St,Naperville,IL,60540,145 N Sleight St Naperville IL 60540
1024 Magnolia Ln,Naperville,IL,60540,1024 Magnolia Ln Naperville IL 60540
3204 Tall Grass Dr,Naperville,IL,60564,3204 Tall Grass Dr Naperville IL 60564
2621 Springdale Cir,Naperville,IL,60564,2621 Springdale Cir Naperville IL 60564
525 S Brainard St,Naperville,IL,60540,525 S Brainard St Naperville IL 60540
30W200 Ferry Rd,Naperville,IL,60563,30W200 Ferry Rd Naperville IL 60563
1525 N Loomis St,Naperville,IL,60563,1525 N Loomis St Naperville IL 60563
2403 Kingsley Dr,Naperville,IL,60565,2403 Kingsley Dr Naperville IL 60565
1320 Olympus Dr,Naperville,IL,60565,1320 Olympus Dr Naperville IL 60565
30W240 Bruce Ln,Naperville,IL,60563,30W240 Bruce Ln Naperville IL 60563
1000 River Oak Dr,Naperville,IL,60565,1000 River Oak Dr Naperville IL 60565
1630 Warbler Dr,Naperville,IL,60565,1630 Warbler Dr Naperville IL 60565
1212 Sanctuary Ln,Naperville,IL,60540,1212 Sanctuary Ln Naperville IL 60540
800 S Whispering Hills Dr,Naperville,IL,60540,800 S Whispering Hills Dr Naperville IL 60540
1150 Muirhead Ave,Naperville,IL,60565,1150 Muirhead Ave Naperville IL 60565
1300 N Mill St,Naperville,IL,60563,1300 N Mill St Naperville IL 60563
39 S Eagle St,Naperville,IL,60540,39 S Eagle St Naperville IL 60540
440 Aurora Ave,Naperville,IL,60540,440 Aurora Ave Naperville IL 60540
899 N Mill St,Naperville,IL,60563,899 N Mill St Naperville IL 60563
2360 95th St,Naperville,IL,60564,2360 95th St Naperville IL 60564
2408 Meadow Lake Dr,Naperville,IL,60564,2408 Meadow Lake Dr Naperville IL 60564
1560 Westglen Dr,Naperville,IL,60565,1560 Westglen Dr Naperville IL 60565
3731 Lawrence Dr,Naperville,IL,60564,3731 Lawrence Dr Naperville IL 60564
500 S Charles Ave,Naperville,IL,60540,500 S Charles Ave Naperville IL 60540
1651 Ranchview Dr,Naperville,IL,60565,1651 Ranchview Dr Naperville IL 60565
2607 River Woods Dr,Naperville,IL,60565,2607 River Woods Dr Naperville IL 60565
1301 Springdale Cir,Naperville,IL,60564,1301 Springdale Cir Naperville IL 60564
500 Warwick Dr,Naperville,IL,60565,500 Warwick Dr Naperville IL 60565
2815 Mistflower Ln,Naperville,IL,60564,2815 Mistflower Ln Naperville IL 60564
6S331 Cornwall Rd,Naperville,IL,60540,6S331 Cornwall Rd Naperville IL 60540
2700 Seiler Dr,Naperville,IL,60565,2700 Seiler Dr Naperville IL 60565
6S151 Steeple Run Dr,Naperville,IL,60540,6S151 Steeple Run Dr Naperville IL 60540
1836 Brookdale Rd,Naperville,IL,60563,1836 Brookdale Rd Naperville IL 60563
2315 High Meadow Rd,Naperville,IL,60564,2315 High Meadow Rd Naperville IL 60564
201 N Washington St,Naperville,IL,60540,201 N Washington St Naperville IL 60540
3003 103Rd St,Naperville,IL,60564,3003 103Rd St Naperville IL 60564
1585 White Eagle Dr,Naperville,IL,60564,1585 White Eagle Dr Naperville IL 60564
